timestamp,imedvode1_dewpoint,imedvode1_heat_index,imedvode1_precipitation_rate,imedvode1_precipitation_today,imedvode1_pressure,imedvode1_relative_humidity,imedvode1_solar_radiation,imedvode1_temperature,imedvode1_uv_index,imedvode1_wind_chill,imedvode1_wind_direction_degrees,windCardinals,imedvode1_wind_gust,imedvode1_wind_speed,condition1,condition2,visibility,condition3,sky,max_solar_radiation,image_name
2025-07-18 22:36,15.6,18.1,0.0,0.0,1014.19,85.0,23.7,18.1,1.0,18.1,327.0,NW,0.0,0.4,DRY,,9999.0,,Night,0.0,night.gif
2025-07-18 22:41,15.7,18.1,0.0,0.0,1014.09,86.0,23.7,18.1,1.0,18.1,326.0,NW,0.0,0.0,DRY,,9999.0,,Night,0.0,night.gif
2025-07-18 22:46,15.5,18.1,0.0,0.0,1014.29,85.0,23.7,18.1,1.0,18.1,326.0,NW,1.8,1.1,DRY,,9999.0,,Night,0.0,night.gif
2025-07-18 22:51,15.8,18.6,0.0,0.0,1014.29,84.0,23.7,18.6,1.0,18.6,326.0,NW,0.0,0.0,DRY,,9999.0,,Night,0.0,night.gif
2025-07-18 22:56,15.6,18.0,0.0,0.0,1014.19,86.0,23.7,18.0,1.0,18.0,326.0,NW,0.0,0.0,DRY,,9999.0,,Night,0.0,night.gif
2025-07-18 23:01,15.7,17.8,0.0,0.0,1014.39,88.0,23.7,17.8,1.0,17.8,326.0,NW,1.8,1.8,DRY,,9999.0,,Night,0.0,night.gif
2025-07-18 23:06,15.6,17.3,0.0,0.0,1014.39,90.0,23.7,17.3,1.0,17.3,319.0,NW,3.6,2.2,DRY,,9999.0,,Night,0.0,night.gif
2025-07-18 23:11,15.8,17.2,0.0,0.0,1014.29,91.0,23.7,17.2,1.0,17.2,321.0,NW,3.6,3.6,DRY,,9999.0,,Night,0.0,night.gif
2025-07-18 23:16,15.7,17.8,0.0,0.0,1014.49,88.0,23.7,17.8,1.0,17.8,321.0,NW,1.8,1.4,DRY,,9999.0,,Night,0.0,night.gif
2025-07-18 23:21,15.5,17.6,0.0,0.0,1014.39,88.0,23.7,17.6,1.0,17.6,321.0,NW,1.8,0.4,DRY,,9999.0,,Night,0.0,night.gif
2025-07-18 23:26,15.6,17.7,0.0,0.0,1014.49,88.0,23.7,17.7,1.0,17.7,321.0,NW,0.0,0.0,DRY,,9999.0,,Night,0.0,night.gif
2025-07-18 23:31,15.7,17.4,0.0,0.0,1014.29,90.0,23.7,17.4,1.0,17.4,321.0,NW,0.0,0.0,DRY,,9999.0,,Night,0.0,night.gif
2025-07-18 23:36,15.5,17.2,0.0,0.0,1014.6,90.0,23.7,17.2,1.0,17.2,321.0,NW,0.0,0.0,DRY,,9999.0,,Night,0.0,night.gif
2025-07-18 23:41,15.7,17.1,0.0,0.0,1014.49,91.0,23.7,17.1,1.0,17.1,321.0,NW,0.0,0.0,DRY,,9999.0,,Night,0.0,night.gif
2025-07-18 23:46,15.7,17.0,0.0,0.0,1014.49,92.0,23.7,17.0,1.0,17.0,321.0,NW,1.8,0.7,DRY,,9999.0,,Night,0.0,night.gif
2025-07-18 23:51,15.4,16.7,0.0,0.0,1014.49,92.0,23.7,16.7,1.0,16.7,321.0,NW,1.8,0.4,DRY,,9999.0,,Night,0.0,night.gif
2025-07-18 23:56,15.4,16.6,0.0,0.0,1014.49,93.0,23.7,16.6,1.0,16.6,321.0,NW,0.0,0.0,DRY,,9999.0,,Night,0.0,night.gif
2025-07-19 00:01,15.4,16.6,0.0,0.0,1014.49,93.0,23.7,16.6,1.0,16.6,321.0,NW,3.6,3.6,DRY,,9999.0,,Night,0.0,night.gif
2025-07-19 00:06,15.3,16.5,0.0,0.0,1014.7,93.0,23.7,16.5,1.0,16.5,321.0,NW,1.8,1.8,DRY,,9999.0,,Night,0.0,night.gif
2025-07-19 00:11,15.3,16.5,0.0,0.0,1014.7,93.0,23.7,16.5,1.0,16.5,321.0,NW,0.0,0.0,DRY,,9999.0,,Night,0.0,night.gif
2025-07-19 00:16,15.2,16.4,0.0,0.0,1014.8,93.0,23.7,16.4,1.0,16.4,321.0,NW,1.8,1.8,DRY,,9999.0,,Night,0.0,night.gif
2025-07-19 00:21,15.4,16.6,0.0,0.0,1014.7,93.0,23.7,16.6,1.0,16.6,321.0,NW,1.8,0.4,DRY,,9999.0,,Night,0.0,night.gif
2025-07-19 00:26,15.1,16.3,0.0,0.0,1015.0,93.0,23.7,16.3,1.0,16.3,321.0,NW,1.8,1.8,DRY,,9999.0,,Night,0.0,night.gif
2025-07-19 00:31,15.0,16.2,0.0,0.0,1014.8,93.0,23.7,16.2,1.0,16.2,321.0,NW,0.0,0.0,DRY,,9999.0,,Night,0.0,night.gif
2025-07-19 00:36,15.0,16.0,0.0,0.0,1014.49,94.0,23.7,16.0,1.0,16.0,321.0,NW,0.0,0.0,DRY,,9999.0,,Night,0.0,night.gif
2025-07-19 00:41,15.0,16.1,0.0,0.0,1014.6,94.0,23.7,16.1,1.0,16.1,321.0,NW,1.8,0.4,DRY,,9999.0,,Night,0.0,night.gif
2025-07-19 00:46,15.2,16.3,0.0,0.0,1014.7,94.0,23.7,16.3,1.0,16.3,321.0,NW,1.8,0.7,DRY,,9999.0,,Night,0.0,night.gif
2025-07-19 00:51,15.3,16.4,0.0,0.0,1014.7,94.0,23.7,16.4,1.0,16.4,321.0,NW,0.0,0.0,DRY,,9999.0,,Night,0.0,night.gif
2025-07-19 00:56,14.9,15.9,0.0,0.0,1014.8,94.0,23.7,15.9,1.0,15.9,322.0,NW,1.8,0.7,DRY,,9999.0,,Night,0.0,night.gif
2025-07-19 01:01,14.8,15.8,0.0,0.0,1014.8,94.0,23.7,15.8,1.0,15.8,321.0,NW,0.0,0.0,DRY,,9999.0,,Night,0.0,night.gif
2025-07-19 01:06,14.9,15.9,0.0,0.0,1014.49,94.0,23.7,15.9,1.0,15.9,321.0,NW,0.0,0.0,DRY,,9999.0,,Night,0.0,night.gif
2025-07-19 01:11,14.9,15.7,0.0,0.0,1014.7,95.0,23.7,15.7,1.0,15.7,321.0,NW,0.0,0.0,DRY,,9999.0,,Night,0.0,night.gif
2025-07-19 01:16,15.0,15.8,0.0,0.0,1014.9,95.0,23.7,15.8,1.0,15.8,321.0,NW,0.0,0.0,DRY,,9999.0,,Night,0.0,night.gif
2025-07-19 01:21,15.0,15.8,0.0,0.0,1014.7,95.0,23.7,15.8,1.0,15.8,321.0,NW,0.0,0.0,DRY,,9999.0,,Night,0.0,night.gif
2025-07-19 01:26,15.0,15.8,0.0,0.0,1014.6,95.0,23.7,15.8,1.0,15.8,321.0,NW,1.8,0.4,DRY,,9999.0,,Night,0.0,night.gif
2025-07-19 01:31,15.1,15.9,0.0,0.0,1014.49,95.0,23.7,15.9,1.0,15.9,321.0,NW,0.0,0.0,DRY,,9999.0,,Night,0.0,night.gif
2025-07-19 01:36,15.0,15.8,0.0,0.0,1014.7,95.0,23.7,15.8,1.0,15.8,321.0,NW,1.8,1.1,DRY,,9999.0,,Night,0.0,night.gif
2025-07-19 01:41,15.0,15.8,0.0,0.0,1014.6,95.0,23.7,15.8,1.0,15.8,321.0,NW,1.8,1.8,DRY,,9999.0,,Night,0.0,night.gif
2025-07-19 01:46,14.6,15.4,0.0,0.0,1014.6,95.0,23.7,15.4,1.0,15.4,321.0,NW,1.8,1.4,DRY,,9999.0,,Night,0.0,night.gif
2025-07-19 01:51,14.5,15.3,0.0,0.0,1014.49,95.0,23.7,15.3,1.0,15.3,321.0,NW,0.0,0.0,DRY,,9999.0,,Night,0.0,night.gif
2025-07-19 01:56,15.1,15.7,0.0,0.0,1014.6,96.0,23.7,15.7,1.0,15.7,321.0,NW,0.0,0.0,DRY,,9999.0,,Night,0.0,night.gif
2025-07-19 02:01,14.9,15.5,0.0,0.0,1014.49,96.0,23.7,15.5,1.0,15.5,321.0,NW,0.0,0.0,DRY,,9999.0,,Night,0.0,night.gif
2025-07-19 02:06,14.9,15.9,0.0,0.0,1014.29,94.0,23.7,15.9,1.0,15.9,269.0,W,1.8,0.4,DRY,,9999.0,,Night,0.0,night.gif
2025-07-19 02:11,14.8,16.0,0.0,0.0,1014.39,93.0,23.7,16.0,1.0,16.0,251.0,W,0.0,0.0,DRY,,9999.0,,Night,0.0,night.gif
2025-07-19 02:16,14.7,16.0,0.0,0.0,1014.29,92.0,23.7,16.0,1.0,16.0,321.0,NW,3.6,2.2,DRY,,9999.0,,Night,0.0,night.gif
2025-07-19 02:21,14.0,15.2,0.0,0.0,1014.39,93.0,23.7,15.2,1.0,15.2,321.0,NW,0.0,0.0,DRY,,9999.0,,Night,0.0,night.gif
2025-07-19 02:26,14.1,14.9,0.0,0.0,1014.49,95.0,23.7,14.9,1.0,14.9,321.0,NW,3.6,3.6,DRY,,9999.0,,Night,0.0,night.gif
2025-07-19 02:31,14.3,14.9,0.0,0.0,1014.6,96.0,23.7,14.9,1.0,14.9,329.0,NW,3.6,3.6,DRY,,9999.0,,Night,0.0,night.gif
2025-07-19 02:36,14.3,14.9,0.0,0.0,1014.49,96.0,23.7,14.9,1.0,14.9,335.0,NW,3.6,3.6,DRY,,9999.0,,Night,0.0,night.gif
2025-07-19 02:41,14.5,15.1,0.0,0.0,1014.6,96.0,23.7,15.1,1.0,15.1,333.0,NW,3.6,3.6,DRY,,9999.0,,Night,0.0,night.gif
2025-07-19 02:46,14.5,15.1,0.0,0.0,1014.49,96.0,23.7,15.1,1.0,15.1,320.0,NW,1.8,1.4,DRY,,9999.0,,Night,0.0,night.gif
2025-07-19 02:51,14.5,15.1,0.0,0.0,1014.49,96.0,23.7,15.1,1.0,15.1,320.0,NW,0.0,0.0,DRY,,9999.0,,Night,0.0,night.gif
2025-07-19 02:56,14.7,15.3,0.0,0.0,1014.6,96.0,23.7,15.3,1.0,15.3,319.0,NW,0.0,0.0,DRY,,9999.0,,Night,0.0,night.gif
2025-07-19 03:01,14.6,15.2,0.0,0.0,1014.39,96.0,23.7,15.2,1.0,15.2,320.0,NW,0.0,0.0,DRY,,9999.0,,Night,0.0,night.gif
2025-07-19 03:06,14.4,15.0,0.0,0.0,1014.49,96.0,23.7,15.0,1.0,15.0,320.0,NW,0.0,0.0,DRY,,9999.0,,Night,0.0,night.gif
2025-07-19 03:11,14.4,15.0,0.0,0.0,1014.09,96.0,23.7,15.0,1.0,15.0,320.0,NW,0.0,0.0,DRY,,9999.0,,Night,0.0,night.gif
2025-07-19 03:16,14.3,14.9,0.0,0.0,1014.29,96.0,23.7,14.9,1.0,14.9,320.0,NW,3.6,2.2,DRY,,9999.0,,Night,0.0,night.gif
2025-07-19 03:21,13.8,14.4,0.0,0.0,1014.6,96.0,23.7,14.4,1.0,14.4,320.0,NW,1.8,1.8,DRY,,9999.0,,Night,0.0,night.gif
2025-07-19 03:26,13.9,14.3,0.0,0.0,1014.49,97.0,23.7,14.3,1.0,14.3,320.0,NW,1.8,1.8,DRY,,9999.0,,Night,0.0,night.gif
2025-07-19 03:31,13.7,14.1,0.0,0.0,1014.29,97.0,23.7,14.1,1.0,14.1,320.0,NW,1.8,1.8,DRY,,9999.0,,Night,0.0,night.gif
2025-07-19 03:36,13.9,14.3,0.0,0.0,1014.39,97.0,23.7,14.3,1.0,14.3,320.0,NW,1.8,1.4,DRY,,9999.0,,Night,0.0,night.gif
2025-07-19 03:41,14.0,14.4,0.0,0.0,1014.19,97.0,23.7,14.4,1.0,14.4,320.0,NW,1.8,1.4,DRY,,9999.0,,Night,0.0,night.gif
2025-07-19 03:46,14.0,14.4,0.0,0.0,1014.19,97.0,23.7,14.4,1.0,14.4,319.0,NW,1.8,1.8,DRY,,9999.0,,Night,0.0,night.gif
2025-07-19 03:51,13.9,14.3,0.0,0.0,1014.29,97.0,23.7,14.3,1.0,14.3,319.0,NW,0.0,0.0,DRY,,9999.0,,Night,0.0,night.gif
2025-07-19 03:56,14.0,14.4,0.0,0.0,1014.29,97.0,23.7,14.4,1.0,14.4,319.0,NW,0.0,0.0,DRY,,9999.0,,Night,0.0,night.gif
2025-07-19 04:01,13.9,14.3,0.0,0.0,1014.29,97.0,23.7,14.3,1.0,14.3,319.0,NW,0.0,0.0,DRY,,9999.0,,Night,0.0,night.gif
2025-07-19 04:06,14.0,14.4,0.0,0.0,1014.19,97.0,23.7,14.4,1.0,14.4,319.0,NW,0.0,0.0,DRY,,9999.0,,Night,0.0,night.gif
2025-07-19 06:16,13.8,14.1,0.0,0.0,1014.7,98.0,23.7,14.1,1.0,14.1,318.0,NW,0.0,0.0,DRY,,9999.0,,Partly Cloudy,60.30017101415636,partly_cloudy.gif
2025-07-19 06:26,14.3,14.7,0.0,0.0,1014.6,97.0,31.0,14.7,1.0,14.7,318.0,NW,0.0,0.0,DRY,,9999.0,,Partly Cloudy,75.12862185491771,partly_cloudy.gif
2025-07-19 06:31,14.7,15.1,0.0,0.0,1014.49,97.0,34.4,15.1,1.0,15.1,318.0,NW,0.0,0.0,DRY,,9999.0,,Partly Cloudy,82.61675602557322,partly_cloudy.gif
2025-07-19 06:36,14.8,15.4,0.0,0.0,1014.6,96.0,37.5,15.4,1.0,15.4,318.0,NW,0.0,0.0,DRY,,9999.0,,Partly Cloudy,90.14508787706764,partly_cloudy.gif
2025-07-19 06:41,15.0,16.2,0.0,0.0,1014.49,93.0,42.2,16.2,1.0,16.2,318.0,NW,0.0,0.0,DRY,,9999.0,,Partly Cloudy,99.57485649615226,partly_cloudy.gif
2025-07-19 06:46,15.0,16.3,0.0,0.0,1014.7,92.0,45.0,16.3,1.0,16.3,318.0,NW,0.0,0.0,DRY,,9999.0,,Partly Cloudy,111.95662334758862,partly_cloudy.gif
2025-07-19 06:51,15.2,17.6,0.0,0.0,1014.6,86.0,49.6,17.6,1.0,17.6,318.0,NW,0.0,0.0,DRY,,9999.0,,Partly Cloudy,124.55153927051666,partly_cloudy.gif
2025-07-19 06:56,15.6,17.8,0.0,0.0,1014.6,87.0,53.1,17.8,1.0,17.8,318.0,NW,1.8,0.4,DRY,,9999.0,,Partly Cloudy,137.32527839664868,partly_cloudy.gif
2025-07-19 07:01,15.3,17.0,0.0,0.0,1014.49,90.0,57.1,17.0,1.0,17.0,318.0,NW,0.0,0.0,DRY,,9999.0,,Partly Cloudy,150.24870753139956,partly_cloudy.gif
2025-07-19 07:06,15.3,17.0,0.0,0.0,1014.49,90.0,61.8,17.0,1.0,17.0,318.0,NW,1.8,1.4,DRY,,9999.0,,Partly Cloudy,163.2967444326737,partly_cloudy.gif
2025-07-19 07:11,15.2,17.1,0.0,0.0,1014.49,89.0,67.2,17.1,1.0,17.1,318.0,NW,1.8,0.4,DRY,,9999.0,,Partly Cloudy,176.44749871127257,partly_cloudy.gif
2025-07-19 07:16,15.3,17.2,0.0,0.0,1014.6,89.0,73.0,17.2,1.0,17.2,318.0,NW,1.8,1.1,DRY,,9999.0,,Partly Cloudy,189.6816193528132,partly_cloudy.gif
2025-07-19 07:21,15.5,17.5,0.0,0.0,1014.6,88.0,78.3,17.5,1.0,17.5,318.0,NW,0.0,0.0,DRY,,9999.0,,Partly Cloudy,202.98179456334503,partly_cloudy.gif
2025-07-19 13:18,15.8,28.0,0.0,0.0,1011.99,48.0,140.7,27.8,1.0,27.8,212.0,SW,11.2,7.9,DRY,,9999.0,,Cloudy,803.4076786730787,cloudy.gif
2025-07-19 13:23,15.9,27.6,0.0,0.0,1011.62,50.0,178.9,27.2,1.0,27.2,322.0,NW,13.0,9.0,DRY,,9999.0,,Cloudy,802.6865321264072,cloudy.gif
2025-07-19 13:28,16.3,28.0,0.0,0.0,1011.89,50.0,546.3,27.6,5.0,27.6,217.0,SW,14.8,11.2,DRY,,9999.0,,Mostly Sunny,801.6598004478597,mostly_sunny.gif
2025-07-19 13:33,16.4,28.1,0.0,0.0,1011.62,50.0,708.4,27.7,6.0,27.7,297.0,NW,9.4,7.2,DRY,,9999.0,,Sunny,800.3279797012634,sunny.gif
2025-07-19 13:38,16.1,28.1,0.0,0.0,1011.51,49.0,696.6,27.8,6.0,27.8,309.0,NW,22.0,18.0,DRY,,9999.0,,Sunny,798.6917152761504,sunny.gif
2025-07-19 13:43,16.6,28.1,0.0,0.0,1011.41,51.0,665.4,27.6,6.0,27.6,257.0,W,13.0,10.4,DRY,,9999.0,,Mostly Sunny,796.7518016318637,mostly_sunny.gif
2025-07-19 13:48,17.1,28.8,0.0,0.0,1011.41,51.0,223.4,28.2,2.0,28.2,280.0,W,9.4,7.2,DRY,,9999.0,,Cloudy,794.5091819901303,cloudy.gif
2025-07-19 13:53,16.5,28.3,0.0,0.0,1011.51,50.0,650.6,27.9,6.0,27.9,25.0,NE,9.4,7.2,DRY,,9999.0,,Mostly Sunny,791.9649479703767,mostly_sunny.gif
2025-07-19 13:58,16.8,28.9,0.0,0.0,1011.31,49.0,654.3,28.5,6.0,28.5,273.0,W,7.2,4.3,DRY,,9999.0,,Mostly Sunny,789.1203391620802,mostly_sunny.gif
2025-07-19 14:03,17.0,28.9,0.0,0.0,1011.62,50.0,653.4,28.4,6.0,28.4,311.0,NW,11.2,7.9,DRY,,9999.0,,Mostly Sunny,785.9767426508397,mostly_sunny.gif
2025-07-19 14:08,16.9,29.1,0.0,0.0,1011.51,49.0,649.9,28.6,6.0,28.6,212.0,SW,16.6,10.4,DRY,,9999.0,,Mostly Sunny,782.5356924794288,mostly_sunny.gif
2025-07-19 14:13,17.2,29.2,0.0,0.0,1011.31,50.0,653.6,28.6,6.0,28.6,225.0,SW,11.2,8.3,DRY,,9999.0,,Mostly Sunny,778.7988690651796,mostly_sunny.gif
2025-07-19 14:18,17.6,29.4,0.0,0.0,1011.51,51.0,649.7,28.7,6.0,28.7,223.0,SW,3.6,2.5,DRY,,9999.0,,Mostly Sunny,774.7680985546226,mostly_sunny.gif
2025-07-19 14:23,16.3,29.0,0.0,0.0,1011.62,47.0,645.0,28.7,6.0,28.7,264.0,W,9.4,5.4,DRY,,9999.0,,Mostly Sunny,770.4453521369807,mostly_sunny.gif
2025-07-19 14:28,16.9,29.1,0.0,0.0,1011.62,49.0,640.3,28.6,6.0,28.6,229.0,SW,5.4,3.6,DRY,,9999.0,,Mostly Sunny,765.8327452984535,mostly_sunny.gif
2025-07-19 14:33,17.1,29.3,0.0,0.0,1011.41,49.0,639.3,28.8,6.0,28.8,21.0,N,7.2,5.4,DRY,,9999.0,,Mostly Sunny,760.9325370347376,mostly_sunny.gif
2025-07-19 14:38,16.5,29.2,0.0,0.0,1011.41,47.0,629.8,28.9,6.0,28.9,243.0,SW,9.4,7.2,DRY,,9999.0,,Mostly Sunny,755.7471290174244,mostly_sunny.gif
2025-07-19 14:43,16.2,28.9,0.0,0.0,1011.31,47.0,624.6,28.6,6.0,28.6,248.0,W,13.0,8.6,DRY,,9999.0,,Mostly Sunny,750.2790647098924,mostly_sunny.gif
2025-07-19 14:48,16.3,29.0,0.0,0.0,1011.62,47.0,622.3,28.7,6.0,28.7,244.0,SW,9.4,6.5,DRY,,9999.0,,Mostly Sunny,744.5310284509957,mostly_sunny.gif
2025-07-19 14:53,17.0,29.2,0.0,0.0,1011.21,49.0,614.9,28.7,5.0,28.7,292.0,W,7.2,4.7,DRY,,9999.0,,Mostly Sunny,738.5058444893069,mostly_sunny.gif
2025-07-19 14:58,17.0,28.9,0.0,0.0,1011.21,50.0,619.9,28.4,6.0,28.4,248.0,W,7.2,5.8,DRY,,9999.0,,Mostly Sunny,732.2064759911603,mostly_sunny.gif
2025-07-19 15:03,16.8,29.7,0.0,0.0,1011.21,47.0,608.8,29.3,5.0,29.3,244.0,SW,16.6,13.0,DRY,,9999.0,,Mostly Sunny,725.6360240051878,mostly_sunny.gif
2025-07-19 15:08,16.5,29.2,0.0,0.0,1011.11,47.0,595.1,28.9,5.0,28.9,298.0,NW,11.2,6.5,DRY,,9999.0,,Mostly Sunny,718.7977264072927,mostly_sunny.gif
2025-07-19 15:13,16.8,28.9,0.0,0.0,1011.11,49.0,593.5,28.5,5.0,28.5,326.0,NW,13.0,9.7,DRY,,9999.0,,Mostly Sunny,711.694956809998,mostly_sunny.gif
2025-07-19 15:18,16.5,28.8,0.0,0.0,1011.11,48.0,584.4,28.5,5.0,28.5,184.0,S,5.4,4.0,DRY,,9999.0,,Mostly Sunny,704.3312234564659,mostly_sunny.gif
2025-07-19 15:23,16.0,29.2,0.0,0.0,1011.01,45.0,571.2,29.1,5.0,29.1,262.0,W,9.4,7.6,DRY,,9999.0,,Mostly Sunny,696.7101680975841,mostly_sunny.gif
2025-07-19 15:28,18.4,30.6,0.0,0.0,1010.8,51.0,561.2,29.6,5.0,29.6,253.0,W,3.6,2.9,DRY,,9999.0,,Mostly Sunny,688.8355648506764,mostly_sunny.gif
2025-07-19 15:33,18.0,30.3,0.0,0.0,1011.01,50.0,554.0,29.5,5.0,29.5,245.0,SW,7.2,6.5,DRY,,9999.0,,Mostly Sunny,680.7113190621261,mostly_sunny.gif
2025-07-19 15:38,17.7,30.0,0.0,0.0,1011.01,50.0,549.3,29.2,5.0,29.2,223.0,SW,5.4,4.0,DRY,,9999.0,,Mostly Sunny,672.3414661600468,mostly_sunny.gif
2025-07-19 15:43,16.8,29.7,0.0,0.0,1010.8,47.0,540.1,29.3,5.0,29.3,234.0,SW,7.2,6.1,DRY,,9999.0,,Mostly Sunny,663.730170525322,mostly_sunny.gif
2025-07-19 15:48,17.2,29.8,0.0,0.0,1010.8,48.0,532.2,29.3,5.0,29.3,208.0,SW,5.4,2.2,DRY,,9999.0,,Mostly Sunny,654.8817243680231,mostly_sunny.gif
2025-07-19 15:53,16.3,29.3,0.0,0.0,1010.9,46.0,518.2,29.1,5.0,29.1,253.0,W,18.4,15.5,DRY,,9999.0,,Mostly Sunny,645.8005466395662,mostly_sunny.gif
2025-07-19 15:58,16.2,29.1,0.0,0.0,1010.8,46.0,507.4,28.9,4.0,28.9,151.0,SE,7.2,5.4,DRY,,9999.0,,Mostly Sunny,636.4911819702056,mostly_sunny.gif
2025-07-19 16:03,16.8,29.7,0.0,0.0,1010.6,47.0,503.3,29.3,4.0,29.3,157.0,SE,7.2,5.8,DRY,,9999.0,,Mostly Sunny,626.958299660113,mostly_sunny.gif
2025-07-19 16:08,16.7,29.8,0.0,0.0,1010.6,46.0,398.3,29.5,3.0,29.5,216.0,SW,7.2,6.1,DRY,,9999.0,,Partly Cloudy,617.2066927305353,partly_cloudy.gif
2025-07-19 16:13,17.2,29.4,0.0,0.0,1010.7,49.0,400.7,28.9,3.0,28.9,229.0,SW,7.2,5.4,DRY,,9999.0,,Mostly Sunny,607.2412770428651,mostly_sunny.gif
2025-07-19 16:18,16.5,29.0,0.0,0.0,1010.7,48.0,406.0,28.6,3.0,28.6,274.0,W,13.0,9.7,DRY,,9999.0,,Mostly Sunny,597.0670905195676,mostly_sunny.gif
2025-07-19 16:23,16.9,29.1,0.0,0.0,1010.7,49.0,467.5,28.6,4.0,28.6,198.0,S,5.4,4.0,DRY,,9999.0,,Mostly Sunny,586.6892924648376,mostly_sunny.gif
2025-07-19 16:28,17.1,29.7,0.0,0.0,1010.6,48.0,452.3,29.2,4.0,29.2,285.0,W,16.6,11.9,DRY,,9999.0,,Mostly Sunny,576.1131630288747,mostly_sunny.gif
2025-07-19 16:33,16.7,29.2,0.0,0.0,1010.6,48.0,436.2,28.8,4.0,28.8,317.0,NW,14.8,8.6,DRY,,9999.0,,Mostly Sunny,565.3441028185915,mostly_sunny.gif
2025-07-19 16:38,16.4,28.5,0.0,0.0,1010.5,49.0,166.9,28.1,1.0,28.1,295.0,NW,18.4,11.9,DRY,,9999.0,,Cloudy,554.3876327058525,cloudy.gif
2025-07-19 16:43,16.4,28.5,0.0,0.0,1010.6,49.0,401.8,28.1,3.0,28.1,236.0,SW,13.0,8.6,DRY,,9999.0,,Mostly Sunny,543.249393844496,mostly_sunny.gif
2025-07-19 16:48,16.6,28.7,0.0,0.0,1010.6,49.0,217.4,28.3,2.0,28.3,272.0,W,7.2,5.4,DRY,,9999.0,,Mostly Cloudy,531.9351479520527,mostly_cloudy.gif
2025-07-19 16:53,16.8,28.7,0.0,0.0,1010.5,50.0,304.9,28.2,2.0,28.2,249.0,W,5.4,4.7,DRY,,9999.0,,Partly Cloudy,520.4507778934246,partly_cloudy.gif
2025-07-19 16:58,17.2,29.2,0.0,0.0,1010.4,50.0,400.4,28.6,3.0,28.6,270.0,W,11.2,7.9,DRY,,9999.0,,Mostly Sunny,508.8022886107519,mostly_sunny.gif
2025-07-19 17:03,16.7,28.6,0.0,0.0,1010.4,50.0,149.3,28.1,1.0,28.1,234.0,SW,14.8,9.7,DRY,,9999.0,,Cloudy,496.99580847764884,cloudy.gif
2025-07-19 17:08,16.5,28.3,0.0,0.0,1010.6,50.0,414.5,27.9,4.0,27.9,240.0,SW,9.4,5.8,DRY,,9999.0,,Sunny,485.03759112563523,sunny.gif
2025-07-19 17:13,16.8,28.9,0.0,0.0,1010.6,49.0,405.2,28.5,3.0,28.5,240.0,SW,7.2,6.5,DRY,,9999.0,,Sunny,472.9340178487965,sunny.gif
2025-07-19 17:18,17.0,29.2,0.0,0.0,1010.4,49.0,374.5,28.7,3.0,28.7,250.0,W,9.4,6.5,DRY,,9999.0,,Mostly Sunny,460.6916006604428,mostly_sunny.gif
2025-07-19 17:23,16.8,28.9,0.0,0.0,1010.4,49.0,337.6,28.5,3.0,28.5,301.0,NW,11.2,7.9,DRY,,9999.0,,Mostly Sunny,448.31698614087736,mostly_sunny.gif
2025-07-19 17:28,16.7,28.8,0.0,0.0,1010.6,49.0,325.4,28.4,3.0,28.4,260.0,W,13.0,9.7,DRY,,9999.0,,Mostly Sunny,435.81696018987157,mostly_sunny.gif
2025-07-19 17:33,17.1,29.0,0.0,0.0,1010.4,50.0,315.9,28.5,3.0,28.5,239.0,SW,7.2,5.4,DRY,,9999.0,,Mostly Sunny,423.1984538659896,mostly_sunny.gif
2025-07-19 17:38,16.5,29.0,0.0,0.0,1010.4,48.0,302.9,28.6,2.0,28.6,265.0,W,7.2,5.8,DRY,,9999.0,,Mostly Sunny,410.4685505007506,mostly_sunny.gif
2025-07-19 17:43,16.7,28.8,0.0,0.0,1010.3,49.0,293.4,28.4,2.0,28.4,238.0,SW,7.2,5.8,DRY,,9999.0,,Mostly Sunny,397.63449431486384,mostly_sunny.gif
2025-07-19 17:48,16.7,28.8,0.0,0.0,1010.19,49.0,281.0,28.4,2.0,28.4,285.0,W,7.2,5.4,DRY,,9999.0,,Mostly Sunny,384.7037008399108,mostly_sunny.gif
2025-07-19 17:53,16.3,28.6,0.0,0.0,1010.5,48.0,253.2,28.3,2.0,28.3,231.0,SW,13.0,11.2,DRY,,9999.0,,Mostly Sunny,371.68376946578036,mostly_sunny.gif
2025-07-19 17:58,15.8,28.6,0.0,0.0,1010.3,46.0,218.6,28.5,2.0,28.5,221.0,SW,11.2,8.6,DRY,,9999.0,,Partly Cloudy,358.58249855904603,partly_cloudy.gif
2025-07-19 18:03,16.2,28.5,0.0,0.0,1010.4,48.0,147.2,28.2,1.0,28.2,204.0,SW,5.4,2.9,DRY,,9999.0,,Mostly Cloudy,345.40790364150547,mostly_cloudy.gif
2025-07-19 18:08,16.7,28.6,0.0,0.0,1010.4,50.0,86.0,28.1,0.0,28.1,276.0,W,3.6,2.2,DRY,,9999.0,,Cloudy,332.16823928832315,cloudy.gif
2025-07-19 18:13,16.4,28.2,0.0,0.0,1010.5,50.0,78.7,27.8,0.0,27.8,303.0,NW,7.2,3.6,DRY,,9999.0,,Cloudy,318.8720255055036,cloudy.gif
2025-07-19 18:18,16.2,27.9,0.0,0.0,1010.3,50.0,77.0,27.5,0.0,27.5,211.0,SW,9.4,7.2,DRY,,9999.0,,Cloudy,305.52807958429105,cloudy.gif
2025-07-19 18:23,16.5,28.0,0.0,0.0,1010.3,51.0,74.2,27.5,0.0,27.5,314.0,NW,1.8,0.4,DRY,,9999.0,,Cloudy,292.14555464854,cloudy.gif
2025-07-19 18:28,16.3,27.8,0.0,0.0,1010.3,51.0,68.5,27.3,0.0,27.3,257.0,W,1.8,1.4,DRY,,9999.0,,Cloudy,278.7339864295953,cloudy.gif
2025-07-19 18:33,16.0,27.5,0.0,0.0,1010.09,51.0,67.9,27.0,0.0,27.0,255.0,W,3.6,2.9,DRY,,9999.0,,Cloudy,265.3033502465982,cloudy.gif
2025-07-19 18:38,15.9,27.4,0.0,0.0,1010.19,51.0,89.8,26.9,0.0,26.9,202.0,S,1.8,1.4,DRY,,9999.0,,Mostly Cloudy,251.8641306659713,mostly_cloudy.gif
2025-07-19 18:43,15.9,27.6,0.0,0.0,1010.3,50.0,131.7,27.2,1.0,27.2,259.0,W,7.2,6.1,DRY,,9999.0,,Mostly Sunny,238.42740708178667,mostly_sunny.gif
2025-07-19 18:48,15.8,27.5,0.0,0.0,1010.3,50.0,91.0,27.1,0.0,27.1,226.0,SW,7.2,6.1,DRY,,9999.0,,Partly Cloudy,225.0049593556356,partly_cloudy.gif
2025-07-19 18:53,15.6,27.3,0.0,0.0,1010.09,50.0,92.5,26.9,0.0,26.9,301.0,NW,7.2,7.2,DRY,,9999.0,,Partly Cloudy,211.60939898254222,partly_cloudy.gif
2025-07-19 18:58,16.1,27.6,0.0,0.0,1010.4,51.0,109.2,27.1,1.0,27.1,224.0,SW,1.8,1.1,DRY,,9999.0,,Mostly Sunny,198.254332915998,mostly_sunny.gif
2025-07-19 19:03,16.4,27.9,0.0,0.0,1010.3,51.0,136.7,27.4,1.0,27.4,286.0,W,7.2,5.0,DRY,,9999.0,,Mostly Sunny,184.9545695768439,mostly_sunny.gif
2025-07-19 19:08,15.7,27.6,0.0,0.0,1010.19,49.0,119.8,27.3,1.0,27.3,250.0,W,5.4,5.0,DRY,,9999.0,,Mostly Sunny,171.7263797599701,mostly_sunny.gif
2025-07-19 19:13,15.7,27.6,0.0,0.0,1010.09,49.0,105.5,27.3,1.0,27.3,249.0,W,14.8,9.7,DRY,,9999.0,,Mostly Sunny,158.58782961346586,mostly_sunny.gif
2025-07-19 19:18,15.8,27.5,0.0,0.0,1009.99,50.0,59.5,27.1,0.0,27.1,297.0,NW,5.4,4.3,DRY,,9999.0,,Partly Cloudy,145.55920912742658,partly_cloudy.gif
2025-07-19 19:23,16.2,26.6,0.0,0.0,1010.3,53.0,46.2,26.5,0.0,26.5,302.0,NW,1.8,1.4,DRY,,9999.0,,Mostly Cloudy,132.66358829494945,mostly_cloudy.gif
2025-07-19 19:28,15.6,26.3,0.0,0.0,1010.09,52.0,46.5,26.2,0.0,26.2,303.0,NW,1.8,1.8,DRY,,9999.0,,Partly Cloudy,119.92754559892444,partly_cloudy.gif
2025-07-19 19:33,15.2,26.4,0.0,0.0,1010.19,50.0,35.2,26.4,0.0,26.4,259.0,W,7.2,6.1,DRY,,9999.0,,Mostly Cloudy,107.38213113256298,mostly_cloudy.gif
2025-07-19 19:38,15.6,26.3,0.0,0.0,1010.3,52.0,35.0,26.2,0.0,26.2,296.0,NW,5.4,2.9,DRY,,9999.0,,Partly Cloudy,95.06415198141308,partly_cloudy.gif
2025-07-19 19:43,15.1,26.3,0.0,0.0,1010.19,50.0,31.9,26.3,0.0,26.3,215.0,SW,1.8,0.7,DRY,,9999.0,,Partly Cloudy,87.34498840213931,partly_cloudy.gif
2025-07-19 19:48,15.1,26.3,0.0,0.0,1010.19,50.0,33.7,26.3,0.0,26.3,234.0,SW,3.6,2.9,DRY,,9999.0,,Partly Cloudy,79.81478238199708,partly_cloudy.gif
2025-07-19 19:53,15.1,26.3,0.0,0.0,1010.19,50.0,27.3,26.3,0.0,26.3,316.0,NW,0.0,0.0,DRY,,9999.0,,Partly Cloudy,72.32677930714738,partly_cloudy.gif
2025-07-19 19:58,15.1,26.0,0.0,0.0,1010.4,51.0,23.4,26.0,0.0,26.0,268.0,W,3.6,2.9,DRY,,9999.0,,Partly Cloudy,64.88789470496658,partly_cloudy.gif
2025-07-19 20:03,14.8,25.7,0.0,0.0,1010.6,51.0,18.2,25.7,0.0,25.7,248.0,W,1.8,0.7,DRY,,9999.0,,Mostly Cloudy,57.50597331738606,mostly_cloudy.gif
2025-07-19 20:08,15.0,25.5,0.0,0.0,1010.6,52.0,13.9,25.5,0.0,25.5,248.0,W,0.0,0.0,DRY,,9999.0,,Mostly Cloudy,50.19017645058882,mostly_cloudy.gif
2025-07-19 20:13,15.3,25.3,0.0,0.0,1010.6,54.0,10.3,25.3,0.0,25.3,248.0,W,1.8,1.1,DRY,,9999.0,,Mostly Cloudy,42.95449635908892,mostly_cloudy.gif
2025-07-19 20:18,14.9,25.3,0.0,0.0,1010.5,52.0,8.0,25.4,0.0,25.4,252.0,W,5.4,4.0,DRY,,9999.0,,Mostly Cloudy,35.82489556202225,mostly_cloudy.gif
2025-07-19 20:23,15.3,25.3,0.0,0.0,1010.6,54.0,6.5,25.3,0.0,25.3,234.0,SW,1.8,1.8,DRY,,9999.0,,Mostly Cloudy,28.810538812039823,mostly_cloudy.gif
2025-07-19 20:28,15.4,24.7,0.0,0.0,1010.6,56.0,5.4,24.7,0.0,24.7,311.0,NW,1.8,0.4,DRY,,9999.0,,Mostly Cloudy,21.940270768858554,mostly_cloudy.gif
2025-07-19 20:33,15.3,24.6,0.0,0.0,1010.4,56.0,4.4,24.6,0.0,24.6,244.0,SW,3.6,2.9,DRY,,9999.0,,Mostly Cloudy,15.256921752886646,mostly_cloudy.gif
2025-07-19 20:38,15.1,24.3,0.0,0.0,1010.4,56.0,3.3,24.4,0.0,24.4,211.0,SW,3.6,3.2,DRY,,9999.0,,Partly Cloudy,8.81594705764681,partly_cloudy.gif
2025-07-19 20:43,16.2,24.5,0.0,0.0,1010.4,60.0,2.4,24.4,0.0,24.4,274.0,W,3.6,2.9,DRY,,9999.0,,Sunny,2.6840040652903427,sunny.gif
2025-07-19 20:48,15.7,23.9,0.0,0.0,1010.6,60.0,1.6,23.9,0.0,23.9,219.0,SW,5.4,3.6,DRY,,9999.0,,Twilight,0.0,cloudy.gif
2025-07-19 20:53,15.6,23.8,0.0,0.0,1010.4,60.0,1.0,23.8,0.0,23.8,207.0,SW,3.6,2.2,DRY,,9999.0,,Twilight,0.0,cloudy.gif
2025-07-19 20:58,15.9,23.6,0.0,0.0,1010.6,62.0,0.5,23.6,0.0,23.6,185.0,S,1.8,0.4,DRY,,9999.0,,Twilight,0.0,cloudy.gif
2025-07-19 21:03,15.0,23.3,0.0,0.0,1010.6,59.0,0.2,23.4,0.0,23.4,225.0,SW,5.4,4.7,DRY,,9999.0,,Twilight,0.0,cloudy.gif
2025-07-19 21:08,15.1,23.7,0.0,0.0,1010.7,58.0,0.1,23.8,0.0,23.8,231.0,SW,3.6,2.2,DRY,,9999.0,,Twilight,0.0,cloudy.gif
2025-07-19 21:13,14.7,23.6,0.0,0.0,1010.8,57.0,0.1,23.7,0.0,23.7,250.0,W,3.6,3.6,DRY,,9999.0,,Twilight,0.0,cloudy.gif
2025-07-19 21:18,14.7,23.6,0.0,0.0,1010.7,57.0,0.0,23.7,0.0,23.7,236.0,SW,1.8,1.8,DRY,,9999.0,,Twilight,0.0,cloudy.gif
2025-07-19 21:23,14.5,23.7,0.0,0.0,1011.01,56.0,0.0,23.8,0.0,23.8,239.0,SW,5.4,4.3,DRY,,9999.0,,Twilight,0.0,cloudy.gif
2025-07-19 21:28,14.4,23.6,0.0,0.0,1010.9,56.0,0.0,23.7,0.0,23.7,254.0,W,5.4,3.6,DRY,,9999.0,,Night,0.0,night.gif
2025-07-19 21:33,14.8,23.4,0.0,0.0,1011.11,58.0,0.0,23.5,0.0,23.5,222.0,SW,3.6,2.5,DRY,,9999.0,,Night,0.0,night.gif
2025-07-19 21:38,14.5,23.4,0.0,0.0,1011.11,57.0,0.0,23.5,0.0,23.5,242.0,SW,3.6,2.9,DRY,,9999.0,,Night,0.0,night.gif
2025-07-19 21:43,14.4,23.6,0.0,0.0,1011.01,56.0,0.0,23.7,0.0,23.7,216.0,SW,3.6,2.2,DRY,,9999.0,,Night,0.0,night.gif
2025-07-19 21:48,14.1,23.7,0.0,0.0,1010.9,54.0,0.0,23.9,0.0,23.9,198.0,S,1.8,1.8,DRY,,9999.0,,Night,0.0,night.gif
2025-07-19 21:53,14.1,23.7,0.0,0.0,1010.8,54.0,0.0,23.9,0.0,23.9,192.0,S,3.6,2.2,DRY,,9999.0,,Night,0.0,night.gif
2025-07-19 21:58,13.9,23.8,0.0,0.0,1011.11,53.0,0.0,24.0,0.0,24.0,202.0,S,5.4,3.6,DRY,,9999.0,,Night,0.0,night.gif
2025-07-19 22:03,13.6,23.8,0.0,0.0,1011.01,52.0,0.0,24.0,0.0,24.0,318.0,NW,0.0,0.0,DRY,,9999.0,,Night,0.0,night.gif
2025-07-19 22:08,12.8,24.0,0.0,0.0,1010.9,49.0,0.0,24.2,0.0,24.2,242.0,SW,13.0,10.4,DRY,,9999.0,,Night,0.0,night.gif
2025-07-19 22:13,12.8,24.0,0.0,0.0,1011.11,49.0,0.0,24.2,0.0,24.2,243.0,SW,14.8,9.7,DRY,,9999.0,,Night,0.0,night.gif
2025-07-19 22:18,12.9,24.0,0.0,0.0,1011.01,49.0,0.0,24.3,0.0,24.3,322.0,NW,3.6,2.5,DRY,,9999.0,,Night,0.0,night.gif
2025-07-19 22:23,13.0,23.9,0.0,0.0,1011.11,50.0,0.0,24.1,0.0,24.1,335.0,NW,1.8,1.4,DRY,,9999.0,,Night,0.0,night.gif
2025-07-19 22:28,12.8,23.5,0.0,0.0,1011.01,50.0,0.0,23.8,0.0,23.8,233.0,SW,5.4,3.2,DRY,,9999.0,,Night,0.0,night.gif
