timestamp,imedvode1_dewpoint,imedvode1_heat_index,imedvode1_precipitation_rate,imedvode1_precipitation_today,imedvode1_pressure,imedvode1_relative_humidity,imedvode1_solar_radiation,imedvode1_temperature,imedvode1_uv_index,imedvode1_wind_chill,imedvode1_wind_direction_degrees,windCardinals,imedvode1_wind_gust,imedvode1_wind_speed,condition1,condition2,visibility,condition3,sky,max_solar_radiation,image_name
2025-04-20 02:13,5.0,8.1,0.0,0.0,1015.81,80.0,0.1,8.1,1.0,8.1,78.0,E,3.6,2.9,DRY,,9999.0,,Night,0.0,night.gif
2025-04-20 02:18,5.0,8.3,0.0,0.0,1015.98,80.0,0.1,8.3,1.0,8.3,216.0,SW,0.0,0.0,DRY,,9999.0,,Night,0.0,night.gif
2025-04-20 02:23,5.2,8.5,0.0,0.0,1015.81,80.0,0.1,8.5,1.0,8.5,217.0,SW,1.8,0.7,DRY,,9999.0,,Night,0.0,night.gif
2025-04-20 02:28,5.2,8.5,0.0,0.0,1015.98,80.0,0.1,8.5,1.0,8.5,216.0,SW,1.8,1.1,DRY,,9999.0,,Night,0.0,night.gif
2025-04-20 02:33,5.1,8.2,0.0,0.0,1015.81,81.0,0.1,8.2,1.0,8.2,216.0,SW,1.8,0.4,DRY,,9999.0,,Night,0.0,night.gif
2025-04-20 02:38,5.3,8.6,0.0,0.0,1015.61,80.0,0.1,8.6,1.0,8.6,252.0,W,1.8,0.7,DRY,,9999.0,,Night,0.0,night.gif
2025-04-20 02:43,5.2,8.6,0.0,0.0,1015.92,79.0,0.1,8.6,1.0,8.6,327.0,NW,0.0,0.0,DRY,,9999.0,,Night,0.0,night.gif
2025-04-20 02:48,5.3,8.7,0.0,0.0,1015.81,79.0,0.1,8.7,1.0,8.7,327.0,NW,0.0,0.0,DRY,,9999.0,,Night,0.0,night.gif
2025-04-20 02:53,5.4,8.7,0.0,0.0,1015.81,80.0,0.1,8.7,1.0,8.7,52.0,NE,0.0,0.0,DRY,,9999.0,,Night,0.0,night.gif
2025-04-20 02:58,5.4,8.5,0.0,0.0,1015.71,81.0,0.1,8.5,1.0,8.5,271.0,W,0.0,0.0,DRY,,9999.0,,Night,0.0,night.gif
2025-04-20 03:03,5.5,9.1,0.0,0.0,1015.51,78.0,0.1,9.1,1.0,9.1,3.0,N,0.0,0.0,DRY,,9999.0,,Night,0.0,night.gif
2025-04-20 03:08,5.9,10.1,0.0,0.0,1015.61,75.0,0.1,10.1,1.0,10.1,338.0,N,1.8,1.4,DRY,,9999.0,,Night,0.0,night.gif
2025-04-20 03:13,5.7,9.9,0.0,0.0,1015.41,75.0,0.1,9.9,1.0,9.9,151.0,SE,0.0,0.0,DRY,,9999.0,,Night,0.0,night.gif
2025-04-20 03:18,5.9,9.7,0.0,0.0,1015.61,77.0,0.1,9.7,1.0,9.7,111.0,E,1.8,1.4,DRY,,9999.0,,Night,0.0,night.gif
2025-04-20 03:23,5.8,9.4,0.0,0.0,1015.51,78.0,0.1,9.4,1.0,9.4,137.0,SE,0.0,0.0,DRY,,9999.0,,Night,0.0,night.gif
2025-04-20 03:28,5.9,9.5,0.0,0.0,1015.31,78.0,0.1,9.5,1.0,9.5,21.0,N,1.8,1.1,DRY,,9999.0,,Night,0.0,night.gif
2025-04-20 03:33,5.6,9.0,0.0,0.0,1015.41,79.0,0.1,9.0,1.0,9.0,22.0,N,0.0,0.0,DRY,,9999.0,,Night,0.0,night.gif
2025-04-20 03:38,5.8,9.6,0.0,0.0,1015.51,77.0,0.1,9.6,1.0,9.6,22.0,N,0.0,0.0,DRY,,9999.0,,Night,0.0,night.gif
2025-04-20 03:43,5.8,9.3,0.0,0.0,1015.51,79.0,0.1,9.3,1.0,9.3,22.0,N,0.0,0.0,DRY,,9999.0,,Night,0.0,night.gif
2025-04-20 03:48,5.8,9.3,0.0,0.0,1015.21,79.0,0.1,9.3,1.0,9.3,63.0,NE,0.0,0.0,DRY,,9999.0,,Night,0.0,night.gif
2025-04-20 03:53,5.8,9.1,0.0,0.0,1015.21,80.0,0.1,9.1,1.0,9.1,97.0,E,0.0,0.0,DRY,,9999.0,,Night,0.0,night.gif
2025-04-20 03:58,5.6,9.2,0.0,0.0,1015.41,78.0,0.1,9.2,1.0,9.2,83.0,E,0.0,0.0,DRY,,9999.0,,Night,0.0,night.gif
2025-04-20 04:03,5.5,9.3,0.0,0.0,1015.31,77.0,0.1,9.3,1.0,9.3,83.0,E,0.0,0.0,DRY,,9999.0,,Night,0.0,night.gif
2025-04-20 04:08,5.6,9.6,0.0,0.0,1015.21,76.0,0.1,9.6,1.0,9.6,83.0,E,0.0,0.0,DRY,,9999.0,,Night,0.0,night.gif
2025-04-20 04:13,5.4,10.0,0.0,0.0,1015.31,73.0,0.1,10.0,1.0,9.6,317.0,NW,7.2,5.4,DRY,,9999.0,,Night,0.0,night.gif
2025-04-20 04:18,5.8,10.7,0.0,0.0,1015.31,72.0,0.1,10.7,1.0,10.7,194.0,S,0.0,0.0,DRY,,9999.0,,Night,0.0,night.gif
2025-04-20 04:23,5.8,11.0,0.0,0.0,1015.1,70.0,0.1,11.0,1.0,11.0,211.0,SW,0.0,0.0,DRY,,9999.0,,Night,0.0,night.gif
2025-04-20 04:28,5.8,10.9,0.0,0.0,1015.21,71.0,0.1,10.9,1.0,10.9,152.0,SE,1.8,1.8,DRY,,9999.0,,Night,0.0,night.gif
2025-04-20 04:33,5.5,10.6,0.0,0.0,1015.0,71.0,0.1,10.6,1.0,10.6,205.0,SW,3.6,2.2,DRY,,9999.0,,Night,0.0,night.gif
2025-04-20 04:38,5.9,11.2,0.0,0.0,1014.9,70.0,0.1,11.2,1.0,11.2,244.0,SW,1.8,1.1,DRY,,9999.0,,Night,0.0,night.gif
2025-04-20 04:43,5.6,11.1,0.0,0.0,1015.0,69.0,0.1,11.1,1.0,11.1,158.0,S,0.0,0.0,DRY,,9999.0,,Night,0.0,night.gif
2025-04-20 04:48,5.9,11.2,0.0,0.0,1015.0,70.0,0.1,11.2,1.0,11.2,252.0,W,1.8,1.4,DRY,,9999.0,,Night,0.0,night.gif
2025-04-20 04:53,6.0,11.3,0.0,0.0,1014.7,70.0,0.1,11.3,1.0,11.3,231.0,SW,0.0,0.0,DRY,,9999.0,,Night,0.0,night.gif
2025-04-20 04:58,5.9,11.2,0.0,0.0,1014.7,70.0,0.1,11.2,1.0,11.2,331.0,NW,1.8,0.7,DRY,,9999.0,,Night,0.0,night.gif
2025-04-20 05:03,6.1,11.4,0.0,0.0,1014.8,70.0,0.1,11.4,1.0,11.4,137.0,SE,1.8,0.7,DRY,,9999.0,,Night,0.0,night.gif
2025-04-20 05:08,5.8,11.3,0.0,0.0,1014.6,69.0,0.1,11.3,1.0,11.3,224.0,SW,3.6,2.2,DRY,,9999.0,,Night,0.0,night.gif
2025-04-20 05:13,5.9,11.4,0.0,0.0,1014.8,69.0,0.1,11.4,1.0,11.4,228.0,SW,3.6,3.6,DRY,,9999.0,,Night,0.0,night.gif
2025-04-20 05:18,6.0,11.7,0.0,0.0,1014.8,68.0,0.1,11.7,1.0,11.7,235.0,SW,5.4,3.6,DRY,,9999.0,,Night,0.0,night.gif
2025-04-20 05:23,5.9,11.6,0.0,0.0,1014.9,68.0,0.1,11.6,1.0,11.6,186.0,S,11.2,6.8,DRY,,9999.0,,Night,0.0,night.gif
2025-04-20 05:28,5.8,11.7,0.0,0.0,1014.49,67.0,0.1,11.7,1.0,11.7,240.0,SW,13.0,7.2,DRY,,9999.0,,Night,0.0,night.gif
2025-04-20 05:33,5.9,11.6,0.0,0.0,1014.6,68.0,0.1,11.6,1.0,11.6,311.0,NW,5.4,3.6,DRY,,9999.0,,Night,0.0,night.gif
2025-04-20 05:38,5.7,11.6,0.0,0.0,1014.49,67.0,0.1,11.6,1.0,11.6,168.0,S,5.4,3.2,DRY,,9999.0,,Twilight,0.0,cloudy.gif
2025-04-20 05:43,5.8,11.5,0.0,0.0,1014.6,68.0,0.1,11.5,1.0,11.5,169.0,S,3.6,2.2,DRY,,9999.0,,Twilight,0.0,cloudy.gif
2025-04-20 05:48,5.7,11.4,0.0,0.0,1014.29,68.0,0.2,11.4,1.0,11.4,215.0,SW,5.4,4.7,DRY,,9999.0,,Twilight,0.0,cloudy.gif
2025-04-20 05:53,6.0,11.7,0.0,0.0,1014.39,68.0,0.4,11.7,1.0,11.7,307.0,NW,3.6,2.5,DRY,,9999.0,,Twilight,0.0,cloudy.gif
2025-04-20 05:58,5.5,11.2,0.0,0.0,1014.39,68.0,0.9,11.2,1.0,11.2,258.0,W,3.6,2.9,DRY,,9999.0,,Twilight,0.0,cloudy.gif
2025-04-20 06:03,5.7,11.6,0.0,0.0,1014.6,67.0,1.7,11.6,1.0,11.6,252.0,W,1.8,1.4,DRY,,9999.0,,Twilight,0.0,cloudy.gif
2025-04-20 06:08,5.9,11.6,0.0,0.0,1014.6,68.0,3.1,11.6,1.0,11.6,326.0,NW,3.6,2.2,DRY,,9999.0,,Twilight,0.0,cloudy.gif
2025-04-20 06:13,5.7,11.4,0.0,0.0,1014.49,68.0,4.8,11.4,1.0,11.4,232.0,SW,3.6,2.2,DRY,,9999.0,,Sunny,5.887183217250592,sunny.gif
2025-04-20 06:18,5.7,11.2,0.0,0.0,1014.6,69.0,6.7,11.2,1.0,11.2,287.0,W,0.0,0.0,DRY,,9999.0,,Partly Cloudy,12.896366163189047,partly_cloudy.gif
2025-04-20 06:23,5.8,11.0,0.0,0.0,1014.6,70.0,8.6,11.0,1.0,11.0,313.0,NW,3.6,1.1,DRY,,9999.0,,Partly Cloudy,20.192365376890407,partly_cloudy.gif
2025-04-20 06:28,6.5,10.6,0.0,0.0,1014.6,76.0,10.8,10.6,1.0,10.6,277.0,W,1.8,1.4,DRY,,9999.0,,Partly Cloudy,27.69322158707528,partly_cloudy.gif
2025-04-20 06:33,6.0,9.9,0.0,0.0,1014.8,77.0,14.3,9.9,1.0,9.3,333.0,NW,7.2,6.1,DRY,,9999.0,,Partly Cloudy,35.33715768081467,partly_cloudy.gif
2025-04-20 06:38,5.7,9.5,0.0,0.0,1014.7,77.0,15.6,9.5,1.0,9.5,340.0,N,5.4,4.0,DRY,,9999.0,,Partly Cloudy,43.08365619111815,partly_cloudy.gif
2025-04-20 06:43,6.1,10.0,0.0,0.0,1014.9,77.0,19.1,10.0,1.0,10.0,353.0,N,1.8,1.4,DRY,,9999.0,,Partly Cloudy,50.918409132515535,partly_cloudy.gif
2025-04-20 06:48,5.8,9.6,0.0,0.0,1014.8,77.0,22.2,9.6,1.0,9.6,6.0,N,3.6,3.6,DRY,,9999.0,,Partly Cloudy,58.80976017040174,partly_cloudy.gif
2025-04-20 06:53,5.7,10.1,0.0,0.0,1014.8,74.0,27.2,10.1,1.0,10.1,344.0,N,1.8,1.8,DRY,,9999.0,,Partly Cloudy,66.74168067219416,partly_cloudy.gif
2025-04-20 06:58,5.8,11.0,0.0,0.0,1015.0,70.0,40.0,11.0,1.0,11.0,306.0,NW,1.8,0.4,DRY,,9999.0,,Partly Cloudy,74.70348323448248,partly_cloudy.gif
2025-04-20 07:03,5.9,11.9,0.0,0.0,1014.9,67.0,47.6,11.9,1.0,11.9,241.0,SW,7.2,5.8,DRY,,9999.0,,Mostly Sunny,82.68622668394237,mostly_sunny.gif
2025-04-20 07:08,6.2,12.2,0.0,0.0,1014.9,67.0,55.1,12.2,1.0,12.2,322.0,NW,3.6,3.6,DRY,,9999.0,,Mostly Sunny,90.68220783753401,mostly_sunny.gif
2025-04-20 07:13,7.3,12.4,0.0,0.0,1014.8,71.0,63.4,12.4,1.0,12.4,356.0,N,9.4,8.3,DRY,,9999.0,,Mostly Sunny,101.15748849052899,mostly_sunny.gif
2025-04-20 07:18,6.7,10.0,0.0,0.0,1014.9,80.0,71.6,10.0,1.0,10.0,351.0,N,5.4,4.7,DRY,,9999.0,,Mostly Sunny,114.24093610104808,mostly_sunny.gif
2025-04-20 07:23,6.8,10.1,0.0,0.0,1014.9,80.0,79.5,10.1,1.0,10.1,325.0,NW,5.4,4.0,DRY,,9999.0,,Mostly Sunny,127.50273334069934,mostly_sunny.gif
2025-04-20 07:28,7.0,10.1,0.0,0.0,1014.9,81.0,88.6,10.1,1.0,10.1,14.0,N,9.4,7.2,DRY,,9999.0,,Mostly Sunny,140.90310256515073,mostly_sunny.gif
2025-04-20 07:33,6.9,10.0,0.0,0.0,1015.0,81.0,98.5,10.0,1.0,10.0,26.0,NE,5.4,4.0,DRY,,9999.0,,Mostly Sunny,154.408890996566,mostly_sunny.gif
2025-04-20 07:38,7.3,10.2,0.0,0.0,1014.8,82.0,106.5,10.2,1.0,10.2,14.0,N,5.4,4.7,DRY,,9999.0,,Mostly Sunny,167.99201552083417,mostly_sunny.gif
2025-04-20 07:43,7.1,10.6,0.0,0.0,1015.1,79.0,115.9,10.6,1.0,10.6,334.0,NW,3.6,2.5,DRY,,9999.0,,Mostly Sunny,181.62832034089104,mostly_sunny.gif
2025-04-20 07:48,6.9,11.2,0.0,0.0,1015.0,75.0,135.0,11.2,1.0,11.2,231.0,SW,1.8,0.7,DRY,,9999.0,,Mostly Sunny,195.29672793765894,mostly_sunny.gif
2025-04-20 07:53,7.0,11.9,0.0,0.0,1015.0,72.0,145.1,11.9,1.0,11.9,82.0,E,3.6,1.4,DRY,,9999.0,,Mostly Sunny,208.9786008573616,mostly_sunny.gif
2025-04-20 07:58,7.5,12.0,0.0,0.0,1014.8,74.0,159.3,12.0,1.0,12.0,44.0,NE,1.8,1.4,DRY,,9999.0,,Mostly Sunny,222.65725681105744,mostly_sunny.gif
2025-04-20 08:03,7.2,11.9,0.0,0.0,1014.7,73.0,204.1,11.9,1.0,11.9,106.0,E,1.8,1.8,DRY,,9999.0,,Sunny,236.31759647282635,sunny.gif
2025-04-20 08:08,7.5,12.6,0.0,0.0,1014.7,71.0,186.5,12.6,1.0,12.6,86.0,E,3.6,2.9,DRY,,9999.0,,Mostly Sunny,249.94581512384514,mostly_sunny.gif
2025-04-20 08:13,7.8,12.7,0.0,0.0,1014.7,72.0,198.0,12.7,1.0,12.7,110.0,E,1.8,1.1,DRY,,9999.0,,Mostly Sunny,263.5291772345975,mostly_sunny.gif
2025-04-20 08:18,7.9,13.7,0.0,0.0,1014.7,68.0,210.0,13.7,2.0,13.7,158.0,S,0.0,0.0,DRY,,9999.0,,Mostly Sunny,277.0558388644052,mostly_sunny.gif
2025-04-20 08:23,8.4,14.0,0.0,0.0,1014.6,69.0,217.1,14.0,2.0,14.0,164.0,S,9.4,6.5,DRY,,9999.0,,Mostly Sunny,290.51470663310266,mostly_sunny.gif
2025-04-20 08:28,8.0,13.2,0.0,0.0,1014.7,71.0,91.2,13.2,0.0,13.2,141.0,SE,9.4,8.6,DRY,,9999.0,,Cloudy,303.89532501438754,cloudy.gif
2025-04-20 08:33,7.0,13.2,0.0,0.0,1014.8,66.0,118.1,13.2,1.0,13.2,83.0,E,9.4,6.5,DRY,,9999.0,,Mostly Cloudy,317.1877856592023,mostly_cloudy.gif
2025-04-20 08:38,7.7,13.5,0.0,0.0,1015.0,68.0,116.4,13.5,1.0,13.5,176.0,S,3.6,2.9,DRY,,9999.0,,Mostly Cloudy,330.38265404181004,mostly_cloudy.gif
2025-04-20 08:43,7.8,14.0,0.0,0.0,1015.0,66.0,118.5,14.0,1.0,14.0,316.0,NW,3.6,2.5,DRY,,9999.0,,Cloudy,343.4709098362329,cloudy.gif
2025-04-20 08:48,6.8,14.0,0.0,0.0,1015.0,62.0,131.4,14.0,1.0,14.0,164.0,S,7.2,5.4,DRY,,9999.0,,Mostly Cloudy,356.44389819027873,mostly_cloudy.gif
2025-04-20 08:53,6.7,13.9,0.0,0.0,1015.0,62.0,196.7,13.9,1.0,13.9,250.0,W,18.4,13.0,DRY,,9999.0,,Partly Cloudy,369.29328979857945,partly_cloudy.gif
2025-04-20 08:58,7.4,15.1,0.0,0.0,1015.1,60.0,327.3,15.1,3.0,15.1,258.0,W,14.8,10.4,DRY,,9999.0,,Sunny,382.0110480213135,sunny.gif
2025-04-20 09:03,7.3,15.2,0.0,0.0,1014.9,59.0,326.0,15.2,3.0,15.2,206.0,SW,11.2,9.4,DRY,,9999.0,,Mostly Sunny,394.5894017814213,mostly_sunny.gif
2025-04-20 09:08,7.6,15.1,0.0,0.0,1014.8,61.0,337.3,15.1,3.0,15.1,225.0,SW,9.4,6.1,DRY,,9999.0,,Mostly Sunny,407.02082312177134,mostly_sunny.gif
2025-04-20 09:13,7.6,15.3,0.0,0.0,1014.8,60.0,351.2,15.3,3.0,15.3,220.0,SW,9.4,7.6,DRY,,9999.0,,Mostly Sunny,419.29800864164656,mostly_sunny.gif
2025-04-20 09:18,7.5,15.5,0.0,0.0,1014.9,59.0,368.4,15.5,3.0,15.5,253.0,W,20.2,11.9,DRY,,9999.0,,Sunny,431.41386408739197,sunny.gif
2025-04-20 09:23,7.5,15.4,0.0,0.0,1014.9,59.0,390.3,15.4,3.0,15.4,296.0,NW,16.6,13.7,DRY,,9999.0,,Sunny,443.3614915715883,sunny.gif
2025-04-20 09:28,7.4,15.3,0.0,0.0,1014.9,59.0,394.7,15.3,3.0,15.3,248.0,W,20.2,16.2,DRY,,9999.0,,Sunny,455.13417899684634,sunny.gif
2025-04-20 09:33,7.4,15.1,0.0,0.0,1014.8,60.0,400.4,15.1,3.0,15.1,297.0,NW,5.4,3.6,DRY,,9999.0,,Sunny,466.725391274468,sunny.gif
2025-04-20 09:38,7.8,15.5,0.0,0.0,1014.8,60.0,410.5,15.5,4.0,15.5,198.0,S,5.4,5.4,DRY,,9999.0,,Sunny,478.1287631013122,sunny.gif
2025-04-20 09:43,7.5,15.5,0.0,0.0,1014.9,59.0,421.2,15.5,4.0,15.5,239.0,SW,22.0,16.2,DRY,,9999.0,,Sunny,489.3380929889109,sunny.gif
2025-04-20 09:48,7.5,15.7,0.0,0.0,1014.8,58.0,433.6,15.7,4.0,15.7,213.0,SW,11.2,8.6,DRY,,9999.0,,Sunny,500.34733840383166,sunny.gif
2025-04-20 09:53,7.9,15.6,0.0,0.0,1014.7,60.0,447.4,15.6,4.0,15.6,296.0,NW,5.4,2.9,DRY,,9999.0,,Sunny,511.15061178999264,sunny.gif
2025-04-20 09:58,8.1,16.1,0.0,0.0,1014.8,59.0,456.2,16.1,4.0,16.1,264.0,W,5.4,4.3,DRY,,9999.0,,Sunny,521.7421773912173,sunny.gif
2025-04-20 10:03,8.9,16.4,0.0,0.0,1014.7,61.0,470.3,16.4,4.0,16.4,304.0,NW,7.2,3.6,DRY,,9999.0,,Sunny,532.1164487087849,sunny.gif
2025-04-20 10:08,8.2,16.5,0.0,0.0,1014.6,58.0,481.3,16.5,4.0,16.5,300.0,NW,13.0,10.4,DRY,,9999.0,,Sunny,542.2679865139042,sunny.gif
2025-04-20 10:13,8.2,16.2,0.0,0.0,1014.6,59.0,513.7,16.2,5.0,16.2,216.0,SW,9.4,6.1,DRY,,9999.0,,Sunny,552.191497349529,sunny.gif
2025-04-20 10:18,8.3,16.3,0.0,0.0,1014.7,59.0,118.4,16.3,1.0,16.3,308.0,NW,11.2,9.4,DRY,,9999.0,,Cloudy,561.8818324040287,cloudy.gif
2025-04-20 10:23,8.0,15.7,0.0,0.0,1014.6,60.0,547.5,15.7,5.0,15.7,265.0,W,7.2,6.1,DRY,,9999.0,,Sunny,571.3339867534837,sunny.gif
2025-04-20 10:28,7.5,15.7,0.0,0.0,1014.49,58.0,495.8,15.7,4.0,15.7,303.0,NW,11.2,7.6,DRY,,9999.0,,Sunny,580.5430988619295,sunny.gif
2025-04-20 10:33,8.0,15.7,0.0,0.0,1014.7,60.0,136.7,15.7,1.0,15.7,279.0,W,7.2,5.4,DRY,,9999.0,,Cloudy,589.5044503537819,cloudy.gif
2025-04-20 10:38,8.4,15.9,0.0,0.0,1014.6,61.0,568.4,15.9,5.0,15.9,312.0,NW,1.8,1.1,DRY,,9999.0,,Sunny,598.2134659619301,sunny.gif
2025-04-20 10:43,7.9,16.2,0.0,0.0,1014.6,58.0,195.3,16.2,1.0,16.2,299.0,NW,11.2,8.3,DRY,,9999.0,,Cloudy,606.6657136750373,cloudy.gif
2025-04-20 10:48,8.3,16.6,0.0,0.0,1014.7,58.0,342.5,16.6,3.0,16.6,354.0,N,11.2,8.6,DRY,,9999.0,,Partly Cloudy,614.8569050100003,partly_cloudy.gif
2025-04-20 10:53,8.4,16.4,0.0,0.0,1014.39,59.0,591.3,16.4,5.0,16.4,296.0,NW,14.8,12.2,DRY,,9999.0,,Sunny,622.7828954034195,sunny.gif
2025-04-20 10:58,8.5,16.3,0.0,0.0,1014.7,60.0,124.5,16.3,1.0,16.3,317.0,NW,7.2,5.0,DRY,,9999.0,,Cloudy,630.4396847179543,cloudy.gif
2025-04-20 11:03,7.7,16.2,0.0,0.0,1014.49,57.0,620.6,16.2,6.0,16.2,299.0,NW,11.2,8.3,DRY,,9999.0,,Sunny,637.8234178006397,sunny.gif
2025-04-20 11:08,8.1,16.6,0.0,0.0,1014.49,57.0,620.9,16.6,6.0,16.6,306.0,NW,7.2,6.5,DRY,,9999.0,,Sunny,644.9303851314611,sunny.gif
2025-04-20 11:13,9.3,17.1,0.0,0.0,1014.7,60.0,661.2,17.1,6.0,17.1,267.0,W,3.6,2.9,DRY,,9999.0,,Sunny,651.7570234916266,sunny.gif
2025-04-20 11:18,9.1,16.7,0.0,0.0,1014.49,61.0,220.0,16.7,2.0,16.7,286.0,W,5.4,3.6,DRY,,9999.0,,Cloudy,658.299916694799,cloudy.gif
2025-04-20 11:23,8.4,16.7,0.0,0.0,1014.6,58.0,379.7,16.7,3.0,16.7,302.0,NW,5.4,4.3,DRY,,9999.0,,Partly Cloudy,664.5557963144297,partly_cloudy.gif
2025-04-20 11:28,8.4,17.2,0.0,0.0,1014.39,56.0,157.4,17.2,1.0,17.2,237.0,SW,7.2,5.4,DRY,,9999.0,,Cloudy,670.5215424513152,cloudy.gif
2025-04-20 11:33,8.3,16.9,0.0,0.0,1014.8,57.0,405.2,16.9,3.0,16.9,303.0,NW,9.4,6.5,DRY,,9999.0,,Partly Cloudy,676.1941844891443,partly_cloudy.gif
2025-04-20 11:38,8.3,16.9,0.0,0.0,1014.6,57.0,175.7,16.9,1.0,16.9,314.0,NW,3.6,2.2,DRY,,9999.0,,Cloudy,681.5709018480932,cloudy.gif
2025-04-20 11:43,8.9,16.7,0.0,0.0,1014.6,60.0,163.9,16.7,1.0,16.7,280.0,W,1.8,1.1,DRY,,9999.0,,Cloudy,686.6490247461958,cloudy.gif
2025-04-20 11:48,9.7,17.5,0.0,0.0,1014.39,60.0,153.0,17.5,1.0,17.5,287.0,W,3.6,2.2,DRY,,9999.0,,Cloudy,691.4260349203645,cloudy.gif
2025-04-20 11:53,8.5,17.3,0.0,0.0,1014.39,56.0,168.9,17.3,1.0,17.3,290.0,W,5.4,3.6,DRY,,9999.0,,Cloudy,695.8995663538143,cloudy.gif
2025-04-20 11:58,8.8,17.4,0.0,0.0,1014.49,57.0,208.0,17.4,2.0,17.4,287.0,W,11.2,7.6,DRY,,9999.0,,Cloudy,700.0674059514932,cloudy.gif
2025-04-20 12:03,8.7,17.9,0.0,0.0,1014.49,55.0,673.5,17.9,6.0,17.9,271.0,W,9.4,5.8,DRY,,9999.0,,Sunny,703.9274942128134,sunny.gif
2025-04-20 12:08,8.6,18.0,0.0,0.0,1014.39,54.0,557.1,18.0,5.0,18.0,301.0,NW,16.6,9.4,DRY,,9999.0,,Mostly Sunny,707.4779258445143,mostly_sunny.gif
2025-04-20 12:13,9.0,17.6,0.0,0.0,1014.6,57.0,301.9,17.6,2.0,17.6,241.0,SW,5.4,4.7,DRY,,9999.0,,Mostly Cloudy,710.7169503619176,mostly_cloudy.gif
2025-04-20 12:18,8.7,17.9,0.0,0.0,1014.49,55.0,274.4,17.9,2.0,17.9,333.0,NW,13.0,7.2,DRY,,9999.0,,Mostly Cloudy,713.6429726340567,mostly_cloudy.gif
2025-04-20 12:23,10.0,18.1,0.0,0.0,1014.39,59.0,671.1,18.1,6.0,18.1,290.0,W,14.8,11.9,DRY,,9999.0,,Sunny,716.2545533870208,sunny.gif
2025-04-20 12:28,9.4,18.6,0.0,0.0,1014.49,55.0,492.7,18.6,4.0,18.6,236.0,SW,9.4,7.2,DRY,,9999.0,,Mostly Sunny,718.5504096789791,mostly_sunny.gif
2025-04-20 12:33,8.9,17.8,0.0,0.0,1014.39,56.0,228.0,17.8,2.0,17.8,287.0,W,7.2,6.5,DRY,,9999.0,,Cloudy,720.5294153047417,cloudy.gif
2025-04-20 12:38,8.9,17.8,0.0,0.0,1014.49,56.0,218.8,17.8,2.0,17.8,287.0,W,7.2,6.5,DRY,,9999.0,,Cloudy,722.1906011779913,cloudy.gif
2025-04-20 12:43,8.6,17.7,0.0,0.0,1014.49,55.0,227.8,17.7,2.0,17.7,292.0,W,13.0,9.7,DRY,,9999.0,,Cloudy,723.5331556383036,cloudy.gif
2025-04-20 12:48,8.6,17.7,0.0,0.0,1014.49,55.0,190.4,17.7,1.0,17.7,302.0,NW,16.6,13.3,DRY,,9999.0,,Cloudy,724.5564247330439,cloudy.gif
2025-04-20 12:53,9.2,17.6,0.0,0.0,1014.49,58.0,232.6,17.6,2.0,17.6,301.0,NW,11.2,9.7,DRY,,9999.0,,Cloudy,725.2599124220001,cloudy.gif
2025-04-20 12:58,8.4,17.8,0.0,0.0,1014.6,54.0,218.9,17.8,2.0,17.8,304.0,NW,11.2,10.8,DRY,,9999.0,,Cloudy,725.6432807531387,cloudy.gif
2025-04-20 13:03,8.4,18.1,0.0,0.0,1014.29,53.0,624.7,18.1,6.0,18.1,279.0,W,13.0,6.5,DRY,,9999.0,,Sunny,725.7063499694506,sunny.gif
2025-04-20 13:08,9.2,18.7,0.0,0.0,1014.39,54.0,696.6,18.7,6.0,18.7,311.0,NW,7.2,4.7,DRY,,9999.0,,Sunny,725.4490985622464,sunny.gif
2025-04-20 13:13,9.2,19.0,0.0,0.0,1014.19,53.0,211.0,19.0,2.0,19.0,266.0,W,18.4,13.0,DRY,,9999.0,,Cloudy,724.8716632861391,cloudy.gif
2025-04-20 13:18,9.0,18.5,0.0,0.0,1014.29,54.0,341.8,18.5,3.0,18.5,240.0,SW,5.4,3.6,DRY,,9999.0,,Partly Cloudy,723.974339096843,partly_cloudy.gif
2025-04-20 13:23,9.9,19.4,0.0,0.0,1014.39,54.0,495.7,19.4,4.0,19.4,297.0,NW,7.2,6.5,DRY,,9999.0,,Mostly Sunny,722.757579060119,mostly_sunny.gif
2025-04-20 13:28,9.2,18.7,0.0,0.0,1014.19,54.0,181.5,18.7,1.0,18.7,307.0,NW,20.2,13.0,DRY,,9999.0,,Cloudy,721.2219941825269,cloudy.gif
2025-04-20 13:33,8.9,18.4,0.0,0.0,1014.29,54.0,220.9,18.4,2.0,18.4,221.0,SW,11.2,7.9,DRY,,9999.0,,Cloudy,719.3683532139992,cloudy.gif
2025-04-20 13:38,9.1,18.3,0.0,0.0,1014.49,55.0,217.1,18.3,2.0,18.3,311.0,NW,3.6,2.2,DRY,,9999.0,,Cloudy,717.1975823737465,cloudy.gif
2025-04-20 13:43,9.0,18.2,0.0,0.0,1014.39,55.0,217.0,18.2,2.0,18.2,335.0,NW,11.2,8.6,DRY,,9999.0,,Cloudy,714.7107650478363,cloudy.gif
2025-04-20 13:48,8.6,18.0,0.0,0.0,1014.39,54.0,227.1,18.0,2.0,18.0,320.0,NW,14.8,11.9,DRY,,9999.0,,Cloudy,711.9091414214957,cloudy.gif
2025-04-20 13:53,8.9,18.4,0.0,0.0,1014.49,54.0,363.5,18.4,3.0,18.4,301.0,NW,14.8,13.0,DRY,,9999.0,,Partly Cloudy,708.7941080627753,partly_cloudy.gif
2025-04-20 13:58,9.1,18.3,0.0,0.0,1014.29,55.0,210.1,18.3,2.0,18.3,320.0,NW,16.6,11.5,DRY,,9999.0,,Cloudy,705.36721747421,cloudy.gif
2025-04-20 14:03,9.2,18.1,0.0,0.0,1014.39,56.0,232.7,18.1,2.0,18.1,318.0,NW,3.6,2.5,DRY,,9999.0,,Cloudy,701.6301775766151,cloudy.gif
2025-04-20 14:08,8.8,18.3,0.0,0.0,1014.49,54.0,352.3,18.3,3.0,18.3,230.0,SW,18.4,12.2,DRY,,9999.0,,Partly Cloudy,697.5848511739648,partly_cloudy.gif
2025-04-20 14:13,8.2,18.2,0.0,0.0,1014.39,52.0,356.3,18.2,3.0,18.2,227.0,SW,13.0,10.4,DRY,,9999.0,,Partly Cloudy,693.2332553536003,partly_cloudy.gif
2025-04-20 14:18,9.0,18.5,0.0,0.0,1014.29,54.0,232.5,18.5,2.0,18.5,299.0,NW,9.4,7.6,DRY,,9999.0,,Cloudy,688.5775608725244,cloudy.gif
2025-04-20 14:23,9.0,18.5,0.0,0.0,1014.39,54.0,526.4,18.5,5.0,18.5,296.0,NW,22.0,18.0,DRY,,9999.0,,Mostly Sunny,683.6200914852284,mostly_sunny.gif
2025-04-20 14:28,9.5,18.7,0.0,0.0,1014.49,55.0,477.9,18.7,4.0,18.7,245.0,SW,7.2,5.0,DRY,,9999.0,,Mostly Sunny,678.3633232626592,mostly_sunny.gif
2025-04-20 14:33,8.7,19.4,0.0,0.0,1014.39,50.0,367.0,19.4,3.0,19.4,302.0,NW,9.4,6.8,DRY,,9999.0,,Partly Cloudy,672.8098838692704,partly_cloudy.gif
2025-04-20 14:38,9.0,18.8,0.0,0.0,1014.49,53.0,316.2,18.8,3.0,18.8,233.0,SW,16.6,10.1,DRY,,9999.0,,Partly Cloudy,666.9625518174447,partly_cloudy.gif
2025-04-20 14:43,9.0,18.8,0.0,0.0,1014.7,53.0,276.6,18.8,2.0,18.8,183.0,S,13.0,9.4,DRY,,9999.0,,Mostly Cloudy,660.8242557192717,mostly_cloudy.gif
2025-04-20 14:48,9.1,18.6,0.0,0.0,1014.7,54.0,148.0,18.6,1.0,18.6,305.0,NW,7.2,6.1,DRY,,9999.0,,Cloudy,654.3980735043436,cloudy.gif
2025-04-20 14:53,9.1,18.3,0.0,0.0,1014.7,55.0,123.6,18.3,1.0,18.3,315.0,NW,3.6,2.2,DRY,,9999.0,,Cloudy,647.6872316557668,cloudy.gif
2025-04-20 14:58,9.4,18.3,0.0,0.0,1014.7,56.0,147.2,18.3,1.0,18.3,268.0,W,5.4,3.6,DRY,,9999.0,,Cloudy,640.6951044246384,cloudy.gif
2025-04-20 15:03,9.0,18.2,0.0,0.0,1014.6,55.0,172.1,18.2,1.0,18.2,309.0,NW,5.4,3.6,DRY,,9999.0,,Cloudy,633.4252130780744,cloudy.gif
2025-04-20 15:08,9.0,18.2,0.0,0.0,1014.49,55.0,184.7,18.2,1.0,18.2,292.0,W,3.6,3.6,DRY,,9999.0,,Cloudy,625.8812251432131,cloudy.gif
2025-04-20 15:13,9.2,18.7,0.0,0.0,1014.29,54.0,403.8,18.7,3.0,18.7,261.0,W,3.6,2.2,DRY,,9999.0,,Mostly Sunny,618.0669537030382,mostly_sunny.gif
2025-04-20 15:18,9.0,18.8,0.0,0.0,1014.29,53.0,630.3,18.8,6.0,18.8,311.0,NW,14.8,13.0,DRY,,9999.0,,Sunny,609.986356719393,sunny.gif
2025-04-20 15:23,9.9,19.7,0.0,0.0,1014.19,53.0,533.0,19.7,5.0,19.7,305.0,NW,9.4,6.8,DRY,,9999.0,,Sunny,601.6435364112433,sunny.gif
2025-04-20 15:28,9.5,19.3,0.0,0.0,1013.99,53.0,320.6,19.3,3.0,19.3,289.0,W,5.4,3.2,DRY,,9999.0,,Partly Cloudy,593.0427387183735,partly_cloudy.gif
2025-04-20 15:33,9.9,18.8,0.0,0.0,1014.09,56.0,286.6,18.8,2.0,18.8,263.0,W,3.6,2.2,DRY,,9999.0,,Partly Cloudy,584.1883528314196,partly_cloudy.gif
2025-04-20 15:38,9.1,18.6,0.0,0.0,1013.88,54.0,244.3,18.6,2.0,18.6,233.0,SW,14.8,12.2,DRY,,9999.0,,Mostly Cloudy,575.0849108537444,mostly_cloudy.gif
2025-04-20 15:43,9.6,18.5,0.0,0.0,1014.09,56.0,190.4,18.5,1.0,18.5,249.0,W,5.4,2.5,DRY,,9999.0,,Cloudy,565.7370875715503,cloudy.gif
2025-04-20 15:48,8.7,18.2,0.0,0.0,1013.99,54.0,130.6,18.2,1.0,18.2,264.0,W,9.4,7.2,DRY,,9999.0,,Cloudy,556.1497004055151,cloudy.gif
2025-04-20 15:53,9.0,17.9,0.0,0.0,1013.99,56.0,149.7,17.9,1.0,17.9,307.0,NW,9.4,7.2,DRY,,9999.0,,Cloudy,546.3277095279913,cloudy.gif
2025-04-20 15:58,9.3,17.9,0.0,0.0,1013.88,57.0,166.0,17.9,1.0,17.9,311.0,NW,9.4,7.6,DRY,,9999.0,,Cloudy,536.2762182264745,cloudy.gif
2025-04-20 16:03,9.1,18.0,0.0,0.0,1013.99,56.0,164.8,18.0,1.0,18.0,303.0,NW,3.6,3.2,DRY,,9999.0,,Cloudy,526.0004735182263,cloudy.gif
2025-04-20 16:08,8.8,18.3,0.0,0.0,1013.88,54.0,203.5,18.3,1.0,18.3,319.0,NW,13.0,7.2,DRY,,9999.0,,Mostly Cloudy,515.5058670785963,mostly_cloudy.gif
2025-04-20 16:13,8.9,18.6,0.0,0.0,1014.09,53.0,351.0,18.6,3.0,18.6,219.0,SW,7.2,6.1,DRY,,9999.0,,Mostly Sunny,504.79793655384964,mostly_sunny.gif
2025-04-20 16:18,9.3,19.1,0.0,0.0,1013.88,53.0,258.3,19.1,2.0,19.1,229.0,SW,13.0,7.9,DRY,,9999.0,,Partly Cloudy,493.8823672878748,partly_cloudy.gif
2025-04-20 16:23,8.7,19.0,0.0,0.0,1013.99,51.0,345.6,19.0,3.0,19.0,246.0,SW,7.2,4.3,DRY,,9999.0,,Mostly Sunny,482.76499458547175,mostly_sunny.gif
2025-04-20 16:28,9.2,19.0,0.0,0.0,1014.09,53.0,221.1,19.0,2.0,19.0,284.0,W,9.4,7.2,DRY,,9999.0,,Partly Cloudy,471.45180655696936,partly_cloudy.gif
2025-04-20 16:33,8.3,18.6,0.0,0.0,1014.09,51.0,233.1,18.6,2.0,18.6,165.0,S,5.4,4.7,DRY,,9999.0,,Partly Cloudy,459.94894769941675,partly_cloudy.gif
2025-04-20 16:38,8.2,19.2,0.0,0.0,1013.88,49.0,316.5,19.2,3.0,19.2,254.0,W,5.4,4.0,DRY,,9999.0,,Mostly Sunny,448.2627232965794,mostly_sunny.gif
2025-04-20 16:43,8.7,19.0,0.0,0.0,1013.88,51.0,235.0,19.0,2.0,19.0,301.0,NW,9.4,7.6,DRY,,9999.0,,Partly Cloudy,436.3996048372449,partly_cloudy.gif
2025-04-20 16:48,9.0,18.7,0.0,0.0,1014.09,53.0,212.6,18.7,2.0,18.7,270.0,W,7.2,5.0,DRY,,9999.0,,Partly Cloudy,424.3662366003256,partly_cloudy.gif
2025-04-20 16:53,8.7,18.7,0.0,0.0,1013.72,52.0,193.5,18.7,1.0,18.7,182.0,S,3.6,2.2,DRY,,9999.0,,Partly Cloudy,412.1694436440893,partly_cloudy.gif
2025-04-20 16:58,9.0,18.7,0.0,0.0,1013.88,53.0,197.9,18.7,1.0,18.7,303.0,NW,9.4,5.4,DRY,,9999.0,,Partly Cloudy,399.81624148427164,partly_cloudy.gif
2025-04-20 17:03,8.7,18.7,0.0,0.0,1013.99,52.0,180.4,18.7,1.0,18.7,294.0,NW,1.8,1.4,DRY,,9999.0,,Partly Cloudy,387.3138477522156,partly_cloudy.gif
2025-04-20 17:08,8.6,18.6,0.0,0.0,1013.88,52.0,217.0,18.6,2.0,18.6,279.0,W,5.4,3.6,DRY,,9999.0,,Partly Cloudy,374.6696962798689,partly_cloudy.gif
2025-04-20 17:13,8.9,19.0,0.0,0.0,1013.72,52.0,253.0,19.0,2.0,19.0,218.0,SW,3.6,2.2,DRY,,9999.0,,Mostly Sunny,361.8914540570106,mostly_sunny.gif
2025-04-20 17:18,8.8,19.2,0.0,0.0,1013.61,51.0,270.8,19.2,2.0,19.2,257.0,W,3.6,2.2,DRY,,9999.0,,Mostly Sunny,348.98704171642345,mostly_sunny.gif
2025-04-20 17:23,8.7,19.4,0.0,0.0,1013.88,50.0,216.9,19.4,2.0,19.4,296.0,NW,5.4,4.0,DRY,,9999.0,,Partly Cloudy,335.96465825551064,partly_cloudy.gif
2025-04-20 17:28,8.2,18.5,0.0,0.0,1013.99,51.0,167.9,18.5,1.0,18.5,229.0,SW,5.4,4.3,DRY,,9999.0,,Partly Cloudy,322.832810984329,partly_cloudy.gif
2025-04-20 17:33,8.3,18.3,0.0,0.0,1013.82,52.0,214.6,18.3,2.0,18.3,226.0,SW,7.2,5.8,DRY,,9999.0,,Mostly Sunny,309.6003518499797,mostly_sunny.gif
2025-04-20 17:38,8.4,18.4,0.0,0.0,1013.61,52.0,185.3,18.4,1.0,18.4,215.0,SW,3.6,2.2,DRY,,9999.0,,Partly Cloudy,296.276521653997,partly_cloudy.gif
2025-04-20 17:43,8.4,18.1,0.0,0.0,1013.72,53.0,171.1,18.1,1.0,18.1,205.0,SW,5.4,4.0,DRY,,9999.0,,Partly Cloudy,282.8710040910063,partly_cloudy.gif
2025-04-20 17:48,8.5,18.5,0.0,0.0,1013.82,52.0,214.8,18.5,2.0,18.5,169.0,S,3.6,2.5,DRY,,9999.0,,Mostly Sunny,269.3939920262555,mostly_sunny.gif
2025-04-20 17:53,8.5,18.5,0.0,0.0,1013.72,52.0,214.7,18.5,2.0,18.5,213.0,SW,9.4,7.2,DRY,,9999.0,,Mostly Sunny,255.8562692323538,mostly_sunny.gif
2025-04-20 17:58,8.4,18.4,0.0,0.0,1013.61,52.0,132.8,18.4,1.0,18.4,209.0,SW,9.4,6.5,DRY,,9999.0,,Partly Cloudy,242.2693116735945,partly_cloudy.gif
2025-04-20 18:03,8.3,18.0,0.0,0.0,1013.61,53.0,123.3,18.0,1.0,18.0,208.0,SW,7.2,5.4,DRY,,9999.0,,Partly Cloudy,228.6454138213766,partly_cloudy.gif
2025-04-20 18:08,8.2,17.9,0.0,0.0,1013.72,53.0,117.0,17.9,1.0,17.9,226.0,SW,3.6,2.9,DRY,,9999.0,,Partly Cloudy,214.99784715902533,partly_cloudy.gif
2025-04-20 18:13,8.7,18.2,0.0,0.0,1013.51,54.0,110.4,18.2,1.0,18.2,217.0,SW,3.6,3.6,DRY,,9999.0,,Partly Cloudy,201.3410605653976,partly_cloudy.gif
2025-04-20 18:18,8.8,18.3,0.0,0.0,1013.61,54.0,104.6,18.3,1.0,18.3,195.0,S,3.6,2.2,DRY,,9999.0,,Mostly Sunny,187.69093556836685,mostly_sunny.gif
2025-04-20 18:23,8.4,18.1,0.0,0.0,1013.61,53.0,97.2,18.1,0.0,18.1,187.0,S,5.4,4.0,DRY,,9999.0,,Mostly Sunny,174.0651142669554,mostly_sunny.gif
2025-04-20 18:28,8.5,17.9,0.0,0.0,1013.61,54.0,85.8,17.9,0.0,17.9,296.0,NW,5.4,3.6,DRY,,9999.0,,Partly Cloudy,160.48342446785674,partly_cloudy.gif
2025-04-20 18:33,8.2,17.6,0.0,0.0,1013.61,54.0,69.1,17.6,0.0,17.6,241.0,SW,11.2,7.2,DRY,,9999.0,,Partly Cloudy,146.9684362064545,partly_cloudy.gif
2025-04-20 18:38,8.2,17.3,0.0,0.0,1013.88,55.0,57.8,17.3,0.0,17.3,286.0,W,9.4,5.0,DRY,,9999.0,,Partly Cloudy,133.54619792958263,partly_cloudy.gif
2025-04-20 18:43,8.1,17.2,0.0,0.0,1013.61,55.0,45.9,17.2,0.0,17.2,318.0,NW,1.8,1.8,DRY,,9999.0,,Partly Cloudy,120.24722104272354,partly_cloudy.gif
2025-04-20 18:48,8.1,16.9,0.0,0.0,1013.61,56.0,38.4,16.9,0.0,16.9,245.0,SW,7.2,4.3,DRY,,9999.0,,Partly Cloudy,107.10781189647994,partly_cloudy.gif
2025-04-20 18:53,8.3,16.9,0.0,0.0,1013.82,57.0,34.7,16.9,0.0,16.9,263.0,W,3.6,2.9,DRY,,9999.0,,Partly Cloudy,94.35584395969597,partly_cloudy.gif
2025-04-20 18:58,7.8,16.6,0.0,0.0,1013.61,56.0,31.5,16.6,0.0,16.6,287.0,W,5.4,4.3,DRY,,9999.0,,Partly Cloudy,86.37599450793121,partly_cloudy.gif
2025-04-20 19:03,7.6,16.4,0.0,0.0,1013.88,56.0,27.9,16.4,0.0,16.4,298.0,NW,7.2,6.5,DRY,,9999.0,,Partly Cloudy,78.4067607934267,partly_cloudy.gif
2025-04-20 19:08,7.5,16.3,0.0,0.0,1013.88,56.0,25.3,16.3,0.0,16.3,299.0,NW,13.0,7.6,DRY,,9999.0,,Partly Cloudy,70.45535049020367,partly_cloudy.gif
2025-04-20 19:13,7.7,16.2,0.0,0.0,1013.88,57.0,21.7,16.2,0.0,16.2,236.0,SW,9.4,6.1,DRY,,9999.0,,Mostly Cloudy,62.53003945713929,mostly_cloudy.gif
2025-04-20 19:18,8.0,16.0,0.0,0.0,1014.09,59.0,17.7,16.0,0.0,16.0,224.0,SW,3.6,1.8,DRY,,9999.0,,Mostly Cloudy,54.64054557122339,mostly_cloudy.gif
2025-04-20 19:23,7.8,15.8,0.0,0.0,1014.19,59.0,14.0,15.8,0.0,15.8,258.0,W,5.4,3.6,DRY,,9999.0,,Mostly Cloudy,46.7957155001891,mostly_cloudy.gif
2025-04-20 19:28,7.7,15.7,0.0,0.0,1014.19,59.0,11.4,15.7,0.0,15.7,269.0,W,5.4,4.3,DRY,,9999.0,,Mostly Cloudy,39.03178905858006,mostly_cloudy.gif
2025-04-20 19:33,7.7,15.7,0.0,0.0,1014.29,59.0,9.2,15.7,0.0,15.7,260.0,W,0.0,0.0,DRY,,9999.0,,Mostly Cloudy,31.35907730469964,mostly_cloudy.gif
2025-04-20 19:38,7.8,15.5,0.0,0.0,1014.19,60.0,8.0,15.5,0.0,15.5,288.0,W,7.2,5.4,DRY,,9999.0,,Mostly Cloudy,23.807277623418212,mostly_cloudy.gif
2025-04-20 19:43,7.9,15.4,0.0,0.0,1014.29,61.0,6.5,15.4,0.0,15.4,220.0,SW,14.8,10.8,DRY,,9999.0,,Partly Cloudy,16.427507192620734,partly_cloudy.gif
2025-04-20 19:48,7.9,15.4,0.0,0.0,1014.39,61.0,4.7,15.4,0.0,15.4,143.0,SE,5.4,4.7,DRY,,9999.0,,Partly Cloudy,9.291289964995565,partly_cloudy.gif
2025-04-20 19:53,7.8,15.3,0.0,0.0,1014.19,61.0,2.9,15.3,0.0,15.3,255.0,W,20.2,15.1,DRY,,9999.0,,Sunny,2.4893964710690755,sunny.gif
2025-04-20 19:58,7.8,15.3,0.0,0.0,1014.29,61.0,1.7,15.3,0.0,15.3,233.0,SW,18.4,15.5,DRY,,9999.0,,Twilight,0.0,cloudy.gif
2025-04-20 20:03,8.2,15.2,0.0,0.0,1014.19,63.0,1.0,15.2,0.0,15.2,281.0,W,9.4,6.1,DRY,,9999.0,,Twilight,0.0,cloudy.gif
2025-04-20 20:08,7.9,15.1,0.0,0.0,1014.19,62.0,0.5,15.1,0.0,15.1,256.0,W,5.4,5.4,DRY,,9999.0,,Twilight,0.0,cloudy.gif
2025-04-20 20:13,8.0,15.0,0.0,0.0,1014.49,63.0,0.2,15.0,0.0,15.0,202.0,S,5.4,4.7,DRY,,9999.0,,Twilight,0.0,cloudy.gif
2025-04-20 20:18,8.0,15.0,0.0,0.0,1014.7,63.0,0.1,15.0,0.0,15.0,241.0,SW,9.4,4.7,DRY,,9999.0,,Twilight,0.0,cloudy.gif
2025-04-20 20:23,8.1,15.1,0.0,0.0,1014.6,63.0,0.0,15.1,0.0,15.1,252.0,W,13.0,10.1,DRY,,9999.0,,Twilight,0.0,cloudy.gif
2025-04-20 20:28,7.8,15.0,0.0,0.0,1014.49,62.0,0.0,15.0,0.0,15.0,241.0,SW,16.6,13.0,DRY,,9999.0,,Twilight,0.0,cloudy.gif
2025-04-20 20:33,8.1,14.8,0.0,0.0,1014.6,64.0,0.0,14.8,0.0,14.8,257.0,W,5.4,4.7,DRY,,9999.0,,Night,0.0,night.gif
2025-04-20 20:38,8.0,14.7,0.0,0.0,1014.7,64.0,0.0,14.7,0.0,14.7,225.0,SW,9.4,7.2,DRY,,9999.0,,Night,0.0,night.gif
2025-04-20 20:43,7.8,14.8,0.0,0.0,1014.49,63.0,0.0,14.8,0.0,14.8,226.0,SW,7.2,4.7,DRY,,9999.0,,Night,0.0,night.gif
2025-04-20 20:48,8.0,14.7,0.0,0.0,1014.49,64.0,0.0,14.7,0.0,14.7,183.0,S,11.2,9.0,DRY,,9999.0,,Night,0.0,night.gif
2025-04-20 20:53,8.0,14.7,0.0,0.0,1014.39,64.0,0.0,14.7,0.0,14.7,192.0,S,5.4,4.7,DRY,,9999.0,,Night,0.0,night.gif
2025-04-20 20:58,8.0,14.7,0.0,0.0,1014.39,64.0,0.0,14.7,0.0,14.7,198.0,S,7.2,5.4,DRY,,9999.0,,Night,0.0,night.gif
2025-04-20 21:03,8.0,14.7,0.0,0.0,1014.39,64.0,0.0,14.7,0.0,14.7,245.0,SW,14.8,5.4,DRY,,9999.0,,Night,0.0,night.gif
2025-04-20 21:08,7.6,14.6,0.0,0.0,1014.29,63.0,0.0,14.6,0.0,14.6,202.0,S,9.4,6.1,DRY,,9999.0,,Night,0.0,night.gif
2025-04-20 21:13,7.7,14.9,0.0,0.0,1014.49,62.0,0.0,14.9,0.0,14.9,242.0,SW,13.0,7.9,DRY,,9999.0,,Night,0.0,night.gif
2025-04-20 21:18,7.4,14.9,0.0,0.0,1014.39,61.0,0.0,14.9,0.0,14.9,245.0,SW,9.4,7.6,DRY,,9999.0,,Night,0.0,night.gif
2025-04-20 21:23,7.5,15.0,0.0,0.0,1014.49,61.0,0.0,15.0,0.0,15.0,241.0,SW,7.2,4.7,DRY,,9999.0,,Night,0.0,night.gif
2025-04-20 21:28,7.4,14.9,0.0,0.0,1014.6,61.0,0.0,14.9,0.0,14.9,225.0,SW,20.2,15.5,DRY,,9999.0,,Night,0.0,night.gif
2025-04-20 21:33,7.6,14.8,0.0,0.0,1014.6,62.0,0.0,14.8,0.0,14.8,230.0,SW,5.4,2.9,DRY,,9999.0,,Night,0.0,night.gif
2025-04-20 21:38,7.5,14.7,0.0,0.0,1014.7,62.0,0.0,14.7,0.0,14.7,211.0,SW,14.8,13.0,DRY,,9999.0,,Night,0.0,night.gif
2025-04-20 21:43,7.3,14.7,0.0,0.0,1014.49,61.0,0.0,14.7,0.0,14.7,266.0,W,14.8,11.5,DRY,,9999.0,,Night,0.0,night.gif
2025-04-20 21:48,7.3,14.7,0.0,0.0,1014.7,61.0,0.0,14.7,0.0,14.7,266.0,W,5.4,4.3,DRY,,9999.0,,Night,0.0,night.gif
2025-04-20 21:53,7.5,14.7,0.0,0.0,1014.7,62.0,0.0,14.7,0.0,14.7,279.0,W,3.6,2.2,DRY,,9999.0,,Night,0.0,night.gif
2025-04-20 21:58,7.5,14.7,0.0,0.0,1014.6,62.0,0.0,14.7,0.0,14.7,252.0,W,18.4,11.2,DRY,,9999.0,,Night,0.0,night.gif
2025-04-20 22:03,7.5,14.7,0.0,0.0,1014.49,62.0,0.0,14.7,0.0,14.7,266.0,W,14.8,12.2,DRY,,9999.0,,Night,0.0,night.gif
2025-04-20 22:08,7.6,14.6,0.0,0.0,1014.7,63.0,0.0,14.6,0.0,14.6,297.0,NW,9.4,6.5,DRY,,9999.0,,Night,0.0,night.gif
2025-04-20 22:13,7.6,14.3,0.0,0.0,1014.7,64.0,0.0,14.3,0.0,14.3,320.0,NW,3.6,1.4,DRY,,9999.0,,Night,0.0,night.gif
2025-04-20 22:18,7.6,14.3,0.0,0.0,1014.49,64.0,0.0,14.3,0.0,14.3,307.0,NW,11.2,9.4,DRY,,9999.0,,Night,0.0,night.gif
2025-04-20 22:23,8.0,14.5,0.0,0.0,1014.7,65.0,0.0,14.5,0.0,14.5,301.0,NW,3.6,3.6,DRY,,9999.0,,Night,0.0,night.gif
2025-04-20 22:28,7.9,14.1,0.0,0.0,1014.9,66.0,0.0,14.1,0.0,14.1,38.0,NE,1.8,0.7,DRY,,9999.0,,Night,0.0,night.gif
2025-04-20 22:33,8.0,14.0,0.0,0.0,1014.9,67.0,0.0,14.0,0.0,14.0,47.0,NE,1.8,0.4,DRY,,9999.0,,Night,0.0,night.gif
2025-04-20 22:38,7.7,13.7,0.0,0.0,1014.7,67.0,0.0,13.7,0.0,13.7,240.0,SW,11.2,8.6,DRY,,9999.0,,Night,0.0,night.gif
2025-04-20 22:43,7.8,14.3,0.0,0.0,1014.8,65.0,0.0,14.3,0.0,14.3,213.0,SW,14.8,11.2,DRY,,9999.0,,Night,0.0,night.gif
2025-04-20 22:48,7.9,14.4,0.0,0.0,1014.9,65.0,0.0,14.4,0.0,14.4,134.0,SE,1.8,1.8,DRY,,9999.0,,Night,0.0,night.gif
2025-04-20 22:53,8.0,14.0,0.0,0.0,1015.0,67.0,0.0,14.0,0.0,14.0,227.0,SW,3.6,2.5,DRY,,9999.0,,Night,0.0,night.gif
2025-04-20 22:58,7.9,13.9,0.0,0.0,1015.1,67.0,0.0,13.9,0.0,13.9,314.0,NW,5.4,2.9,DRY,,9999.0,,Night,0.0,night.gif
2025-04-20 23:03,7.8,14.0,0.0,0.0,1014.8,66.0,0.0,14.0,0.0,14.0,241.0,SW,5.4,4.7,DRY,,9999.0,,Night,0.0,night.gif
2025-04-20 23:08,8.0,14.0,0.0,0.0,1014.9,67.0,0.0,14.0,0.0,14.0,331.0,NW,0.0,0.0,DRY,,9999.0,,Night,0.0,night.gif
2025-04-20 23:13,8.1,13.9,0.0,0.0,1014.8,68.0,0.0,13.9,0.0,13.9,332.0,NW,3.6,3.6,DRY,,9999.0,,Night,0.0,night.gif
2025-04-20 23:18,7.9,13.5,0.0,0.0,1014.9,69.0,0.0,13.5,0.0,13.5,326.0,NW,1.8,1.8,DRY,,9999.0,,Night,0.0,night.gif
2025-04-20 23:23,7.7,13.0,0.0,0.0,1014.8,70.0,0.0,13.0,0.0,13.0,311.0,NW,5.4,4.7,DRY,,9999.0,,Night,0.0,night.gif
2025-04-20 23:28,8.0,12.9,0.0,0.0,1014.8,72.0,0.0,12.9,0.0,12.9,330.0,NW,5.4,4.0,DRY,,9999.0,,Night,0.0,night.gif
2025-04-20 23:33,7.9,12.4,0.0,0.0,1015.0,74.0,0.0,12.4,0.0,12.4,320.0,NW,3.6,3.6,DRY,,9999.0,,Night,0.0,night.gif
2025-04-20 23:38,8.0,12.3,0.0,0.0,1014.9,75.0,0.0,12.3,0.0,12.3,333.0,NW,3.6,2.9,DRY,,9999.0,,Night,0.0,night.gif
2025-04-20 23:43,8.2,12.3,0.0,0.0,1015.0,76.0,0.0,12.3,0.0,12.3,338.0,N,5.4,5.4,DRY,,9999.0,,Night,0.0,night.gif
2025-04-20 23:48,8.1,12.0,0.0,0.0,1014.8,77.0,0.0,12.0,0.0,12.0,346.0,N,7.2,7.2,DRY,,9999.0,,Night,0.0,night.gif
2025-04-20 23:53,7.6,11.7,0.0,0.0,1014.8,76.0,0.0,11.7,0.0,11.7,336.0,NW,7.2,7.2,DRY,,9999.0,,Night,0.0,night.gif
2025-04-20 23:58,8.2,11.9,0.0,0.0,1014.8,78.0,0.0,11.9,0.0,11.9,339.0,N,3.6,2.2,DRY,,9999.0,,Night,0.0,night.gif
2025-04-21 00:03,8.0,12.9,0.0,0.0,1014.7,72.0,0.0,12.9,0.0,12.9,283.0,W,5.4,4.0,DRY,,9999.0,,Night,0.0,night.gif
2025-04-21 00:08,8.0,12.7,0.0,0.0,1014.8,73.0,0.0,12.7,0.0,12.7,6.0,N,7.2,6.1,DRY,,9999.0,,Night,0.0,night.gif
2025-04-21 00:13,8.0,12.3,0.0,0.0,1014.8,75.0,0.0,12.3,0.0,12.3,339.0,N,7.2,6.1,DRY,,9999.0,,Night,0.0,night.gif
2025-04-21 00:18,8.0,11.7,0.0,0.0,1014.6,78.0,0.0,11.7,0.0,11.7,352.0,N,7.2,5.8,DRY,,9999.0,,Night,0.0,night.gif
2025-04-21 00:23,8.0,11.3,0.0,0.0,1014.8,80.0,0.0,11.3,0.0,11.3,320.0,NW,1.8,0.4,DRY,,9999.0,,Night,0.0,night.gif
2025-04-21 00:28,7.6,11.3,0.0,0.0,1014.7,78.0,0.0,11.3,0.0,11.3,335.0,NW,9.4,7.6,DRY,,9999.0,,Night,0.0,night.gif
2025-04-21 00:33,8.2,12.1,0.0,0.0,1014.9,77.0,0.0,12.1,0.0,12.1,354.0,N,3.6,3.6,DRY,,9999.0,,Night,0.0,night.gif
2025-04-21 00:38,8.1,11.3,0.0,0.0,1014.9,81.0,0.0,11.3,0.0,11.3,26.0,NE,3.6,2.5,DRY,,9999.0,,Night,0.0,night.gif
2025-04-21 00:43,7.9,10.8,0.0,0.0,1014.7,82.0,0.0,10.8,0.0,10.8,3.0,N,5.4,5.4,DRY,,9999.0,,Night,0.0,night.gif
2025-04-21 00:48,8.2,11.7,0.0,0.0,1014.9,79.0,0.0,11.7,0.0,11.7,350.0,N,1.8,1.4,DRY,,9999.0,,Night,0.0,night.gif
2025-04-21 00:53,8.1,11.0,0.0,0.0,1014.9,82.0,0.0,11.0,0.0,11.0,350.0,N,0.0,0.0,DRY,,9999.0,,Night,0.0,night.gif
2025-04-21 00:58,7.6,10.7,0.0,0.0,1014.8,81.0,0.0,10.7,0.0,10.7,336.0,NW,1.8,1.4,DRY,,9999.0,,Night,0.0,night.gif
2025-04-21 01:03,7.9,11.0,0.0,0.0,1015.0,81.0,0.0,11.0,0.0,11.0,170.0,S,1.8,1.8,DRY,,9999.0,,Night,0.0,night.gif
2025-04-21 01:08,7.9,11.6,0.0,0.0,1015.0,78.0,0.0,11.6,0.0,11.6,9.0,N,1.8,1.1,DRY,,9999.0,,Night,0.0,night.gif
2025-04-21 01:13,7.9,11.4,0.0,0.0,1014.9,79.0,0.0,11.4,0.0,11.4,207.0,SW,3.6,3.2,DRY,,9999.0,,Night,0.0,night.gif
2025-04-21 01:18,7.6,11.5,0.0,0.0,1014.9,77.0,0.0,11.5,0.0,11.5,82.0,E,1.8,1.4,DRY,,9999.0,,Night,0.0,night.gif
2025-04-21 01:23,7.8,11.5,0.0,0.0,1014.8,78.0,0.0,11.5,0.0,11.5,323.0,NW,0.0,0.0,DRY,,9999.0,,Night,0.0,night.gif
2025-04-21 01:28,7.7,11.6,0.0,0.0,1014.8,77.0,0.0,11.6,0.0,11.6,257.0,W,1.8,1.4,DRY,,9999.0,,Night,0.0,night.gif
2025-04-21 01:33,8.1,11.8,0.0,0.0,1014.9,78.0,0.0,11.8,0.0,11.8,165.0,S,1.8,0.4,DRY,,9999.0,,Night,0.0,night.gif
2025-04-21 01:38,7.8,11.3,0.0,0.0,1014.7,79.0,0.0,11.3,0.0,11.3,165.0,S,0.0,0.0,DRY,,9999.0,,Night,0.0,night.gif
2025-04-21 01:43,7.5,11.0,0.0,0.0,1014.8,79.0,0.0,11.0,0.0,11.0,106.0,E,0.0,0.0,DRY,,9999.0,,Night,0.0,night.gif
2025-04-21 01:48,7.6,11.1,0.0,0.0,1014.7,79.0,0.0,11.1,0.0,11.1,148.0,SE,0.0,0.0,DRY,,9999.0,,Night,0.0,night.gif
2025-04-21 01:53,7.2,11.5,0.0,0.0,1014.8,75.0,0.0,11.5,0.0,11.5,324.0,NW,7.2,4.3,DRY,,9999.0,,Night,0.0,night.gif
2025-04-21 01:58,7.5,12.6,0.0,0.0,1014.8,71.0,0.0,12.6,0.0,12.6,289.0,W,1.8,1.4,DRY,,9999.0,,Night,0.0,night.gif
2025-04-21 02:03,7.6,12.9,0.0,0.0,1014.6,70.0,0.0,12.9,0.0,12.9,234.0,SW,3.6,2.2,DRY,,9999.0,,Night,0.0,night.gif
2025-04-21 02:08,7.4,12.9,0.0,0.0,1014.6,69.0,0.0,12.9,0.0,12.9,276.0,W,9.4,6.1,DRY,,9999.0,,Night,0.0,night.gif
