timestamp,imedvode1_dewpoint,imedvode1_heat_index,imedvode1_precipitation_rate,imedvode1_precipitation_today,imedvode1_pressure,imedvode1_relative_humidity,imedvode1_solar_radiation,imedvode1_temperature,imedvode1_uv_index,imedvode1_wind_chill,imedvode1_wind_direction_degrees,windCardinals,imedvode1_wind_gust,imedvode1_wind_speed,visibility,condition1,condition2,condition3,sky,max_solar_radiation,image_name
2025-08-30 12:02,16.5,19.1,0.0,0.0,1009.21,84.0,341.2,19.1,2.0,19.1,156.0,SE,5.4,5.4,500.0,DRY,,FOG,Partly Cloudy,672.8112564457215,fog.gif
2025-08-30 12:07,16.5,19.1,0.0,0.0,1009.52,84.0,330.2,19.1,2.0,19.1,113.0,SE,3.6,3.6,500.0,DRY,,FOG,Partly Cloudy,676.5370371874629,fog.gif
2025-08-30 12:12,16.6,19.4,0.0,0.0,1009.52,84.0,318.4,19.4,2.0,19.4,135.0,SE,9.4,7.2,500.0,DRY,,FOG,Partly Cloudy,679.9497725025346,fog.gif
2025-08-30 12:17,17.0,19.8,0.0,0.0,1009.31,84.0,354.7,19.8,2.0,19.8,125.0,SE,7.2,6.5,500.0,DRY,,FOG,Partly Cloudy,683.0477531162936,fog.gif
2025-08-30 12:22,17.4,19.8,0.0,0.0,1009.01,86.0,304.4,19.8,2.0,19.8,95.0,E,1.8,0.4,500.0,DRY,,FOG,Mostly Cloudy,685.8294275548689,fog.gif
2025-08-30 12:37,16.7,20.1,0.0,0.0,1009.11,81.0,419.6,20.1,4.0,20.1,89.0,E,0.0,0.0,500.0,DRY,,FOG,Partly Cloudy,692.263475290487,fog.gif
2025-08-30 12:47,16.7,20.3,0.0,0.0,1009.11,80.0,396.7,20.3,3.0,20.3,163.0,S,5.4,4.0,500.0,DRY,,FOG,Partly Cloudy,694.9500052686602,fog.gif
2025-08-30 12:57,17.0,20.6,0.0,0.0,1009.11,80.0,478.7,20.6,4.0,20.6,126.0,SE,1.8,1.4,500.0,DRY,,FOG,Mostly Sunny,696.3475807796872,fog.gif
2025-08-30 13:07,17.2,20.9,0.0,0.0,1008.91,79.0,711.3,20.9,6.0,20.9,153.0,SE,3.6,2.2,500.0,DRY,,FOG,Sunny,696.4533510852443,fog.gif
2025-08-30 13:12,17.0,21.4,0.0,0.0,1008.91,77.0,605.7,21.2,5.0,21.2,122.0,SE,7.2,5.4,500.0,DRY,,FOG,Sunny,696.0216196767541,fog.gif
2025-08-30 13:17,16.9,21.3,0.0,0.0,1008.81,77.0,585.0,21.1,5.0,21.1,116.0,SE,9.4,8.6,500.0,DRY,,FOG,Mostly Sunny,695.2670301345848,fog.gif
2025-08-30 13:22,17.3,20.9,0.0,0.0,1009.01,80.0,667.9,20.9,6.0,20.9,112.0,E,5.4,4.7,500.0,DRY,,FOG,Sunny,694.1899475061107,fog.gif
2025-08-30 13:32,16.9,20.9,0.0,0.0,1008.7,78.0,669.4,20.9,6.0,20.9,152.0,SE,7.2,6.5,500.0,DRY,,FOG,Sunny,691.0705639127224,fog.gif
2025-08-30 16:22,16.9,21.9,0.0,0.0,1008.2,74.0,157.5,21.7,1.0,21.7,172.0,S,11.2,8.3,500.0,DRY,,FOG,Cloudy,456.676218560451,fog.gif
2025-08-30 16:37,16.9,21.7,0.0,0.0,1008.7,75.0,147.1,21.5,1.0,21.5,133.0,SE,11.2,9.7,500.0,DRY,,FOG,Cloudy,422.1413745796923,fog.gif
2025-08-30 16:42,17.2,21.6,0.0,0.0,1008.6,77.0,140.1,21.4,1.0,21.4,146.0,SE,9.4,8.3,500.0,DRY,,FOG,Cloudy,410.26055206204603,fog.gif
2025-08-30 16:47,17.0,21.6,0.0,0.0,1008.7,76.0,135.3,21.4,1.0,21.4,150.0,SE,9.4,9.4,500.0,DRY,,FOG,Cloudy,398.2063632224686,fog.gif
2025-08-30 16:52,17.0,21.6,0.0,0.0,1008.7,76.0,133.0,21.4,1.0,21.4,136.0,SE,9.4,8.6,500.0,DRY,,FOG,Cloudy,385.98585946415824,fog.gif
2025-08-30 16:57,17.2,21.6,0.0,0.0,1008.91,77.0,128.4,21.4,1.0,21.4,151.0,SE,7.2,6.1,500.0,DRY,,FOG,Cloudy,373.6063169563182,fog.gif
2025-08-30 17:07,17.1,21.5,0.0,0.0,1009.01,77.0,114.6,21.3,1.0,21.3,144.0,SE,7.2,5.4,500.0,DRY,,FOG,Cloudy,348.4004511244826,fog.gif
2025-08-30 17:12,17.1,21.5,0.0,0.0,1009.01,77.0,101.6,21.3,0.0,21.3,144.0,SE,7.2,6.1,500.0,DRY,,FOG,Cloudy,335.58997752579927,fog.gif
2025-08-30 17:17,16.7,21.4,0.0,0.0,1009.11,75.0,92.8,21.3,0.0,21.3,133.0,SE,5.4,5.0,500.0,DRY,,FOG,Cloudy,322.652220131939,fog.gif
2025-08-30 17:22,17.0,21.4,0.0,0.0,1009.21,77.0,51.0,21.2,0.0,21.2,106.0,E,11.2,9.4,500.0,DRY,,FOG,Cloudy,309.59592119696345,fog.gif
2025-08-30 17:27,16.7,20.4,0.0,0.0,1009.52,79.0,11.9,20.4,0.0,20.4,59.0,NE,14.8,9.4,500.0,DRY,,FOG,Cloudy,296.4302231317164,fog.gif
2025-08-30 17:32,15.3,18.8,0.0,0.0,1009.79,80.0,11.9,18.8,0.0,18.8,121.0,SE,14.8,9.4,500.0,DRY,,FOG,Cloudy,283.1647235219582,fog.gif
2025-08-30 17:37,15.1,18.6,0.0,0.0,1010.09,80.0,6.3,18.6,0.0,18.6,33.0,NE,13.0,11.2,500.0,DRY,,FOG,Cloudy,269.8095427146586,fog.gif
2025-08-30 17:42,15.0,18.1,0.0,0.0,1010.5,82.0,4.0,18.1,0.0,18.1,86.0,E,7.2,6.1,500.0,DRY,,FOG,Cloudy,256.37540723488667,fog.gif
2025-08-30 17:47,15.0,17.9,0.0,0.0,1010.5,83.0,4.8,17.9,0.0,17.9,100.0,E,9.4,8.3,500.0,DRY,,FOG,Cloudy,242.87375338143937,fog.gif
2025-08-30 17:52,14.9,17.8,0.0,0.0,1010.5,83.0,5.5,17.8,0.0,17.8,181.0,S,0.0,0.0,500.0,DRY,,FOG,Cloudy,229.31685658495692,fog.gif
2025-08-30 17:57,15.0,17.7,0.0,0.0,1010.7,84.0,6.3,17.7,0.0,17.7,140.0,SE,3.6,1.4,500.0,DRY,,FOG,Cloudy,215.71799411855324,fog.gif
2025-08-30 18:02,15.1,17.5,0.0,0.0,1010.4,86.0,6.9,17.5,0.0,17.5,108.0,E,5.4,5.4,500.0,DRY,,FOG,Cloudy,202.09165117795476,fog.gif
2025-08-30 18:07,15.1,16.8,5.99,1.5,1010.19,90.0,7.1,16.8,0.0,16.8,97.0,E,5.4,4.3,500.0,RAIN,MODERATE,FOG,Cloudy,188.4537840830792,fog.gif
2025-08-30 18:12,15.4,16.6,8.99,2.01,1010.5,93.0,6.7,16.6,0.0,16.6,110.0,E,5.4,4.7,500.0,RAIN,HEAVY,FOG,Cloudy,174.82215927024137,fog.gif
2025-08-30 18:17,15.3,16.6,4.8,2.31,1010.4,92.0,5.5,16.6,0.0,16.6,155.0,SE,5.4,4.3,500.0,RAIN,MODERATE,FOG,Cloudy,161.21679408809206,fog.gif
2025-08-30 18:22,15.3,16.5,3.0,2.49,1010.09,93.0,5.4,16.5,0.0,16.5,147.0,SE,1.8,1.8,500.0,RAIN,MODERATE,FOG,Cloudy,147.66053573273467,fog.gif
2025-08-30 18:27,15.2,16.4,0.0,2.79,1010.09,93.0,5.6,16.4,0.0,16.4,132.0,SE,1.8,1.1,500.0,RAIN,LIGHT,FOG,Cloudy,134.17982982289465,fog.gif
2025-08-30 18:32,15.1,16.2,3.61,3.1,1010.19,94.0,5.5,16.2,0.0,16.2,241.0,SW,3.6,3.6,500.0,RAIN,MODERATE,FOG,Cloudy,120.80575253093026,fog.gif
2025-08-30 18:37,15.1,16.3,3.0,3.3,1010.19,93.0,5.4,16.3,0.0,16.3,175.0,S,0.0,0.0,500.0,RAIN,MODERATE,FOG,Cloudy,107.57541326836713,fog.gif
2025-08-30 18:42,15.0,16.2,0.0,3.61,1009.79,93.0,5.4,16.2,0.0,16.2,142.0,SE,0.0,0.0,500.0,RAIN,LIGHT,FOG,Cloudy,94.58124181626461,fog.gif
2025-08-30 18:47,14.9,16.1,0.0,3.81,1009.99,93.0,5.5,16.1,0.0,16.1,197.0,S,1.8,1.8,500.0,RAIN,LIGHT,FOG,Cloudy,86.53087843819475,fog.gif
2025-08-30 18:52,15.0,16.1,0.0,4.09,1009.99,94.0,5.6,16.1,0.0,16.1,309.0,NW,0.0,0.0,500.0,RAIN,LIGHT,FOG,Cloudy,78.48144049558186,fog.gif
2025-08-30 18:57,15.0,16.1,1.8,4.09,1009.99,94.0,5.5,16.1,0.0,16.1,353.0,N,3.6,2.2,500.0,RAIN,LIGHT,FOG,Cloudy,70.44031256937286,fog.gif
2025-08-30 19:02,14.5,15.7,0.0,4.09,1009.99,93.0,5.4,15.7,0.0,15.7,314.0,NW,5.4,4.0,500.0,DRY,,FOG,Cloudy,62.416026923524875,fog.gif
2025-08-30 19:07,14.6,15.8,1.19,4.29,1010.4,93.0,4.9,15.8,0.0,15.8,351.0,N,1.8,1.8,500.0,RAIN,LIGHT,FOG,Cloudy,54.41867706288482,fog.gif
2025-08-30 19:12,14.7,15.7,0.0,4.29,1010.3,94.0,4.4,15.7,0.0,15.7,328.0,NW,5.4,4.0,500.0,RAIN,LIGHT,FOG,Cloudy,46.45804874232799,fog.gif
2025-08-30 19:17,14.4,15.6,0.0,4.29,1010.3,93.0,4.2,15.6,0.0,15.6,329.0,NW,5.4,4.7,500.0,DRY,,FOG,Cloudy,38.571374717941225,fog.gif
2025-08-30 19:22,14.5,15.5,1.8,4.6,1010.4,94.0,4.0,15.5,0.0,15.5,323.0,NW,1.8,1.1,500.0,RAIN,LIGHT,FOG,Cloudy,30.77003725132233,fog.gif
2025-08-30 19:27,14.5,15.5,0.0,4.6,1010.4,94.0,3.0,15.5,0.0,15.5,323.0,NW,5.4,3.6,500.0,RAIN,LIGHT,FOG,Cloudy,23.087145931541777,fog.gif
2025-08-30 19:32,14.7,15.5,0.0,4.6,1010.5,95.0,1.9,15.5,0.0,15.5,190.0,S,1.8,0.4,500.0,DRY,,FOG,Cloudy,15.57911653420561,fog.gif
2025-08-30 19:37,14.9,15.5,0.0,4.6,1010.6,96.0,1.4,15.5,0.0,15.5,190.0,S,0.0,0.0,500.0,DRY,,FOG,Mostly Cloudy,8.32486850095002,fog.gif
2025-08-30 19:42,14.9,15.5,0.0,4.6,1010.7,96.0,0.8,15.5,0.0,15.5,332.0,NW,3.6,3.6,500.0,DRY,,FOG,Mostly Sunny,1.4248553915108242,fog.gif
2025-08-30 19:47,14.9,15.5,0.0,4.6,1010.5,96.0,0.4,15.5,0.0,15.5,313.0,NW,3.6,3.2,500.0,DRY,,FOG,Twilight,0.0,fog.gif
2025-08-30 19:52,14.9,15.5,0.0,4.6,1010.8,96.0,0.2,15.5,0.0,15.5,300.0,NW,3.6,2.2,500.0,DRY,,FOG,Twilight,0.0,fog.gif
2025-08-30 19:57,14.5,15.5,0.0,4.6,1010.9,94.0,0.1,15.5,0.0,15.5,268.0,W,5.4,3.2,500.0,DRY,,FOG,Twilight,0.0,fog.gif
2025-08-30 20:02,14.6,15.6,0.0,4.6,1010.8,94.0,0.0,15.6,0.0,15.6,288.0,W,7.2,5.4,500.0,DRY,,FOG,Twilight,0.0,fog.gif
2025-08-30 20:07,14.7,15.7,0.0,4.6,1010.9,94.0,0.0,15.7,0.0,15.7,228.0,SW,3.6,2.5,500.0,DRY,,FOG,Twilight,0.0,fog.gif
2025-08-30 20:12,14.8,15.6,1.19,4.8,1010.8,95.0,0.0,15.6,0.0,15.6,208.0,SW,3.6,3.2,500.0,RAIN,LIGHT,FOG,Twilight,0.0,fog.gif
2025-08-30 20:17,14.8,15.4,3.0,5.11,1010.8,96.0,0.0,15.4,0.0,15.4,242.0,SW,1.8,0.7,500.0,RAIN,MODERATE,FOG,Night,0.0,fog.gif
2025-08-30 20:22,14.7,15.3,0.0,5.31,1010.8,96.0,0.0,15.3,0.0,15.3,190.0,S,0.0,0.0,500.0,RAIN,LIGHT,FOG,Night,0.0,fog.gif
2025-08-30 20:27,14.8,15.4,1.19,5.31,1010.7,96.0,0.0,15.4,0.0,15.4,225.0,SW,3.6,2.2,500.0,RAIN,LIGHT,FOG,Night,0.0,fog.gif
2025-08-30 20:32,14.6,15.4,0.0,5.31,1010.5,95.0,0.0,15.4,0.0,15.4,242.0,SW,1.8,1.4,500.0,DRY,,FOG,Night,0.0,fog.gif
2025-08-30 20:37,14.8,15.4,0.0,5.31,1010.7,96.0,0.0,15.4,0.0,15.4,203.0,SW,1.8,1.4,500.0,DRY,,FOG,Night,0.0,fog.gif
2025-08-30 20:42,14.8,15.4,0.0,5.31,1010.6,96.0,0.0,15.4,0.0,15.4,227.0,SW,1.8,0.4,500.0,DRY,,FOG,Night,0.0,fog.gif
2025-08-30 20:47,14.6,15.4,0.0,5.31,1010.8,95.0,0.0,15.4,0.0,15.4,228.0,SW,0.0,0.0,500.0,DRY,,FOG,Night,0.0,fog.gif
2025-08-30 20:52,14.7,15.3,0.0,5.31,1010.7,96.0,0.0,15.3,0.0,15.3,28.0,NE,1.8,1.8,500.0,DRY,,FOG,Night,0.0,fog.gif
2025-08-30 20:57,14.7,15.3,0.0,5.31,1010.7,96.0,0.0,15.3,0.0,15.3,28.0,NE,0.0,0.0,500.0,DRY,,FOG,Night,0.0,fog.gif
2025-08-30 21:02,14.7,15.3,0.0,5.31,1010.9,96.0,0.0,15.3,0.0,15.3,28.0,NE,1.8,0.4,500.0,DRY,,FOG,Night,0.0,fog.gif
2025-08-30 21:07,14.6,15.2,0.0,5.31,1010.8,96.0,0.0,15.2,0.0,15.2,28.0,NE,0.0,0.0,500.0,DRY,,FOG,Night,0.0,fog.gif
2025-08-30 21:12,14.8,15.2,0.0,5.31,1010.7,97.0,0.0,15.2,0.0,15.2,30.0,NE,1.8,1.8,500.0,DRY,,FOG,Night,0.0,fog.gif
2025-08-30 21:17,14.8,15.2,0.0,5.31,1010.8,97.0,0.0,15.2,0.0,15.2,30.0,NE,1.8,0.4,500.0,DRY,,FOG,Night,0.0,fog.gif
2025-08-30 21:22,14.8,15.2,0.0,5.31,1011.21,97.0,0.0,15.2,0.0,15.2,31.0,NE,1.8,1.8,500.0,DRY,,FOG,Night,0.0,fog.gif
2025-08-30 21:27,14.8,15.2,0.0,5.31,1011.21,97.0,0.0,15.2,0.0,15.2,99.0,E,1.8,1.4,500.0,DRY,,FOG,Night,0.0,fog.gif
2025-08-30 21:32,14.9,15.3,0.0,5.31,1011.21,97.0,0.0,15.3,0.0,15.3,111.0,E,3.6,2.2,500.0,DRY,,FOG,Night,0.0,fog.gif
2025-08-30 21:37,15.1,15.4,0.0,5.31,1011.11,98.0,0.0,15.4,0.0,15.4,127.0,SE,3.6,3.2,500.0,DRY,,FOG,Night,0.0,fog.gif
2025-08-30 21:42,15.1,15.4,0.0,5.31,1011.21,98.0,0.0,15.4,0.0,15.4,112.0,E,5.4,4.0,500.0,DRY,,FOG,Night,0.0,fog.gif
2025-08-30 21:47,15.0,15.3,0.0,5.31,1011.21,98.0,0.0,15.3,0.0,15.3,132.0,SE,5.4,4.0,500.0,DRY,,FOG,Night,0.0,fog.gif
2025-08-30 21:52,15.0,15.3,0.0,5.31,1011.11,98.0,0.0,15.3,0.0,15.3,127.0,SE,3.6,3.6,500.0,DRY,,FOG,Night,0.0,fog.gif
2025-08-30 21:57,15.0,15.3,0.0,5.31,1011.41,98.0,0.0,15.3,0.0,15.3,131.0,SE,5.4,4.0,500.0,DRY,,FOG,Night,0.0,fog.gif
2025-08-30 22:02,14.9,15.3,0.0,5.31,1011.31,97.0,0.0,15.3,0.0,15.3,131.0,SE,3.6,3.6,500.0,DRY,,FOG,Night,0.0,fog.gif
2025-08-30 22:07,14.9,15.3,0.0,5.31,1011.21,97.0,0.0,15.3,0.0,15.3,149.0,SE,3.6,3.6,500.0,DRY,,FOG,Night,0.0,fog.gif
2025-08-30 22:12,14.8,15.4,0.0,5.31,1011.41,96.0,0.0,15.4,0.0,15.4,120.0,SE,3.6,3.6,500.0,DRY,,FOG,Night,0.0,fog.gif
2025-08-30 22:17,14.8,15.4,0.0,5.31,1011.41,96.0,0.0,15.4,0.0,15.4,132.0,SE,1.8,1.4,500.0,DRY,,FOG,Night,0.0,fog.gif
2025-08-30 22:22,14.8,15.4,0.0,5.31,1011.41,96.0,0.0,15.4,0.0,15.4,161.0,S,0.0,0.0,500.0,DRY,,FOG,Night,0.0,fog.gif
2025-08-30 22:27,14.5,15.3,0.0,5.31,1011.62,95.0,0.0,15.3,0.0,15.3,192.0,S,1.8,1.1,500.0,DRY,,FOG,Night,0.0,fog.gif
2025-08-30 22:32,14.5,15.3,0.0,5.31,1011.51,95.0,0.0,15.3,0.0,15.3,230.0,SW,1.8,1.4,500.0,DRY,,FOG,Night,0.0,fog.gif
2025-08-30 22:37,14.6,15.2,0.0,5.31,1011.62,96.0,0.0,15.2,0.0,15.2,155.0,SE,0.0,0.0,500.0,DRY,,FOG,Night,0.0,fog.gif
2025-08-30 22:42,14.5,15.1,0.0,5.31,1011.72,96.0,0.0,15.1,0.0,15.1,232.0,SW,1.8,1.1,500.0,DRY,,FOG,Night,0.0,fog.gif
2025-08-30 22:47,14.7,15.1,0.0,5.31,1011.72,97.0,0.0,15.1,0.0,15.1,263.0,W,0.0,0.0,500.0,DRY,,FOG,Night,0.0,fog.gif
2025-08-30 22:52,14.6,15.0,0.0,5.31,1011.89,97.0,0.0,15.0,0.0,15.0,223.0,SW,1.8,1.8,500.0,DRY,,FOG,Night,0.0,fog.gif
2025-08-30 22:57,14.6,15.0,0.0,5.31,1011.62,97.0,0.0,15.0,0.0,15.0,223.0,SW,3.6,2.2,500.0,DRY,,FOG,Night,0.0,fog.gif
2025-08-30 23:02,14.6,15.0,0.0,5.31,1011.79,97.0,0.0,15.0,0.0,15.0,220.0,SW,0.0,0.0,500.0,DRY,,FOG,Night,0.0,fog.gif
2025-08-30 23:07,14.6,15.0,0.0,5.31,1011.62,97.0,0.0,15.0,0.0,15.0,221.0,SW,0.0,0.0,500.0,DRY,,FOG,Night,0.0,fog.gif
2025-08-30 23:12,14.6,15.0,0.0,5.31,1011.89,97.0,0.0,15.0,0.0,15.0,221.0,SW,0.0,0.0,500.0,DRY,,FOG,Night,0.0,fog.gif
2025-08-30 23:17,14.6,15.0,0.0,5.31,1011.79,97.0,0.0,15.0,0.0,15.0,219.0,SW,1.8,0.4,500.0,DRY,,FOG,Night,0.0,fog.gif
2025-08-30 23:22,14.6,15.0,0.0,5.31,1012.09,97.0,0.0,15.0,0.0,15.0,111.0,E,1.8,1.8,500.0,DRY,,FOG,Night,0.0,fog.gif
2025-08-30 23:27,14.6,15.0,0.0,5.31,1011.89,97.0,0.0,15.0,0.0,15.0,69.0,E,1.8,1.4,500.0,DRY,,FOG,Night,0.0,fog.gif
2025-08-30 23:32,14.6,15.0,0.0,5.31,1011.79,97.0,0.0,15.0,0.0,15.0,63.0,NE,0.0,0.0,500.0,DRY,,FOG,Night,0.0,fog.gif
2025-08-30 23:37,14.6,15.0,0.0,5.31,1012.29,97.0,0.0,15.0,0.0,15.0,63.0,NE,0.0,0.0,500.0,DRY,,FOG,Night,0.0,fog.gif
2025-08-30 23:42,14.6,15.0,0.0,5.31,1012.29,97.0,0.0,15.0,0.0,15.0,64.0,NE,0.0,0.0,500.0,DRY,,FOG,Night,0.0,fog.gif
2025-08-30 23:47,14.6,15.0,0.0,5.31,1011.99,97.0,0.0,15.0,0.0,15.0,63.0,NE,1.8,1.1,500.0,DRY,,FOG,Night,0.0,fog.gif
2025-08-30 23:52,14.7,15.0,0.0,5.31,1012.19,98.0,0.0,15.0,0.0,15.0,64.0,NE,0.0,0.0,500.0,DRY,,FOG,Night,0.0,fog.gif
2025-08-30 23:57,14.7,15.0,0.0,5.31,1012.29,98.0,0.0,15.0,0.0,15.0,191.0,S,1.8,1.8,500.0,DRY,,FOG,Night,0.0,fog.gif
2025-08-31 00:02,14.7,15.0,0.0,0.0,1012.19,98.0,0.0,15.0,0.0,15.0,228.0,SW,0.0,0.0,500.0,DRY,,FOG,Night,0.0,fog.gif
2025-08-31 00:07,14.7,15.0,0.0,0.0,1012.19,98.0,0.0,15.0,0.0,15.0,217.0,SW,3.6,2.2,500.0,DRY,,FOG,Night,0.0,fog.gif
2025-08-31 00:12,14.6,14.9,0.0,0.0,1012.39,98.0,0.0,14.9,0.0,14.9,183.0,S,1.8,0.4,500.0,DRY,,FOG,Night,0.0,fog.gif
2025-08-31 00:17,14.6,14.9,0.0,0.0,1012.39,98.0,0.0,14.9,0.0,14.9,181.0,S,0.0,0.0,500.0,DRY,,FOG,Night,0.0,fog.gif
2025-08-31 00:22,14.5,14.8,0.0,0.0,1012.29,98.0,0.0,14.8,0.0,14.8,181.0,S,0.0,0.0,500.0,DRY,,FOG,Night,0.0,fog.gif
2025-08-31 00:27,14.5,14.8,0.0,0.0,1012.39,98.0,0.0,14.8,0.0,14.8,181.0,S,0.0,0.0,500.0,DRY,,FOG,Night,0.0,fog.gif
2025-08-31 00:32,14.5,14.8,0.0,0.0,1012.5,98.0,0.0,14.8,0.0,14.8,181.0,S,0.0,0.0,500.0,DRY,,FOG,Night,0.0,fog.gif
2025-08-31 00:37,14.4,14.7,0.0,0.0,1012.5,98.0,0.0,14.7,0.0,14.7,181.0,S,0.0,0.0,500.0,DRY,,FOG,Night,0.0,fog.gif
2025-08-31 00:42,14.5,14.8,0.0,0.0,1012.39,98.0,0.0,14.8,0.0,14.8,182.0,S,0.0,0.0,500.0,DRY,,FOG,Night,0.0,fog.gif
2025-08-31 00:47,14.4,14.7,0.0,0.0,1012.39,98.0,0.0,14.7,0.0,14.7,181.0,S,0.0,0.0,500.0,DRY,,FOG,Night,0.0,fog.gif
2025-08-31 00:52,14.3,14.6,0.0,0.0,1012.19,98.0,0.0,14.6,0.0,14.6,181.0,S,0.0,0.0,500.0,DRY,,FOG,Night,0.0,fog.gif
2025-08-31 00:57,14.4,14.7,0.0,0.0,1012.19,98.0,0.0,14.7,0.0,14.7,181.0,S,0.0,0.0,500.0,DRY,,FOG,Night,0.0,fog.gif
2025-08-31 01:02,14.2,14.5,0.0,0.0,1012.39,98.0,0.0,14.5,0.0,14.5,182.0,S,0.0,0.0,500.0,DRY,,FOG,Night,0.0,fog.gif
2025-08-31 01:07,14.3,14.5,0.0,0.0,1012.39,99.0,0.0,14.5,0.0,14.5,182.0,S,0.0,0.0,500.0,DRY,,FOG,Night,0.0,fog.gif
2025-08-31 01:12,14.2,14.4,0.0,0.0,1012.29,99.0,0.0,14.4,0.0,14.4,182.0,S,0.0,0.0,500.0,DRY,,FOG,Night,0.0,fog.gif
2025-08-31 01:17,14.2,14.4,0.0,0.0,1012.5,99.0,0.0,14.4,0.0,14.4,337.0,NW,0.0,0.0,500.0,DRY,,FOG,Night,0.0,fog.gif
2025-08-31 01:22,13.9,14.1,0.0,0.0,1012.6,99.0,0.0,14.1,0.0,14.1,338.0,N,0.0,0.0,500.0,DRY,,FOG,Night,0.0,fog.gif
2025-08-31 01:27,13.9,14.1,0.0,0.0,1012.5,99.0,0.0,14.1,0.0,14.1,338.0,N,0.0,0.0,500.0,DRY,,FOG,Night,0.0,fog.gif
2025-08-31 01:32,14.0,14.2,0.0,0.0,1012.39,99.0,0.0,14.2,0.0,14.2,338.0,N,0.0,0.0,500.0,DRY,,FOG,Night,0.0,fog.gif
2025-08-31 01:37,13.9,14.1,0.0,0.0,1012.39,99.0,0.0,14.1,0.0,14.1,338.0,N,0.0,0.0,500.0,DRY,,FOG,Night,0.0,fog.gif
2025-08-31 01:42,14.0,14.2,0.0,0.0,1012.39,99.0,0.0,14.2,0.0,14.2,338.0,N,0.0,0.0,500.0,DRY,,FOG,Night,0.0,fog.gif
2025-08-31 01:47,14.1,14.3,0.0,0.0,1012.39,99.0,0.0,14.3,0.0,14.3,337.0,NW,0.0,0.0,500.0,DRY,,FOG,Night,0.0,fog.gif
2025-08-31 01:52,14.0,14.2,0.0,0.0,1012.39,99.0,0.0,14.2,0.0,14.2,337.0,NW,0.0,0.0,500.0,DRY,,FOG,Night,0.0,fog.gif
2025-08-31 01:57,14.1,14.3,0.0,0.0,1012.5,99.0,0.0,14.3,0.0,14.3,309.0,NW,0.0,0.0,500.0,DRY,,FOG,Night,0.0,fog.gif
2025-08-31 02:02,13.8,14.0,0.0,0.0,1012.6,99.0,0.0,14.0,0.0,14.0,254.0,W,0.0,0.0,500.0,DRY,,FOG,Night,0.0,fog.gif
2025-08-31 02:07,13.7,13.9,0.0,0.0,1012.39,99.0,0.0,13.9,0.0,13.9,303.0,NW,0.0,0.0,500.0,DRY,,FOG,Night,0.0,fog.gif
2025-08-31 02:12,13.5,13.7,0.0,0.0,1012.6,99.0,0.0,13.7,0.0,13.7,254.0,W,0.0,0.0,500.0,DRY,,FOG,Night,0.0,fog.gif
2025-08-31 02:17,13.6,13.8,0.0,0.0,1012.5,99.0,0.0,13.8,0.0,13.8,309.0,NW,0.0,0.0,500.0,DRY,,FOG,Night,0.0,fog.gif
2025-08-31 02:22,13.4,13.6,0.0,0.0,1012.6,99.0,0.0,13.6,0.0,13.6,309.0,NW,0.0,0.0,500.0,DRY,,FOG,Night,0.0,fog.gif
2025-08-31 02:27,13.4,13.6,0.0,0.0,1012.7,99.0,0.0,13.6,0.0,13.6,274.0,W,0.0,0.0,500.0,DRY,,FOG,Night,0.0,fog.gif
2025-08-31 02:32,13.4,13.6,0.0,0.0,1012.5,99.0,0.0,13.6,0.0,13.6,274.0,W,0.0,0.0,500.0,DRY,,FOG,Night,0.0,fog.gif
2025-08-31 02:37,13.4,13.6,0.0,0.0,1012.8,99.0,0.0,13.6,0.0,13.6,274.0,W,0.0,0.0,500.0,DRY,,FOG,Night,0.0,fog.gif
2025-08-31 02:42,13.6,13.8,0.0,0.0,1012.7,99.0,0.0,13.8,0.0,13.8,274.0,W,0.0,0.0,500.0,DRY,,FOG,Night,0.0,fog.gif
2025-08-31 02:47,13.6,13.8,0.0,0.0,1012.6,99.0,0.0,13.8,0.0,13.8,272.0,W,0.0,0.0,500.0,DRY,,FOG,Night,0.0,fog.gif
2025-08-31 02:52,13.5,13.7,0.0,0.0,1012.8,99.0,0.0,13.7,0.0,13.7,274.0,W,0.0,0.0,500.0,DRY,,FOG,Night,0.0,fog.gif
2025-08-31 02:57,13.0,13.2,0.0,0.0,1012.8,99.0,0.0,13.2,0.0,13.2,274.0,W,0.0,0.0,500.0,DRY,,FOG,Night,0.0,fog.gif
2025-08-31 03:02,12.8,13.0,0.0,0.0,1012.8,99.0,0.0,13.0,0.0,13.0,330.0,NW,0.0,0.0,500.0,DRY,,FOG,Night,0.0,fog.gif
2025-08-31 03:12,12.8,13.0,0.0,0.0,1012.7,99.0,0.0,13.0,0.0,13.0,329.0,NW,0.0,0.0,500.0,DRY,,FOG,Night,0.0,fog.gif
2025-08-31 03:17,13.0,13.2,0.0,0.0,1012.9,99.0,0.0,13.2,0.0,13.2,330.0,NW,0.0,0.0,500.0,DRY,,FOG,Night,0.0,fog.gif
2025-08-31 03:27,13.1,13.3,0.0,0.0,1012.8,99.0,0.0,13.3,0.0,13.3,329.0,NW,0.0,0.0,500.0,DRY,,FOG,Night,0.0,fog.gif
2025-08-31 03:32,13.2,13.4,0.0,0.0,1012.9,99.0,0.0,13.4,0.0,13.4,330.0,NW,0.0,0.0,500.0,DRY,,FOG,Night,0.0,fog.gif
2025-08-31 03:37,13.5,13.7,0.0,0.0,1012.9,99.0,0.0,13.7,0.0,13.7,328.0,NW,0.0,0.0,500.0,DRY,,FOG,Night,0.0,fog.gif
2025-08-31 03:42,13.6,13.8,0.0,0.0,1012.7,99.0,0.0,13.8,0.0,13.8,276.0,W,0.0,0.0,500.0,DRY,,FOG,Night,0.0,fog.gif
2025-08-31 03:47,13.4,13.6,0.0,0.0,1012.9,99.0,0.0,13.6,0.0,13.6,261.0,W,0.0,0.0,500.0,DRY,,FOG,Night,0.0,fog.gif
2025-08-31 03:52,13.3,13.5,0.0,0.0,1012.8,99.0,0.0,13.5,0.0,13.5,244.0,SW,0.0,0.0,500.0,DRY,,FOG,Night,0.0,fog.gif
2025-08-31 03:57,13.2,13.4,0.0,0.0,1012.9,99.0,0.0,13.4,0.0,13.4,252.0,W,0.0,0.0,500.0,DRY,,FOG,Night,0.0,fog.gif
2025-08-31 04:02,13.1,13.3,0.0,0.0,1013.0,99.0,0.0,13.3,0.0,13.3,245.0,SW,0.0,0.0,500.0,DRY,,FOG,Night,0.0,fog.gif
2025-08-31 04:07,13.1,13.3,0.0,0.0,1012.9,99.0,0.0,13.3,0.0,13.3,245.0,SW,0.0,0.0,500.0,DRY,,FOG,Night,0.0,fog.gif
2025-08-31 04:12,13.1,13.3,0.0,0.0,1013.0,99.0,0.0,13.3,0.0,13.3,257.0,W,0.0,0.0,500.0,DRY,,FOG,Night,0.0,fog.gif
2025-08-31 04:17,13.1,13.3,0.0,0.0,1013.0,99.0,0.0,13.3,0.0,13.3,254.0,W,0.0,0.0,500.0,DRY,,FOG,Night,0.0,fog.gif
2025-08-31 04:22,13.0,13.2,0.0,0.0,1013.11,99.0,0.0,13.2,0.0,13.2,254.0,W,0.0,0.0,500.0,DRY,,FOG,Night,0.0,fog.gif
2025-08-31 04:27,13.1,13.3,0.0,0.0,1012.8,99.0,0.0,13.3,0.0,13.3,254.0,W,0.0,0.0,500.0,DRY,,FOG,Night,0.0,fog.gif
2025-08-31 04:32,13.1,13.3,0.0,0.0,1013.21,99.0,0.0,13.3,0.0,13.3,253.0,W,0.0,0.0,500.0,DRY,,FOG,Night,0.0,fog.gif
2025-08-31 04:37,13.1,13.3,0.0,0.0,1012.9,99.0,0.0,13.3,0.0,13.3,253.0,W,0.0,0.0,500.0,DRY,,FOG,Night,0.0,fog.gif
2025-08-31 04:42,13.1,13.3,0.0,0.0,1013.0,99.0,0.0,13.3,0.0,13.3,253.0,W,0.0,0.0,500.0,DRY,,FOG,Night,0.0,fog.gif
2025-08-31 04:47,13.1,13.3,0.0,0.0,1012.9,99.0,0.0,13.3,0.0,13.3,253.0,W,0.0,0.0,500.0,DRY,,FOG,Night,0.0,fog.gif
2025-08-31 04:52,13.1,13.3,0.0,0.0,1013.11,99.0,0.0,13.3,0.0,13.3,253.0,W,0.0,0.0,500.0,DRY,,FOG,Night,0.0,fog.gif
2025-08-31 05:02,13.1,13.3,0.0,0.0,1013.21,99.0,0.0,13.3,0.0,13.3,252.0,W,0.0,0.0,500.0,DRY,,FOG,Night,0.0,fog.gif
2025-08-31 05:06,13.1,13.3,0.0,0.0,1013.21,99.0,0.0,13.3,0.0,13.3,252.0,W,0.0,0.0,500.0,DRY,,FOG,Night,0.0,fog.gif
2025-08-31 05:07,13.0,13.2,0.0,0.0,1013.21,99.0,0.0,13.2,0.0,13.2,253.0,W,0.0,0.0,500.0,DRY,,FOG,Night,0.0,fog.gif
2025-08-31 05:12,12.9,13.1,0.0,0.0,1013.21,99.0,0.0,13.1,0.0,13.1,244.0,SW,0.0,0.0,500.0,DRY,,FOG,Night,0.0,fog.gif
2025-08-31 05:17,12.8,13.0,0.0,0.0,1013.21,99.0,0.0,13.0,0.0,13.0,265.0,W,0.0,0.0,500.0,DRY,,FOG,Night,0.0,fog.gif
2025-08-31 05:22,12.6,12.8,0.0,0.0,1013.21,99.0,0.0,12.8,0.0,12.8,240.0,SW,0.0,0.0,500.0,DRY,,FOG,Night,0.0,fog.gif
2025-08-31 05:27,12.7,12.9,0.0,0.0,1013.41,99.0,0.0,12.9,0.0,12.9,240.0,SW,0.0,0.0,500.0,DRY,,FOG,Night,0.0,fog.gif
2025-08-31 05:32,12.6,12.8,1.8,0.3,1013.41,99.0,0.0,12.8,0.0,12.8,226.0,SW,0.0,0.0,500.0,RAIN,LIGHT,FOG,Night,0.0,fog.gif
2025-08-31 05:37,12.6,12.8,0.0,0.3,1013.21,99.0,0.0,12.8,0.0,12.8,223.0,SW,0.0,0.0,500.0,RAIN,LIGHT,FOG,Night,0.0,fog.gif
2025-08-31 05:42,12.6,12.8,0.0,0.3,1013.41,99.0,0.0,12.8,0.0,12.8,237.0,SW,0.0,0.0,500.0,DRY,,FOG,Night,0.0,fog.gif
2025-08-31 05:47,12.6,12.8,0.0,0.3,1013.31,99.0,0.0,12.8,0.0,12.8,237.0,SW,0.0,0.0,500.0,DRY,,FOG,Night,0.0,fog.gif
2025-08-31 05:52,12.6,12.8,0.0,0.3,1013.31,99.0,0.0,12.8,0.0,12.8,236.0,SW,0.0,0.0,500.0,DRY,,FOG,Twilight,0.0,fog.gif
2025-08-31 05:57,12.7,12.9,0.0,0.3,1013.41,99.0,0.0,12.9,0.0,12.9,237.0,SW,0.0,0.0,500.0,DRY,,FOG,Twilight,0.0,fog.gif
2025-08-31 06:02,12.8,13.0,0.0,0.3,1013.41,99.0,0.1,13.0,0.0,13.0,237.0,SW,0.0,0.0,500.0,DRY,,FOG,Twilight,0.0,fog.gif
2025-08-31 06:07,12.9,13.1,0.0,0.3,1013.41,99.0,0.2,13.1,0.0,13.1,243.0,SW,0.0,0.0,500.0,DRY,,FOG,Twilight,0.0,fog.gif
2025-08-31 06:12,12.5,12.7,0.0,0.3,1013.41,99.0,0.5,12.7,0.0,12.7,247.0,SW,0.0,0.0,500.0,DRY,,FOG,Twilight,0.0,fog.gif
2025-08-31 06:17,12.4,12.6,0.0,0.3,1013.61,99.0,1.1,12.6,0.0,12.6,242.0,SW,0.0,0.0,500.0,DRY,,FOG,Twilight,0.0,fog.gif
2025-08-31 06:22,12.4,12.6,0.0,0.3,1013.61,99.0,1.7,12.6,0.0,12.6,290.0,W,0.0,0.0,500.0,DRY,,FOG,Twilight,0.0,fog.gif
2025-08-31 06:27,12.4,12.6,0.0,0.3,1013.61,99.0,2.8,12.6,0.0,12.6,289.0,W,0.0,0.0,500.0,DRY,,FOG,Mostly Sunny,4.919325751942514,fog.gif
2025-08-31 06:32,12.6,12.8,0.0,0.3,1013.72,99.0,4.1,12.8,0.0,12.8,289.0,W,0.0,0.0,500.0,DRY,,FOG,Mostly Cloudy,12.006039176719412,fog.gif
2025-08-31 06:36,12.6,12.8,0.0,0.3,1013.72,99.0,4.1,12.8,0.0,12.8,289.0,W,0.0,0.0,400.0,DRY,,FOG,Mostly Cloudy,17.895298002491145,fog.gif
2025-08-31 06:37,12.6,12.8,0.0,0.3,1013.82,99.0,5.6,12.8,0.0,12.8,290.0,W,0.0,0.0,400.0,DRY,,FOG,Mostly Cloudy,19.391771595572056,fog.gif
2025-08-31 06:42,12.6,12.8,0.0,0.3,1013.82,99.0,6.8,12.8,0.0,12.8,290.0,W,0.0,0.0,400.0,DRY,,FOG,Mostly Cloudy,26.98726499551221,fog.gif
2025-08-31 06:47,12.8,13.0,0.0,0.3,1013.82,99.0,10.4,13.0,0.0,13.0,246.0,SW,0.0,0.0,400.0,DRY,,FOG,Mostly Cloudy,34.725213209162156,fog.gif
2025-08-31 06:52,12.6,12.8,0.0,0.3,1013.82,99.0,14.1,12.8,0.0,12.8,257.0,W,0.0,0.0,400.0,DRY,,FOG,Mostly Cloudy,42.56113308663351,fog.gif
2025-08-31 06:57,12.4,12.6,0.0,0.3,1013.99,99.0,19.0,12.6,0.0,12.6,298.0,NW,0.0,0.0,400.0,DRY,,FOG,Partly Cloudy,50.47835250547227,fog.gif
2025-08-31 07:02,12.6,12.8,0.0,0.3,1013.99,99.0,16.7,12.8,0.0,12.8,298.0,NW,0.0,0.0,400.0,DRY,,FOG,Mostly Cloudy,58.44548163988093,fog.gif
2025-08-31 07:06,12.6,12.8,0.0,0.3,1013.99,99.0,16.7,12.8,0.0,12.8,298.0,NW,0.0,0.0,300.0,DRY,,FOG,Mostly Cloudy,64.84292989728208,fog.gif
2025-08-31 07:07,12.7,12.9,0.0,0.3,1013.88,99.0,23.7,12.9,0.0,12.9,298.0,NW,0.0,0.0,300.0,DRY,,FOG,Partly Cloudy,66.44480418540431,fog.gif
2025-08-31 07:12,12.6,12.8,0.0,0.3,1013.88,99.0,26.7,12.8,0.0,12.8,309.0,NW,0.0,0.0,300.0,DRY,,FOG,Partly Cloudy,74.4652084748963,fog.gif
2025-08-31 07:17,12.5,12.7,0.0,0.3,1014.19,99.0,33.3,12.7,0.0,12.7,311.0,NW,0.0,0.0,300.0,DRY,,FOG,Partly Cloudy,82.49747127380812,fog.gif
2025-08-31 07:22,12.4,12.6,0.0,0.3,1014.09,99.0,45.7,12.6,0.0,12.6,309.0,NW,0.0,0.0,300.0,DRY,,FOG,Partly Cloudy,90.53369255594272,fog.gif
2025-08-31 07:27,12.5,12.7,0.0,0.3,1014.09,99.0,55.3,12.7,0.0,12.7,307.0,NW,0.0,0.0,300.0,DRY,,FOG,Partly Cloudy,100.96665727696114,fog.gif
2025-08-31 07:32,12.7,12.9,0.0,0.3,1014.29,99.0,52.1,12.9,0.0,12.9,303.0,NW,0.0,0.0,300.0,DRY,,FOG,Partly Cloudy,114.08217603456718,fog.gif
2025-08-31 07:37,12.7,12.9,0.0,0.3,1014.29,99.0,52.5,12.9,0.0,12.9,240.0,SW,0.0,0.0,300.0,DRY,,FOG,Partly Cloudy,127.36147340618047,fog.gif
2025-08-31 07:42,12.5,12.7,0.0,0.3,1014.09,99.0,61.6,12.7,0.0,12.7,226.0,SW,0.0,0.0,300.0,DRY,,FOG,Partly Cloudy,140.7638461918726,fog.gif
2025-08-31 07:47,12.7,12.9,0.0,0.3,1014.39,99.0,55.2,12.9,0.0,12.9,216.0,SW,0.0,0.0,300.0,DRY,,FOG,Partly Cloudy,154.25548314027003,fog.gif
2025-08-31 07:52,12.7,12.9,0.0,0.3,1014.19,99.0,73.4,12.9,0.0,12.9,222.0,SW,0.0,0.0,300.0,DRY,,FOG,Partly Cloudy,167.80783041262723,fog.gif
2025-08-31 07:57,12.7,12.9,0.0,0.3,1014.19,99.0,92.0,12.9,0.0,12.9,348.0,N,0.0,0.0,300.0,DRY,,FOG,Partly Cloudy,181.3963958589341,fog.gif
2025-08-31 08:02,12.6,12.8,0.0,0.3,1014.39,99.0,100.8,12.8,0.0,12.8,353.0,N,0.0,0.0,300.0,DRY,,FOG,Partly Cloudy,194.99986361323664,fog.gif
2025-08-31 08:07,12.6,12.8,0.0,0.3,1014.29,99.0,106.0,12.8,1.0,12.8,26.0,NE,0.0,0.0,300.0,DRY,,FOG,Partly Cloudy,208.5994307238104,fog.gif
2025-08-31 08:12,12.8,13.0,0.0,0.3,1014.49,99.0,114.5,13.0,1.0,13.0,5.0,N,0.0,0.0,300.0,DRY,,FOG,Partly Cloudy,222.1783046375832,fog.gif
2025-08-31 08:17,13.1,13.3,0.0,0.3,1014.6,99.0,139.9,13.3,1.0,13.3,2.0,N,0.0,0.0,300.0,DRY,,FOG,Mostly Sunny,235.7213185181251,fog.gif
2025-08-31 08:22,12.9,13.1,0.0,0.3,1014.6,99.0,134.6,13.1,1.0,13.1,25.0,NE,0.0,0.0,300.0,DRY,,FOG,Partly Cloudy,249.21463393431242,fog.gif
2025-08-31 08:27,13.1,13.4,0.0,0.3,1014.7,98.0,154.9,13.4,1.0,13.4,23.0,NE,0.0,0.0,300.0,DRY,,FOG,Partly Cloudy,262.64550896104475,fog.gif
2025-08-31 08:32,13.0,13.3,0.0,0.3,1014.7,98.0,163.2,13.3,1.0,13.3,4.0,N,0.0,0.0,300.0,DRY,,FOG,Partly Cloudy,276.0021158176435,fog.gif
2025-08-31 08:36,13.0,13.3,0.0,0.3,1014.7,98.0,163.2,13.3,1.0,13.3,4.0,N,0.0,0.0,500.0,DRY,,FOG,Partly Cloudy,286.6264743514322,fog.gif
2025-08-31 08:37,13.3,13.7,0.0,0.3,1014.6,97.0,161.7,13.7,1.0,13.7,22.0,N,0.0,0.0,500.0,DRY,,FOG,Partly Cloudy,289.27339634941404,fog.gif
2025-08-31 08:42,13.2,14.0,0.0,0.3,1014.7,95.0,213.3,14.0,2.0,14.0,15.0,N,0.0,0.0,500.0,DRY,,FOG,Mostly Sunny,302.448946676623,fog.gif
2025-08-31 08:47,13.4,14.4,0.0,0.3,1014.6,94.0,210.3,14.4,2.0,14.4,16.0,N,0.0,0.0,500.0,DRY,,FOG,Mostly Sunny,315.5189245637742,fog.gif
2025-08-31 08:52,13.5,14.7,0.0,0.3,1014.7,92.0,256.1,14.7,2.0,14.7,48.0,NE,0.0,0.0,500.0,DRY,,FOG,Mostly Sunny,328.47397456111474,fog.gif
2025-08-31 08:57,13.7,15.5,0.0,0.3,1014.8,89.0,314.0,15.5,3.0,15.5,109.0,E,3.6,2.5,500.0,DRY,,FOG,Sunny,341.30516723031525,fog.gif
2025-08-31 09:02,13.9,15.5,0.0,0.3,1014.7,90.0,315.7,15.5,3.0,15.5,77.0,E,1.8,1.8,500.0,DRY,,FOG,Sunny,354.00394953291385,fog.gif
2025-08-31 09:07,13.8,15.2,0.0,0.3,1014.7,91.0,280.5,15.2,2.0,15.2,84.0,E,5.4,3.6,500.0,DRY,,FOG,Mostly Sunny,366.5621042042609,fog.gif
2025-08-31 09:12,13.4,15.2,0.0,0.3,1014.7,89.0,359.5,15.2,3.0,15.2,82.0,E,3.6,3.2,500.0,DRY,,FOG,Sunny,378.97171632756124,fog.gif
2025-08-31 09:17,13.5,15.1,0.0,0.3,1014.9,90.0,163.6,15.1,1.0,15.1,63.0,NE,3.6,3.6,500.0,DRY,,FOG,Mostly Cloudy,391.22514577981417,fog.gif
2025-08-31 09:22,13.5,14.9,0.0,0.3,1015.0,91.0,245.1,14.9,2.0,14.9,104.0,E,3.6,2.9,500.0,DRY,,FOG,Partly Cloudy,403.31500445237106,fog.gif
2025-08-31 09:27,13.7,15.7,0.0,0.3,1014.9,88.0,545.2,15.7,5.0,15.7,94.0,E,1.8,1.1,500.0,DRY,,FOG,Sunny,415.23413736897277,fog.gif
2025-08-31 09:32,13.8,16.7,0.0,0.3,1015.0,83.0,521.8,16.7,5.0,16.7,48.0,NE,1.8,1.1,500.0,DRY,,FOG,Sunny,426.97560704847933,fog.gif
2025-08-31 09:37,13.9,16.0,0.0,0.3,1015.1,87.0,511.1,16.0,4.0,16.0,67.0,NE,0.0,0.0,500.0,DRY,,FOG,Sunny,438.5326805077354,fog.gif
2025-08-31 09:42,13.8,16.5,0.0,0.3,1014.9,84.0,504.0,16.5,4.0,16.5,91.0,E,1.8,1.4,500.0,DRY,,FOG,Sunny,449.89881850180177,fog.gif
2025-08-31 09:47,13.4,16.5,0.0,0.3,1014.9,82.0,489.2,16.5,4.0,16.5,125.0,SE,1.8,1.8,500.0,DRY,,FOG,Sunny,461.06766658424675,fog.gif
2025-08-31 09:52,13.7,16.8,0.0,0.3,1015.0,82.0,494.4,16.8,4.0,16.8,97.0,E,1.8,0.7,500.0,DRY,,FOG,Sunny,472.0330477349764,fog.gif
2025-08-31 09:57,13.6,16.9,0.0,0.3,1015.0,81.0,484.0,16.9,4.0,16.9,121.0,SE,1.8,0.7,500.0,DRY,,FOG,Sunny,482.78895625946285,fog.gif
2025-08-31 10:02,14.3,17.4,0.0,0.3,1014.9,82.0,498.9,17.4,4.0,17.4,46.0,NE,1.8,1.1,500.0,DRY,,FOG,Sunny,493.3295527924966,fog.gif
2025-08-31 10:06,14.3,17.4,0.0,0.3,1014.9,82.0,498.9,17.4,4.0,17.4,46.0,NE,1.8,1.1,9999.0,DRY,,,Sunny,501.60318500136145,sunny.gif
2025-08-31 10:07,14.6,17.3,0.0,0.3,1015.0,84.0,354.4,17.3,3.0,17.3,86.0,E,1.8,1.8,9999.0,DRY,,,Mostly Sunny,503.64916022029985,mostly_sunny.gif
2025-08-31 10:12,14.0,17.5,0.0,0.3,1014.8,80.0,382.4,17.5,3.0,17.5,82.0,E,3.6,2.9,9999.0,DRY,,,Mostly Sunny,513.742260363153,mostly_sunny.gif
2025-08-31 10:17,13.9,17.8,0.0,0.3,1014.6,78.0,401.8,17.8,3.0,17.8,91.0,E,3.6,3.6,9999.0,DRY,,,Mostly Sunny,523.6034913377944,mostly_sunny.gif
2025-08-31 10:22,14.6,17.9,0.0,0.3,1014.8,81.0,415.3,17.9,4.0,17.9,57.0,NE,1.8,0.4,9999.0,DRY,,,Mostly Sunny,533.2276454513054,mostly_sunny.gif
2025-08-31 10:27,14.9,18.0,0.0,0.3,1014.9,82.0,418.3,18.0,4.0,18.0,119.0,SE,0.0,0.0,9999.0,DRY,,,Mostly Sunny,542.6096675912191,mostly_sunny.gif
2025-08-31 10:32,14.4,18.1,0.0,0.3,1014.7,79.0,436.4,18.1,4.0,18.1,108.0,E,7.2,5.4,9999.0,DRY,,,Mostly Sunny,551.7446539903156,mostly_sunny.gif
2025-08-31 10:37,14.2,17.9,0.0,0.3,1014.7,79.0,443.5,17.9,4.0,17.9,112.0,E,3.6,1.8,9999.0,DRY,,,Mostly Sunny,560.6278513549056,mostly_sunny.gif
2025-08-31 10:42,14.9,19.0,0.0,0.3,1014.6,77.0,447.7,19.0,4.0,19.0,104.0,E,7.2,5.0,9999.0,DRY,,,Mostly Sunny,569.2546562559103,mostly_sunny.gif
2025-08-31 10:47,14.9,18.6,0.0,0.3,1014.8,79.0,451.9,18.6,4.0,18.6,118.0,SE,7.2,7.2,9999.0,DRY,,,Mostly Sunny,577.6206147772796,mostly_sunny.gif
2025-08-31 10:52,14.9,18.6,0.0,0.3,1014.6,79.0,455.5,18.6,4.0,18.6,125.0,SE,3.6,2.9,9999.0,DRY,,,Mostly Sunny,585.7214223676584,mostly_sunny.gif
2025-08-31 10:57,14.3,18.4,0.0,0.3,1014.7,77.0,459.8,18.4,4.0,18.4,131.0,SE,7.2,6.1,9999.0,DRY,,,Mostly Sunny,593.5529238465475,mostly_sunny.gif
2025-08-31 11:02,14.8,18.9,0.0,0.3,1014.7,77.0,462.2,18.9,4.0,18.9,88.0,E,5.4,3.6,9999.0,DRY,,,Mostly Sunny,601.1111135758143,mostly_sunny.gif
2025-08-31 11:07,14.5,19.0,0.0,0.3,1014.6,75.0,466.4,19.0,4.0,19.0,155.0,SE,11.2,10.4,9999.0,DRY,,,Mostly Sunny,608.3921357225843,mostly_sunny.gif
2025-08-31 11:12,15.9,19.2,0.0,0.3,1014.7,81.0,471.5,19.2,4.0,19.2,121.0,SE,5.4,5.4,9999.0,DRY,,,Mostly Sunny,615.3922846431191,mostly_sunny.gif
2025-08-31 11:17,15.4,19.3,0.0,0.3,1014.49,78.0,474.8,19.3,4.0,19.3,134.0,SE,7.2,5.4,9999.0,DRY,,,Mostly Sunny,622.1080053175737,mostly_sunny.gif
2025-08-31 11:22,15.1,19.6,0.0,0.3,1014.39,75.0,479.7,19.6,4.0,19.6,49.0,NE,5.4,4.7,9999.0,DRY,,,Mostly Sunny,628.5358938707597,mostly_sunny.gif
2025-08-31 11:27,15.3,19.7,0.0,0.3,1014.49,76.0,482.7,19.7,4.0,19.7,85.0,E,13.0,9.4,9999.0,DRY,,,Mostly Sunny,634.6726981146338,mostly_sunny.gif
2025-08-31 11:32,15.1,19.6,0.0,0.3,1014.49,75.0,486.5,19.6,4.0,19.6,115.0,SE,11.2,7.6,9999.0,DRY,,,Mostly Sunny,640.5153181402122,mostly_sunny.gif
2025-08-31 11:37,16.2,19.9,0.0,0.3,1014.29,79.0,490.4,19.9,4.0,19.9,138.0,SE,9.4,7.2,9999.0,DRY,,,Mostly Sunny,646.0608069318877,mostly_sunny.gif
2025-08-31 11:42,15.8,20.0,0.0,0.3,1014.49,77.0,493.1,20.0,4.0,20.0,71.0,E,9.4,4.7,9999.0,DRY,,,Mostly Sunny,651.3063709779642,mostly_sunny.gif
2025-08-31 11:47,16.0,20.4,0.0,0.3,1014.39,76.0,497.4,20.4,4.0,20.4,86.0,E,7.2,5.4,9999.0,DRY,,,Mostly Sunny,656.2493709097953,mostly_sunny.gif
2025-08-31 11:52,16.0,20.4,0.0,0.3,1014.39,76.0,501.4,20.4,4.0,20.4,95.0,E,9.4,7.6,9999.0,DRY,,,Mostly Sunny,660.887322111014,mostly_sunny.gif
2025-08-31 11:57,17.2,20.9,0.0,0.3,1014.39,79.0,505.1,20.9,4.0,20.9,126.0,SE,7.2,5.4,9999.0,DRY,,,Mostly Sunny,665.2178953430289,mostly_sunny.gif
