timestamp,imedvode1_dewpoint,imedvode1_heat_index,imedvode1_precipitation_rate,imedvode1_precipitation_today,imedvode1_pressure,imedvode1_relative_humidity,imedvode1_solar_radiation,imedvode1_temperature,imedvode1_uv_index,imedvode1_wind_chill,imedvode1_wind_direction_degrees,windCardinals,imedvode1_wind_gust,imedvode1_wind_speed,condition1,condition2,visibility,condition3,sky,max_solar_radiation,image_name
2025-08-04 15:11,11.1,23.7,0.0,0.0,1018.8,44.0,343.2,24.1,3.0,24.1,145.0,SE,7.2,7.9,DRY,,9999.0,,Partly Cloudy,683.2537739248587,partly_cloudy.gif
2025-08-04 15:16,11.7,23.7,0.0,0.0,1018.59,46.0,288.6,24.0,2.0,24.0,121.0,SE,7.2,10.4,DRY,,9999.0,,Mostly Cloudy,675.8202951412455,mostly_cloudy.gif
2025-08-04 15:21,11.3,23.5,0.0,0.0,1018.39,45.0,264.3,23.9,2.0,23.9,60.0,NE,7.2,5.0,DRY,,9999.0,,Mostly Cloudy,668.1227698149034,mostly_cloudy.gif
2025-08-04 15:26,12.7,23.9,0.0,0.0,1018.49,49.0,224.5,24.1,2.0,24.1,79.0,E,7.2,5.4,DRY,,9999.0,,Cloudy,660.1650317040909,cloudy.gif
2025-08-04 15:31,12.3,23.6,0.0,0.0,1018.49,48.0,197.9,23.9,1.0,23.9,129.0,SE,5.4,5.4,DRY,,9999.0,,Cloudy,651.9510512429384,cloudy.gif
2025-08-04 15:36,11.6,23.5,0.0,0.0,1018.39,46.0,187.3,23.9,1.0,23.9,111.0,E,1.8,1.4,DRY,,9999.0,,Cloudy,643.4849345710924,cloudy.gif
2025-08-04 15:41,12.1,23.4,0.0,0.0,1018.49,48.0,191.0,23.7,1.0,23.7,112.0,E,7.2,5.4,DRY,,9999.0,,Cloudy,634.7709226132697,cloudy.gif
2025-08-04 15:46,11.7,23.4,0.0,0.0,1018.29,47.0,167.8,23.7,1.0,23.7,121.0,SE,11.2,9.7,DRY,,9999.0,,Cloudy,625.8133901831528,cloudy.gif
2025-08-04 15:51,12.3,23.3,0.0,0.0,1018.29,49.0,128.6,23.6,1.0,23.6,129.0,SE,7.2,5.4,DRY,,9999.0,,Cloudy,616.616845154534,cloudy.gif
2025-08-04 15:56,12.9,23.0,0.0,0.0,1018.49,52.0,110.5,23.3,1.0,23.3,156.0,SE,9.4,8.3,DRY,,9999.0,,Cloudy,607.1859277028009,cloudy.gif
2025-08-04 16:01,12.8,23.0,0.0,0.0,1018.69,52.0,116.8,23.2,1.0,23.2,90.0,E,5.4,5.4,DRY,,9999.0,,Cloudy,597.525409620878,cloudy.gif
2025-08-04 16:06,12.8,23.0,0.0,0.0,1018.49,52.0,126.6,23.2,1.0,23.2,85.0,E,5.4,4.3,DRY,,9999.0,,Cloudy,587.6401937599106,cloudy.gif
2025-08-04 16:11,13.2,23.0,0.0,0.0,1018.59,53.0,128.2,23.3,1.0,23.3,120.0,SE,9.4,7.2,DRY,,9999.0,,Cloudy,577.5353135780014,cloudy.gif
2025-08-04 16:16,13.4,23.0,0.0,0.0,1018.59,54.0,107.2,23.2,1.0,23.2,91.0,E,5.4,5.4,DRY,,9999.0,,Cloudy,567.2159328622727,cloudy.gif
2025-08-04 16:21,13.5,22.8,0.0,0.0,1018.59,55.0,85.1,23.0,0.0,23.0,97.0,E,7.2,5.0,DRY,,9999.0,,Cloudy,556.6873456128645,cloudy.gif
2025-08-04 16:26,13.6,22.6,0.0,0.0,1018.69,56.0,69.5,22.8,0.0,22.8,83.0,E,3.6,3.6,DRY,,9999.0,,Cloudy,545.954976162888,cloudy.gif
2025-08-04 16:31,13.8,22.5,0.0,0.0,1018.59,57.0,58.2,22.7,0.0,22.7,119.0,SE,5.4,4.3,DRY,,9999.0,,Cloudy,535.0243795334404,cloudy.gif
2025-08-04 16:36,13.4,22.4,0.0,0.0,1018.9,56.0,57.0,22.6,0.0,22.6,91.0,E,3.6,3.6,DRY,,9999.0,,Cloudy,523.9012421005551,cloudy.gif
2025-08-04 16:41,13.9,22.4,0.0,0.0,1018.69,58.0,74.4,22.6,0.0,22.6,105.0,E,3.6,2.2,DRY,,9999.0,,Cloudy,512.5913826138503,cloudy.gif
2025-08-04 16:46,13.9,22.4,0.0,0.0,1018.59,58.0,88.1,22.6,0.0,22.6,100.0,E,3.6,2.2,DRY,,9999.0,,Cloudy,501.10075361446496,cloudy.gif
2025-08-04 16:51,14.5,22.5,0.0,0.0,1018.8,60.0,86.1,22.6,0.0,22.6,137.0,SE,1.8,1.8,DRY,,9999.0,,Cloudy,489.4354433571862,cloudy.gif
2025-08-04 16:56,15.7,22.6,0.0,0.0,1018.59,65.0,87.1,22.6,0.0,22.6,123.0,SE,0.0,0.0,DRY,,9999.0,,Cloudy,477.60167827995474,cloudy.gif
2025-08-04 17:01,15.7,22.6,0.0,0.0,1018.8,65.0,110.4,22.6,1.0,22.6,160.0,S,1.8,1.8,DRY,,9999.0,,Cloudy,465.60582616308,cloudy.gif
2025-08-04 17:06,16.1,22.6,0.0,0.0,1019.0,67.0,126.6,22.5,1.0,22.5,177.0,S,1.8,1.4,DRY,,9999.0,,Cloudy,453.4544000534878,cloudy.gif
2025-08-04 17:11,16.0,22.4,0.0,0.0,1018.9,67.0,138.2,22.4,1.0,22.4,170.0,S,1.8,1.1,DRY,,9999.0,,Cloudy,441.1540631377995,cloudy.gif
2025-08-04 17:16,15.1,22.5,0.0,0.0,1018.9,63.0,166.0,22.5,1.0,22.5,175.0,S,0.0,0.0,DRY,,9999.0,,Mostly Cloudy,428.7116346903912,mostly_cloudy.gif
2025-08-04 17:21,16.3,23.1,0.0,0.0,1018.9,66.0,196.1,23.0,1.0,23.0,162.0,S,1.8,1.8,DRY,,9999.0,,Partly Cloudy,416.1340973321872,partly_cloudy.gif
2025-08-04 17:26,15.8,22.9,0.0,0.0,1018.8,64.0,156.6,22.9,1.0,22.9,222.0,SW,0.0,0.0,DRY,,9999.0,,Mostly Cloudy,403.42860583012373,mostly_cloudy.gif
2025-08-04 17:31,14.9,23.0,0.0,0.0,1019.1,60.0,138.2,23.1,1.0,23.1,137.0,SE,1.8,1.4,DRY,,9999.0,,Mostly Cloudy,390.60249771768775,mostly_cloudy.gif
2025-08-04 17:36,14.0,22.7,0.0,0.0,1019.1,57.0,102.0,22.9,0.0,22.9,77.0,E,1.8,0.7,DRY,,9999.0,,Cloudy,377.6633061299263,cloudy.gif
2025-08-04 17:41,13.0,22.5,0.0,0.0,1019.0,54.0,89.1,22.8,0.0,22.8,129.0,SE,5.4,4.0,DRY,,9999.0,,Cloudy,364.6187752478931,cloudy.gif
2025-08-04 17:46,13.3,22.5,0.0,0.0,1019.0,55.0,84.2,22.8,0.0,22.8,100.0,E,5.4,5.4,DRY,,9999.0,,Cloudy,351.4768789359766,cloudy.gif
2025-08-04 17:51,14.0,22.6,0.0,0.0,1019.0,58.0,82.3,22.7,0.0,22.7,97.0,E,3.6,3.6,DRY,,9999.0,,Cloudy,338.2458431925608,cloudy.gif
2025-08-04 17:56,14.2,22.5,0.0,0.0,1018.9,59.0,85.4,22.6,0.0,22.6,64.0,NE,3.6,2.9,DRY,,9999.0,,Cloudy,324.934173286232,cloudy.gif
2025-08-04 18:01,14.6,22.4,0.0,0.0,1019.2,61.0,83.1,22.5,0.0,22.5,75.0,E,1.8,1.1,DRY,,9999.0,,Cloudy,311.55068656667675,cloudy.gif
2025-08-04 18:06,15.0,22.3,0.0,0.0,1019.3,63.0,87.1,22.4,0.0,22.4,75.0,E,0.0,0.0,DRY,,9999.0,,Cloudy,298.1045522856311,cloudy.gif
2025-08-04 18:11,16.3,22.6,0.0,0.0,1019.1,68.0,85.6,22.5,0.0,22.5,75.0,E,0.0,0.0,DRY,,9999.0,,Cloudy,284.605340058295,cloudy.gif
2025-08-04 18:16,15.9,22.2,0.0,0.0,1019.3,68.0,84.8,22.1,0.0,22.1,181.0,S,1.8,1.8,DRY,,9999.0,,Cloudy,271.06307904597224,cloudy.gif
2025-08-04 18:21,16.4,22.0,0.0,0.0,1019.4,71.0,69.5,21.9,0.0,21.9,181.0,S,1.8,0.4,DRY,,9999.0,,Cloudy,257.48833058579004,cloudy.gif
2025-08-04 18:26,15.7,21.9,0.0,0.0,1019.4,68.0,60.0,21.9,0.0,21.9,187.0,S,1.8,1.8,DRY,,9999.0,,Mostly Cloudy,243.89227769854398,mostly_cloudy.gif
2025-08-04 18:31,15.8,21.8,0.0,0.0,1019.2,69.0,60.5,21.7,0.0,21.7,197.0,S,1.8,1.8,DRY,,9999.0,,Mostly Cloudy,230.28683605176604,mostly_cloudy.gif
2025-08-04 18:36,16.7,21.9,0.0,0.0,1019.3,73.0,62.4,21.7,0.0,21.7,161.0,S,0.0,0.0,DRY,,9999.0,,Mostly Cloudy,216.68479228148203,mostly_cloudy.gif
2025-08-04 18:41,16.2,21.8,0.0,0.0,1019.2,71.0,71.7,21.7,0.0,21.7,156.0,SE,1.8,0.4,DRY,,9999.0,,Partly Cloudy,203.09997760497785,partly_cloudy.gif
2025-08-04 18:46,16.0,21.6,0.0,0.0,1019.2,71.0,78.4,21.5,0.0,21.5,228.0,SW,3.6,2.5,DRY,,9999.0,,Partly Cloudy,189.54748721957006,partly_cloudy.gif
2025-08-04 18:51,16.1,21.5,0.0,0.0,1019.0,72.0,72.9,21.4,0.0,21.4,228.0,SW,1.8,1.4,DRY,,9999.0,,Partly Cloudy,176.04395974913055,partly_cloudy.gif
2025-08-04 18:56,16.4,21.5,0.0,0.0,1019.2,73.0,62.0,21.4,0.0,21.4,145.0,SE,0.0,0.0,DRY,,9999.0,,Partly Cloudy,162.60793610337495,partly_cloudy.gif
2025-08-04 19:01,15.8,21.3,0.0,0.0,1019.2,71.0,53.9,21.3,0.0,21.3,157.0,SE,1.8,1.8,DRY,,9999.0,,Partly Cloudy,149.26032440053456,partly_cloudy.gif
2025-08-04 19:06,15.8,21.2,0.0,0.0,1019.4,72.0,45.1,21.1,0.0,21.1,215.0,SW,1.8,1.8,DRY,,9999.0,,Mostly Cloudy,136.02500804649657,mostly_cloudy.gif
2025-08-04 19:11,15.8,21.2,0.0,0.0,1019.3,72.0,42.0,21.1,0.0,21.1,144.0,SE,0.0,0.0,DRY,,9999.0,,Mostly Cloudy,122.92964892216716,mostly_cloudy.gif
2025-08-04 19:16,15.8,21.0,0.0,0.0,1019.51,72.0,43.7,21.0,0.0,21.0,146.0,SE,0.0,0.0,DRY,,9999.0,,Partly Cloudy,110.00675936471228,partly_cloudy.gif
2025-08-04 19:21,16.0,21.0,0.0,0.0,1019.4,73.0,41.1,21.0,0.0,21.0,154.0,SE,0.0,0.0,DRY,,9999.0,,Partly Cloudy,97.29514800756891,partly_cloudy.gif
2025-08-04 19:26,15.8,21.0,0.0,0.0,1019.4,72.0,36.0,21.0,0.0,21.0,154.0,SE,0.0,0.0,DRY,,9999.0,,Partly Cloudy,88.50077707551262,partly_cloudy.gif
2025-08-04 19:31,15.7,20.9,0.0,0.0,1019.4,72.0,30.1,20.9,0.0,20.9,199.0,S,1.8,1.1,DRY,,9999.0,,Partly Cloudy,80.7295185543735,partly_cloudy.gif
2025-08-04 19:36,16.1,20.9,0.0,0.0,1019.4,74.0,24.1,20.9,0.0,20.9,198.0,S,0.0,0.0,DRY,,9999.0,,Mostly Cloudy,72.9893551159962,mostly_cloudy.gif
2025-08-04 19:41,15.9,20.7,0.0,0.0,1019.4,74.0,19.9,20.7,0.0,20.7,198.0,S,0.0,0.0,DRY,,9999.0,,Mostly Cloudy,65.28765675824002,mostly_cloudy.gif
2025-08-04 19:46,16.1,20.5,0.0,0.0,1019.51,76.0,18.7,20.5,0.0,20.5,198.0,S,0.0,0.0,DRY,,9999.0,,Mostly Cloudy,57.63288677427908,mostly_cloudy.gif
2025-08-04 19:51,15.8,20.4,0.0,0.0,1019.61,75.0,16.6,20.4,0.0,20.4,199.0,S,1.8,1.4,DRY,,9999.0,,Mostly Cloudy,50.03506986292084,mostly_cloudy.gif
2025-08-04 19:56,15.7,20.2,0.0,0.0,1019.51,75.0,14.9,20.2,0.0,20.2,223.0,SW,1.8,0.4,DRY,,9999.0,,Partly Cloudy,42.51035283545473,partly_cloudy.gif
2025-08-04 20:01,15.7,20.2,0.0,0.0,1019.81,75.0,11.7,20.2,0.0,20.2,223.0,SW,0.0,0.0,DRY,,9999.0,,Mostly Cloudy,35.08610722634469,mostly_cloudy.gif
2025-08-04 20:06,15.4,20.1,0.0,0.0,1019.71,74.0,9.8,20.1,0.0,20.1,224.0,SW,1.8,1.8,DRY,,9999.0,,Partly Cloudy,27.774869332674804,partly_cloudy.gif
2025-08-04 20:11,15.5,20.0,0.0,0.0,1019.91,75.0,6.0,20.0,0.0,20.0,223.0,SW,0.0,0.0,DRY,,9999.0,,Mostly Cloudy,20.61190725656527,mostly_cloudy.gif
2025-08-04 20:16,15.7,19.9,0.0,0.0,1019.81,77.0,4.9,19.9,0.0,19.9,223.0,SW,0.0,0.0,DRY,,9999.0,,Partly Cloudy,13.649549958016639,partly_cloudy.gif
2025-08-04 20:21,15.6,19.8,0.0,0.0,1020.01,77.0,3.4,19.8,0.0,19.8,223.0,SW,0.0,0.0,DRY,,9999.0,,Partly Cloudy,6.955862772257207,partly_cloudy.gif
2025-08-04 20:26,15.7,19.6,0.0,0.0,1020.01,78.0,2.3,19.6,0.0,19.6,223.0,SW,0.0,0.0,DRY,,9999.0,,Cloudy,0.6132286287209882,cloudy.gif
2025-08-04 20:31,15.6,19.5,0.0,0.0,1020.01,78.0,1.3,19.5,0.0,19.5,223.0,SW,0.0,0.0,DRY,,9999.0,,Twilight,0.0,cloudy.gif
2025-08-04 20:36,15.7,19.4,0.0,0.0,1020.12,79.0,0.7,19.4,0.0,19.4,223.0,SW,0.0,0.0,DRY,,9999.0,,Twilight,0.0,cloudy.gif
2025-08-04 20:41,15.6,19.3,0.0,0.0,1020.22,79.0,0.4,19.3,0.0,19.3,243.0,SW,3.6,2.9,DRY,,9999.0,,Twilight,0.0,cloudy.gif
2025-08-04 20:46,15.8,19.1,0.0,0.0,1020.29,81.0,0.2,19.1,0.0,19.1,220.0,SW,3.6,2.2,DRY,,9999.0,,Twilight,0.0,cloudy.gif
2025-08-04 20:51,15.8,18.9,0.0,0.0,1020.22,82.0,0.1,18.9,0.0,18.9,201.0,S,1.8,1.1,DRY,,9999.0,,Twilight,0.0,cloudy.gif
2025-08-04 20:56,15.7,18.8,0.0,0.0,1020.22,82.0,0.0,18.8,0.0,18.8,229.0,SW,3.6,2.2,DRY,,9999.0,,Twilight,0.0,cloudy.gif
2025-08-04 21:01,15.6,18.7,0.0,0.0,1020.12,82.0,0.0,18.7,0.0,18.7,232.0,SW,3.6,3.6,DRY,,9999.0,,Twilight,0.0,cloudy.gif
2025-08-04 21:06,15.6,18.7,0.0,0.0,1020.39,82.0,0.0,18.7,0.0,18.7,222.0,SW,3.6,2.2,DRY,,9999.0,,Night,0.0,night.gif
2025-08-04 21:11,15.5,18.6,0.0,0.0,1020.39,82.0,0.0,18.6,0.0,18.6,183.0,S,3.6,2.2,DRY,,9999.0,,Night,0.0,night.gif
2025-08-04 21:16,15.4,18.5,0.0,0.0,1020.59,82.0,0.0,18.5,0.0,18.5,253.0,W,3.6,2.9,DRY,,9999.0,,Night,0.0,night.gif
2025-08-04 21:21,15.4,18.3,0.0,0.0,1020.49,83.0,0.0,18.3,0.0,18.3,229.0,SW,3.6,2.9,DRY,,9999.0,,Night,0.0,night.gif
2025-08-04 21:26,15.3,18.2,0.0,0.0,1020.69,83.0,0.0,18.2,0.0,18.2,233.0,SW,5.4,4.0,DRY,,9999.0,,Night,0.0,night.gif
2025-08-04 21:31,15.3,18.2,0.0,0.0,1020.59,83.0,0.0,18.2,0.0,18.2,211.0,SW,1.8,1.4,DRY,,9999.0,,Night,0.0,night.gif
2025-08-04 21:36,15.3,18.2,0.0,0.0,1020.59,83.0,0.0,18.2,0.0,18.2,243.0,SW,3.6,2.5,DRY,,9999.0,,Night,0.0,night.gif
2025-08-04 21:41,15.4,18.1,0.0,0.0,1020.69,84.0,0.0,18.1,0.0,18.1,234.0,SW,0.0,0.0,DRY,,9999.0,,Night,0.0,night.gif
2025-08-04 21:46,15.2,17.9,0.0,0.0,1020.59,84.0,0.0,17.9,0.0,17.9,265.0,W,1.8,0.4,DRY,,9999.0,,Night,0.0,night.gif
2025-08-04 21:51,15.2,17.9,0.0,0.0,1020.79,84.0,0.0,17.9,0.0,17.9,247.0,SW,1.8,1.4,DRY,,9999.0,,Night,0.0,night.gif
2025-08-04 21:56,15.2,17.8,0.0,0.0,1020.69,85.0,0.0,17.8,0.0,17.8,251.0,W,0.0,0.0,DRY,,9999.0,,Night,0.0,night.gif
2025-08-04 22:01,15.1,17.5,0.0,0.0,1020.89,86.0,0.0,17.5,0.0,17.5,251.0,W,1.8,1.8,DRY,,9999.0,,Night,0.0,night.gif
2025-08-04 22:06,15.1,17.6,0.0,0.0,1020.89,85.0,0.0,17.6,0.0,17.6,246.0,SW,1.8,1.4,DRY,,9999.0,,Night,0.0,night.gif
2025-08-04 22:11,15.2,17.6,0.0,0.0,1020.89,86.0,0.0,17.6,0.0,17.6,225.0,SW,3.6,2.2,DRY,,9999.0,,Night,0.0,night.gif
2025-08-04 22:16,15.2,17.4,0.0,0.0,1020.89,87.0,0.0,17.4,0.0,17.4,228.0,SW,1.8,1.8,DRY,,9999.0,,Night,0.0,night.gif
2025-08-04 22:21,15.1,17.3,0.0,0.0,1020.89,87.0,0.0,17.3,0.0,17.3,231.0,SW,1.8,1.4,DRY,,9999.0,,Night,0.0,night.gif
2025-08-04 22:26,14.9,17.2,0.0,0.0,1021.0,86.0,0.0,17.2,0.0,17.2,231.0,SW,1.8,1.8,DRY,,9999.0,,Night,0.0,night.gif
2025-08-04 22:31,15.0,17.3,0.0,0.0,1021.1,86.0,0.0,17.3,0.0,17.3,231.0,SW,0.0,0.0,DRY,,9999.0,,Night,0.0,night.gif
2025-08-04 22:36,14.9,17.2,0.0,0.0,1021.3,86.0,0.0,17.2,0.0,17.2,240.0,SW,3.6,2.2,DRY,,9999.0,,Night,0.0,night.gif
2025-08-04 22:41,14.6,17.3,0.0,0.0,1021.1,84.0,0.0,17.3,0.0,17.3,221.0,SW,1.8,1.4,DRY,,9999.0,,Night,0.0,night.gif
2025-08-04 22:46,14.5,17.2,0.0,0.0,1021.0,84.0,0.0,17.2,0.0,17.2,229.0,SW,0.0,0.0,DRY,,9999.0,,Night,0.0,night.gif
2025-08-04 22:51,14.4,17.1,0.0,0.0,1021.1,84.0,0.0,17.1,0.0,17.1,229.0,SW,1.8,1.4,DRY,,9999.0,,Night,0.0,night.gif
2025-08-04 22:56,14.6,16.9,0.0,0.0,1021.1,86.0,0.0,16.9,0.0,16.9,239.0,SW,1.8,1.8,DRY,,9999.0,,Night,0.0,night.gif
2025-08-04 23:01,14.4,16.9,0.0,0.0,1020.89,85.0,0.0,16.9,0.0,16.9,233.0,SW,1.8,0.7,DRY,,9999.0,,Night,0.0,night.gif
2025-08-04 23:06,14.3,16.8,0.0,0.0,1021.1,85.0,0.0,16.8,0.0,16.8,288.0,W,0.0,0.0,DRY,,9999.0,,Night,0.0,night.gif
2025-08-04 23:11,14.2,16.9,0.0,0.0,1021.1,84.0,0.0,16.9,0.0,16.9,236.0,SW,1.8,1.4,DRY,,9999.0,,Night,0.0,night.gif
2025-08-04 23:16,14.3,16.8,0.0,0.0,1021.0,85.0,0.0,16.8,0.0,16.8,230.0,SW,1.8,1.8,DRY,,9999.0,,Night,0.0,night.gif
2025-08-04 23:21,14.4,16.7,0.0,0.0,1021.0,86.0,0.0,16.7,0.0,16.7,237.0,SW,1.8,1.4,DRY,,9999.0,,Night,0.0,night.gif
2025-08-04 23:26,14.5,16.6,0.0,0.0,1021.3,87.0,0.0,16.6,0.0,16.6,285.0,W,1.8,0.7,DRY,,9999.0,,Night,0.0,night.gif
2025-08-04 23:31,14.3,16.6,0.0,0.0,1021.4,86.0,0.0,16.6,0.0,16.6,196.0,S,0.0,0.0,DRY,,9999.0,,Night,0.0,night.gif
2025-08-04 23:36,14.3,16.6,0.0,0.0,1021.2,86.0,0.0,16.6,0.0,16.6,239.0,SW,0.0,0.0,DRY,,9999.0,,Night,0.0,night.gif
2025-08-04 23:41,14.4,16.4,0.0,0.0,1021.1,88.0,0.0,16.4,0.0,16.4,238.0,SW,0.0,0.0,DRY,,9999.0,,Night,0.0,night.gif
2025-08-04 23:46,14.4,16.2,0.0,0.0,1021.3,89.0,0.0,16.2,0.0,16.2,233.0,SW,3.6,3.6,DRY,,9999.0,,Night,0.0,night.gif
2025-08-04 23:51,14.3,15.9,0.0,0.0,1021.3,90.0,0.0,15.9,0.0,15.9,223.0,SW,0.0,0.0,DRY,,9999.0,,Night,0.0,night.gif
2025-08-04 23:56,14.4,15.8,0.0,0.0,1021.2,91.0,0.0,15.8,0.0,15.8,237.0,SW,1.8,1.1,DRY,,9999.0,,Night,0.0,night.gif
2025-08-05 00:01,14.5,15.8,0.0,0.0,1021.2,92.0,0.0,15.8,0.0,15.8,244.0,SW,3.6,1.8,DRY,,9999.0,,Night,0.0,night.gif
2025-08-05 00:06,14.4,15.6,0.0,0.0,1021.2,93.0,0.0,15.6,0.0,15.6,242.0,SW,1.8,1.8,DRY,,9999.0,,Night,0.0,night.gif
2025-08-05 00:11,14.4,15.6,0.0,0.0,1021.2,93.0,0.0,15.6,0.0,15.6,236.0,SW,0.0,0.0,DRY,,9999.0,,Night,0.0,night.gif
2025-08-05 00:16,14.3,15.5,0.0,0.0,1021.2,93.0,0.0,15.5,0.0,15.5,236.0,SW,0.0,0.0,DRY,,9999.0,,Night,0.0,night.gif
2025-08-05 00:21,14.2,15.2,0.0,0.0,1021.2,94.0,0.0,15.2,0.0,15.2,236.0,SW,0.0,0.0,DRY,,9999.0,,Night,0.0,night.gif
2025-08-05 00:26,14.3,15.1,0.0,0.0,1021.1,95.0,0.0,15.1,0.0,15.1,237.0,SW,1.8,1.4,DRY,,9999.0,,Night,0.0,night.gif
2025-08-05 00:31,13.9,14.7,0.0,0.0,1021.2,95.0,0.0,14.7,0.0,14.7,236.0,SW,0.0,0.0,DRY,,9999.0,,Night,0.0,night.gif
2025-08-05 00:36,14.0,14.8,0.0,0.0,1021.1,95.0,0.0,14.8,0.0,14.8,237.0,SW,1.8,1.8,DRY,,9999.0,,Night,0.0,night.gif
2025-08-05 00:41,14.3,14.9,0.0,0.0,1021.3,96.0,0.0,14.9,0.0,14.9,236.0,SW,0.0,0.0,DRY,,9999.0,,Night,0.0,night.gif
2025-08-05 00:46,14.1,14.7,0.0,0.0,1021.1,96.0,0.0,14.7,0.0,14.7,236.0,SW,0.0,0.0,DRY,,9999.0,,Night,0.0,night.gif
2025-08-05 00:51,13.8,14.6,0.0,0.0,1021.2,95.0,0.0,14.6,0.0,14.6,241.0,SW,3.6,3.6,DRY,,9999.0,,Night,0.0,night.gif
2025-08-05 00:56,13.6,15.0,0.0,0.0,1021.0,91.0,0.0,15.0,0.0,15.0,255.0,W,1.8,0.4,DRY,,9999.0,,Night,0.0,night.gif
2025-08-05 01:01,13.5,15.1,0.0,0.0,1021.2,90.0,0.0,15.1,0.0,15.1,254.0,W,1.8,1.4,DRY,,9999.0,,Night,0.0,night.gif
2025-08-05 01:06,13.5,15.1,0.0,0.0,1021.2,90.0,0.0,15.1,0.0,15.1,228.0,SW,0.0,0.0,DRY,,9999.0,,Night,0.0,night.gif
2025-08-05 01:11,13.4,14.8,0.0,0.0,1021.0,91.0,0.0,14.8,0.0,14.8,211.0,SW,1.8,0.7,DRY,,9999.0,,Night,0.0,night.gif
2025-08-05 01:16,13.4,14.8,0.0,0.0,1021.2,91.0,0.0,14.8,0.0,14.8,208.0,SW,1.8,0.4,DRY,,9999.0,,Night,0.0,night.gif
2025-08-05 01:21,13.4,15.0,0.0,0.0,1021.2,90.0,0.0,15.0,0.0,15.0,180.0,S,3.6,2.2,DRY,,9999.0,,Night,0.0,night.gif
2025-08-05 01:26,13.4,14.8,0.0,0.0,1021.2,91.0,0.0,14.8,0.0,14.8,221.0,SW,1.8,1.8,DRY,,9999.0,,Night,0.0,night.gif
2025-08-05 01:31,13.5,14.6,0.0,0.0,1021.1,93.0,0.0,14.6,0.0,14.6,239.0,SW,1.8,1.1,DRY,,9999.0,,Night,0.0,night.gif
2025-08-05 01:36,13.3,14.3,0.0,0.0,1021.1,94.0,0.0,14.3,0.0,14.3,240.0,SW,0.0,0.0,DRY,,9999.0,,Night,0.0,night.gif
2025-08-05 01:41,13.3,14.1,0.0,0.0,1021.2,95.0,0.0,14.1,0.0,14.1,240.0,SW,1.8,0.7,DRY,,9999.0,,Night,0.0,night.gif
2025-08-05 01:46,13.2,14.0,0.0,0.0,1021.1,95.0,0.0,14.0,0.0,14.0,240.0,SW,0.0,0.0,DRY,,9999.0,,Night,0.0,night.gif
2025-08-05 01:51,12.9,13.7,0.0,0.0,1021.2,95.0,0.0,13.7,0.0,13.7,334.0,NW,1.8,1.1,DRY,,9999.0,,Night,0.0,night.gif
2025-08-05 01:56,13.0,13.6,0.0,0.0,1021.2,96.0,0.0,13.6,0.0,13.6,334.0,NW,0.0,0.0,DRY,,9999.0,,Night,0.0,night.gif
2025-08-05 02:01,12.8,13.4,0.0,0.0,1021.0,96.0,0.0,13.4,0.0,13.4,334.0,NW,0.0,0.0,DRY,,9999.0,,Night,0.0,night.gif
2025-08-05 02:06,12.8,13.4,0.0,0.0,1021.4,96.0,0.0,13.4,0.0,13.4,334.0,NW,1.8,0.7,DRY,,9999.0,,Night,0.0,night.gif
2025-08-05 02:11,12.7,13.3,0.0,0.0,1021.2,96.0,0.0,13.3,0.0,13.3,321.0,NW,5.4,4.0,DRY,,9999.0,,Night,0.0,night.gif
2025-08-05 02:16,12.8,13.2,0.0,0.0,1021.4,97.0,0.0,13.2,0.0,13.2,296.0,NW,3.6,2.2,DRY,,9999.0,,Night,0.0,night.gif
2025-08-05 02:21,12.7,13.1,0.0,0.0,1021.4,97.0,0.0,13.1,0.0,13.1,319.0,NW,3.6,2.5,DRY,,9999.0,,Night,0.0,night.gif
2025-08-05 02:26,12.6,13.0,0.0,0.0,1021.4,97.0,0.0,13.0,0.0,13.0,319.0,NW,0.0,0.0,DRY,,9999.0,,Night,0.0,night.gif
2025-08-05 02:31,12.6,13.0,0.0,0.0,1021.4,97.0,0.0,13.0,0.0,13.0,351.0,N,3.6,2.2,DRY,,9999.0,,Night,0.0,night.gif
2025-08-05 02:36,12.4,12.8,0.0,0.0,1021.61,97.0,0.0,12.8,0.0,12.8,351.0,N,1.8,1.1,DRY,,9999.0,,Night,0.0,night.gif
2025-08-05 02:41,12.5,12.9,0.0,0.0,1021.61,97.0,0.0,12.9,0.0,12.9,351.0,N,0.0,0.0,DRY,,9999.0,,Night,0.0,night.gif
2025-08-05 02:46,12.8,13.1,0.0,0.0,1021.5,98.0,0.0,13.1,0.0,13.1,351.0,N,0.0,0.0,DRY,,9999.0,,Night,0.0,night.gif
2025-08-05 02:51,12.6,12.9,0.0,0.0,1021.5,98.0,0.0,12.9,0.0,12.9,351.0,N,0.0,0.0,DRY,,9999.0,,Night,0.0,night.gif
2025-08-05 02:56,12.7,13.0,0.0,0.0,1021.5,98.0,0.0,13.0,0.0,13.0,351.0,N,0.0,0.0,DRY,,9999.0,,Night,0.0,night.gif
2025-08-05 03:01,12.8,13.1,0.0,0.0,1021.61,98.0,0.0,13.1,0.0,13.1,351.0,N,1.8,1.8,DRY,,9999.0,,Night,0.0,night.gif
2025-08-05 03:06,12.5,12.8,0.0,0.0,1021.61,98.0,0.0,12.8,0.0,12.8,351.0,N,1.8,1.4,DRY,,9999.0,,Night,0.0,night.gif
2025-08-05 03:11,12.2,12.5,0.0,0.0,1021.5,98.0,0.0,12.5,0.0,12.5,351.0,N,1.8,1.8,DRY,,9999.0,,Night,0.0,night.gif
2025-08-05 03:16,12.0,12.3,0.0,0.0,1021.61,98.0,0.0,12.3,0.0,12.3,351.0,N,3.6,2.2,DRY,,9999.0,,Night,0.0,night.gif
2025-08-05 03:21,11.6,11.9,0.0,0.0,1021.4,98.0,0.0,11.9,0.0,11.9,351.0,N,0.0,0.0,DRY,,9999.0,,Night,0.0,night.gif
2025-08-05 03:31,12.0,12.3,0.0,0.0,1021.5,98.0,0.0,12.3,0.0,12.3,351.0,N,0.0,0.0,DRY,,9999.0,,Night,0.0,night.gif
2025-08-05 03:36,12.2,12.5,0.0,0.0,1021.2,98.0,0.0,12.5,0.0,12.5,351.0,N,1.8,1.8,DRY,,9999.0,,Night,0.0,night.gif
2025-08-05 03:41,12.2,12.5,0.0,0.0,1021.5,98.0,0.0,12.5,0.0,12.5,350.0,N,3.6,3.6,DRY,,9999.0,,Night,0.0,night.gif
2025-08-05 03:46,12.3,12.6,0.0,0.0,1021.61,98.0,0.0,12.6,0.0,12.6,350.0,N,0.0,0.0,DRY,,9999.0,,Night,0.0,night.gif
2025-08-05 03:51,12.3,12.6,0.0,0.0,1021.5,98.0,0.0,12.6,0.0,12.6,350.0,N,0.0,0.0,DRY,,9999.0,,Night,0.0,night.gif
2025-08-05 03:56,11.6,11.9,0.0,0.0,1021.5,98.0,0.0,11.9,0.0,11.9,351.0,N,0.0,0.0,DRY,,9999.0,,Night,0.0,night.gif
2025-08-05 04:01,11.5,11.8,0.0,0.0,1021.4,98.0,0.0,11.8,0.0,11.8,350.0,N,3.6,2.2,DRY,,9999.0,,Night,0.0,night.gif
2025-08-05 04:06,11.7,12.0,0.0,0.0,1021.3,98.0,0.0,12.0,0.0,12.0,350.0,N,1.8,1.8,DRY,,9999.0,,Night,0.0,night.gif
2025-08-05 04:11,11.8,12.1,0.0,0.0,1021.3,98.0,0.0,12.1,0.0,12.1,350.0,N,1.8,0.4,DRY,,9999.0,,Night,0.0,night.gif
2025-08-05 04:16,11.6,11.9,0.0,0.0,1021.4,98.0,0.0,11.9,0.0,11.9,350.0,N,1.8,0.7,DRY,,9999.0,,Night,0.0,night.gif
2025-08-05 04:21,11.6,11.9,0.0,0.0,1021.5,98.0,0.0,11.9,0.0,11.9,350.0,N,0.0,0.0,DRY,,9999.0,,Night,0.0,night.gif
2025-08-05 04:31,11.4,11.7,0.0,0.0,1021.61,98.0,0.0,11.7,0.0,11.7,350.0,N,1.8,0.4,DRY,,9999.0,,Night,0.0,night.gif
2025-08-05 04:36,11.4,11.7,0.0,0.0,1021.61,98.0,0.0,11.7,0.0,11.7,351.0,N,1.8,1.1,DRY,,9999.0,,Night,0.0,night.gif
2025-08-05 04:41,11.4,11.6,0.0,0.0,1021.71,99.0,0.0,11.6,0.0,11.6,351.0,N,0.0,0.0,DRY,,9999.0,,Night,0.0,night.gif
2025-08-05 04:46,11.3,11.5,0.0,0.0,1021.61,99.0,0.0,11.5,0.0,11.5,351.0,N,1.8,1.1,DRY,,9999.0,,Night,0.0,night.gif
2025-08-05 04:51,11.2,11.4,0.0,0.0,1021.71,99.0,0.0,11.4,0.0,11.4,351.0,N,0.0,0.0,DRY,,9999.0,,Night,0.0,night.gif
2025-08-05 04:56,11.4,11.6,0.0,0.0,1021.61,99.0,0.0,11.6,0.0,11.6,351.0,N,0.0,0.0,DRY,,9999.0,,Night,0.0,night.gif
2025-08-05 05:01,11.7,11.9,0.0,0.0,1021.61,99.0,0.0,11.9,0.0,11.9,351.0,N,3.6,3.6,DRY,,9999.0,,Night,0.0,night.gif
2025-08-05 05:06,11.2,11.4,0.0,0.0,1021.5,99.0,0.0,11.4,0.0,11.4,350.0,N,0.0,0.0,DRY,,9999.0,,Night,0.0,night.gif
2025-08-05 05:11,10.9,11.1,0.0,0.0,1021.81,99.0,0.0,11.1,0.0,11.1,350.0,N,1.8,1.4,DRY,,9999.0,,Night,0.0,night.gif
2025-08-05 05:16,10.8,11.0,0.0,0.0,1021.81,99.0,0.0,11.0,0.0,11.0,350.0,N,0.0,0.0,DRY,,9999.0,,Twilight,0.0,cloudy.gif
2025-08-05 05:21,10.7,10.9,0.0,0.0,1021.81,99.0,0.0,10.9,0.0,10.9,350.0,N,0.0,0.0,DRY,,9999.0,,Twilight,0.0,cloudy.gif
2025-08-05 05:26,10.9,11.1,0.0,0.0,1021.81,99.0,0.1,11.1,0.0,11.1,350.0,N,0.0,0.0,DRY,,9999.0,,Twilight,0.0,cloudy.gif
2025-08-05 05:31,11.2,11.4,0.0,0.0,1021.71,99.0,0.2,11.4,0.0,11.4,350.0,N,1.8,1.4,DRY,,9999.0,,Twilight,0.0,cloudy.gif
2025-08-05 05:36,11.1,11.3,0.0,0.0,1021.81,99.0,0.6,11.3,0.0,11.3,350.0,N,1.8,1.8,DRY,,9999.0,,Twilight,0.0,cloudy.gif
2025-08-05 05:41,11.0,11.2,0.0,0.0,1021.81,99.0,1.2,11.2,0.0,11.2,350.0,N,0.0,0.0,DRY,,9999.0,,Twilight,0.0,cloudy.gif
2025-08-05 05:46,11.1,11.3,0.0,0.0,1021.91,99.0,2.0,11.3,0.0,11.3,350.0,N,3.6,2.2,DRY,,9999.0,,Twilight,0.0,cloudy.gif
2025-08-05 05:51,10.8,11.0,0.0,0.0,1021.91,99.0,3.2,11.0,0.0,11.0,350.0,N,1.8,0.4,DRY,,9999.0,,Twilight,0.0,cloudy.gif
2025-08-05 05:56,10.6,10.8,0.0,0.0,1021.91,99.0,4.9,10.8,0.0,10.8,350.0,N,0.0,0.0,DRY,,9999.0,,Sunny,6.29793269314018,sunny.gif
2025-08-05 06:01,10.6,10.8,0.0,0.0,1021.91,99.0,6.8,10.8,0.0,10.8,350.0,N,1.8,1.8,DRY,,9999.0,,Partly Cloudy,12.956801933594232,partly_cloudy.gif
2025-08-05 06:06,11.0,11.2,0.0,0.0,1021.91,99.0,9.1,11.2,0.0,11.2,350.0,N,0.0,0.0,DRY,,9999.0,,Partly Cloudy,19.89166873682874,partly_cloudy.gif
2025-08-05 06:11,10.9,11.1,0.0,0.0,1022.01,99.0,11.5,11.1,0.0,11.1,350.0,N,1.8,1.8,DRY,,9999.0,,Partly Cloudy,27.03303156307499,partly_cloudy.gif
2025-08-05 06:16,11.0,11.2,0.0,0.0,1021.81,99.0,12.5,11.2,0.0,11.2,351.0,N,3.6,3.6,DRY,,9999.0,,Partly Cloudy,34.32695855211459,partly_cloudy.gif
2025-08-05 06:56,12.3,12.5,0.0,0.0,1022.11,99.0,39.3,12.5,0.0,12.5,350.0,N,3.6,2.2,DRY,,9999.0,,Partly Cloudy,95.93325767190761,partly_cloudy.gif
2025-08-05 07:01,12.5,12.8,0.0,0.0,1022.01,98.0,44.1,12.8,0.0,12.8,350.0,N,0.0,0.0,DRY,,9999.0,,Partly Cloudy,108.609412073334,partly_cloudy.gif
2025-08-05 07:06,12.7,13.0,0.0,0.0,1022.01,98.0,48.5,13.0,0.0,13.0,352.0,N,1.8,0.4,DRY,,9999.0,,Partly Cloudy,121.50079364037632,partly_cloudy.gif
2025-08-05 07:11,13.1,13.5,0.0,0.0,1022.11,97.0,50.7,13.5,0.0,13.5,283.0,W,1.8,1.8,DRY,,9999.0,,Partly Cloudy,134.56785462210289,partly_cloudy.gif
2025-08-05 07:16,12.8,13.4,0.0,0.0,1022.11,96.0,55.0,13.4,0.0,13.4,307.0,NW,1.8,1.8,DRY,,9999.0,,Partly Cloudy,147.77751467602843,partly_cloudy.gif
2025-08-05 07:21,13.0,13.8,0.0,0.0,1022.01,95.0,58.9,13.8,0.0,13.8,197.0,S,1.8,1.4,DRY,,9999.0,,Partly Cloudy,161.101670286583,partly_cloudy.gif
2025-08-05 07:26,12.9,14.0,0.0,0.0,1022.01,93.0,63.4,14.0,0.0,14.0,216.0,SW,1.8,0.4,DRY,,9999.0,,Partly Cloudy,174.51609075710977,partly_cloudy.gif
2025-08-05 07:31,13.2,14.4,0.0,0.0,1022.11,92.0,68.2,14.4,0.0,14.4,217.0,SW,1.8,1.8,DRY,,9999.0,,Partly Cloudy,187.999591819223,partly_cloudy.gif
2025-08-05 07:36,13.1,14.5,0.0,0.0,1022.22,91.0,72.8,14.5,0.0,14.5,216.0,SW,0.0,0.0,DRY,,9999.0,,Partly Cloudy,201.5334106320175,partly_cloudy.gif
2025-08-05 07:41,13.4,15.2,0.0,0.0,1022.22,89.0,78.0,15.2,0.0,15.2,216.0,SW,0.0,0.0,DRY,,9999.0,,Partly Cloudy,215.10072835137177,partly_cloudy.gif
2025-08-05 07:46,14.0,16.3,0.0,0.0,1022.32,86.0,82.6,16.3,0.0,16.3,216.0,SW,1.8,1.1,DRY,,9999.0,,Partly Cloudy,228.6863019454574,partly_cloudy.gif
2025-08-05 07:51,13.9,16.0,0.0,0.0,1022.11,87.0,92.6,16.0,0.0,16.0,50.0,NE,0.0,0.0,DRY,,9999.0,,Partly Cloudy,242.27617774469633,partly_cloudy.gif
2025-08-05 07:56,13.7,16.4,0.0,0.0,1022.22,84.0,116.9,16.4,1.0,16.4,98.0,E,3.6,2.5,DRY,,9999.0,,Partly Cloudy,255.8574666878755,partly_cloudy.gif
2025-08-05 08:01,13.8,16.1,0.0,0.0,1022.38,86.0,132.9,16.1,1.0,16.1,103.0,E,0.0,0.0,DRY,,9999.0,,Partly Cloudy,269.4181666395326,partly_cloudy.gif
2025-08-05 08:06,14.4,16.9,0.0,0.0,1022.22,85.0,86.2,16.9,0.0,16.9,103.0,E,1.8,0.4,DRY,,9999.0,,Cloudy,282.94702088073063,cloudy.gif
2025-08-05 08:11,13.7,16.8,0.0,0.0,1022.32,82.0,133.3,16.8,1.0,16.8,102.0,E,1.8,0.7,DRY,,9999.0,,Mostly Cloudy,296.43340469858373,mostly_cloudy.gif
2025-08-05 08:16,14.3,18.0,0.0,0.0,1022.11,79.0,152.5,18.0,1.0,18.0,45.0,NE,0.0,0.0,DRY,,9999.0,,Partly Cloudy,309.8672339171122,partly_cloudy.gif
2025-08-05 08:21,14.2,17.1,0.0,0.0,1022.32,83.0,171.4,17.1,1.0,17.1,20.0,N,0.0,0.0,DRY,,9999.0,,Partly Cloudy,323.2388907462644,partly_cloudy.gif
2025-08-05 08:26,14.4,17.3,0.0,0.0,1022.01,83.0,190.9,17.3,1.0,17.3,19.0,N,1.8,1.8,DRY,,9999.0,,Partly Cloudy,336.5391633676001,partly_cloudy.gif
2025-08-05 08:31,14.0,17.1,0.0,0.0,1022.11,82.0,210.1,17.1,2.0,17.1,48.0,NE,1.8,1.4,DRY,,9999.0,,Partly Cloudy,349.7591964857207,partly_cloudy.gif
2025-08-05 08:36,13.9,17.2,0.0,0.0,1021.91,81.0,232.8,17.2,2.0,17.2,41.0,NE,0.0,0.0,DRY,,9999.0,,Partly Cloudy,362.8904507278575,partly_cloudy.gif
2025-08-05 08:41,14.0,17.3,0.0,0.0,1021.91,81.0,258.4,17.3,2.0,17.3,354.0,N,1.8,1.1,DRY,,9999.0,,Mostly Sunny,375.9246691690029,mostly_sunny.gif
2025-08-05 08:46,14.0,17.5,0.0,0.0,1021.91,80.0,279.0,17.5,2.0,17.5,38.0,NE,0.0,0.0,DRY,,9999.0,,Mostly Sunny,388.85384969096845,mostly_sunny.gif
2025-08-05 08:51,14.2,18.9,0.0,0.0,1021.91,74.0,313.0,18.9,3.0,18.9,38.0,NE,0.0,0.0,DRY,,9999.0,,Mostly Sunny,401.67022207958814,mostly_sunny.gif
2025-08-05 08:56,14.3,19.0,0.0,0.0,1021.81,74.0,340.1,19.0,3.0,19.0,34.0,NE,0.0,0.0,DRY,,9999.0,,Mostly Sunny,414.36622905279154,mostly_sunny.gif
2025-08-05 09:01,14.1,18.8,0.0,0.0,1021.91,74.0,352.5,18.8,3.0,18.8,61.0,NE,1.8,1.4,DRY,,9999.0,,Mostly Sunny,426.93451050268294,mostly_sunny.gif
2025-08-05 09:06,14.3,18.2,0.0,0.0,1021.81,78.0,364.3,18.2,3.0,18.2,29.0,NE,1.8,1.8,DRY,,9999.0,,Mostly Sunny,439.3678904309617,mostly_sunny.gif
2025-08-05 09:11,14.1,18.6,0.0,0.0,1022.11,75.0,374.7,18.6,3.0,18.6,35.0,NE,3.6,2.2,DRY,,9999.0,,Mostly Sunny,451.65936611851106,mostly_sunny.gif
2025-08-05 09:16,14.2,18.7,0.0,0.0,1021.91,75.0,387.1,18.7,3.0,18.7,19.0,N,3.6,2.9,DRY,,9999.0,,Mostly Sunny,463.8020991517577,mostly_sunny.gif
2025-08-05 09:21,14.2,18.9,0.0,0.0,1021.91,74.0,399.2,18.9,3.0,18.9,348.0,N,0.0,0.0,DRY,,9999.0,,Mostly Sunny,475.78940803436586,mostly_sunny.gif
2025-08-05 09:26,14.1,19.7,0.0,0.0,1021.91,70.0,412.6,19.7,4.0,19.7,93.0,E,3.6,2.9,DRY,,9999.0,,Mostly Sunny,487.6147621004104,mostly_sunny.gif
2025-08-05 09:31,13.8,19.6,0.0,0.0,1022.01,69.0,422.9,19.6,4.0,19.6,50.0,NE,3.6,2.9,DRY,,9999.0,,Mostly Sunny,499.27177656020325,mostly_sunny.gif
2025-08-05 09:36,15.2,20.2,0.0,0.0,1021.81,73.0,464.1,20.2,4.0,20.2,113.0,SE,1.8,0.4,DRY,,9999.0,,Sunny,510.7542084708267,sunny.gif
2025-08-05 09:41,14.3,19.7,0.0,0.0,1022.01,71.0,445.8,19.7,4.0,19.7,67.0,NE,0.0,0.0,DRY,,9999.0,,Sunny,522.0559535246907,sunny.gif
2025-08-05 09:46,14.4,20.0,0.0,0.0,1021.91,70.0,456.1,20.0,4.0,20.0,73.0,E,3.6,2.2,DRY,,9999.0,,Sunny,533.1710435005562,sunny.gif
2025-08-05 09:51,14.3,20.4,0.0,0.0,1021.81,68.0,467.1,20.4,4.0,20.4,64.0,NE,1.8,1.8,DRY,,9999.0,,Sunny,544.0936443039941,sunny.gif
2025-08-05 09:56,14.3,20.6,0.0,0.0,1021.81,67.0,477.6,20.6,4.0,20.6,126.0,SE,7.2,7.2,DRY,,9999.0,,Sunny,554.8180545000969,sunny.gif
2025-08-05 10:01,13.1,20.1,0.0,0.0,1021.71,64.0,486.9,20.1,4.0,20.1,113.0,SE,5.4,5.4,DRY,,9999.0,,Sunny,565.3387042544169,sunny.gif
2025-08-05 10:06,13.4,20.4,0.0,0.0,1021.81,64.0,496.8,20.4,4.0,20.4,118.0,SE,1.8,1.8,DRY,,9999.0,,Sunny,575.6501546479194,sunny.gif
2025-08-05 10:11,13.3,20.8,0.0,0.0,1021.61,62.0,505.0,20.8,4.0,20.8,98.0,E,5.4,3.2,DRY,,9999.0,,Sunny,585.7470972783259,sunny.gif
2025-08-05 10:16,13.1,20.6,0.0,0.0,1022.01,62.0,507.7,20.6,4.0,20.6,100.0,E,3.6,2.5,DRY,,9999.0,,Sunny,595.6243541376857,sunny.gif
2025-08-05 10:21,13.4,21.0,0.0,0.0,1021.71,61.0,517.7,21.2,5.0,21.2,97.0,E,9.4,9.4,DRY,,9999.0,,Sunny,605.2768776916198,sunny.gif
2025-08-05 10:26,13.8,20.4,0.0,0.0,1021.71,66.0,524.8,20.4,5.0,20.4,131.0,SE,9.4,7.2,DRY,,9999.0,,Sunny,614.6997511614833,sunny.gif
2025-08-05 10:31,13.1,20.6,0.0,0.0,1021.61,62.0,529.8,20.6,5.0,20.6,98.0,E,9.4,8.6,DRY,,9999.0,,Mostly Sunny,623.8881889460946,mostly_sunny.gif
2025-08-05 10:36,13.4,21.0,0.0,0.0,1021.4,62.0,535.2,21.0,5.0,21.0,100.0,E,7.2,6.5,DRY,,9999.0,,Mostly Sunny,632.837537184893,mostly_sunny.gif
2025-08-05 10:41,13.2,21.0,0.0,0.0,1021.5,61.0,540.3,21.0,5.0,21.0,154.0,SE,7.2,5.8,DRY,,9999.0,,Mostly Sunny,641.5432744291899,mostly_sunny.gif
2025-08-05 10:46,12.5,20.8,0.0,0.0,1021.4,58.0,543.8,21.1,5.0,21.1,81.0,E,5.4,3.6,DRY,,9999.0,,Mostly Sunny,650.0010123914212,mostly_sunny.gif
2025-08-05 10:51,13.5,20.9,0.0,0.0,1021.5,62.0,549.5,21.1,5.0,21.1,114.0,SE,1.8,1.1,DRY,,9999.0,,Mostly Sunny,658.2064967822732,mostly_sunny.gif
2025-08-05 10:56,13.1,21.5,0.0,0.0,1021.4,58.0,552.7,21.7,5.0,21.7,73.0,E,5.4,5.0,DRY,,9999.0,,Mostly Sunny,666.155608187343,mostly_sunny.gif
2025-08-05 11:01,13.1,21.5,0.0,0.0,1021.2,58.0,556.8,21.7,5.0,21.7,109.0,E,3.6,3.6,DRY,,9999.0,,Mostly Sunny,673.8443630044789,mostly_sunny.gif
2025-08-05 11:06,13.9,21.3,0.0,0.0,1021.2,62.0,561.1,21.5,5.0,21.5,127.0,SE,7.2,5.8,DRY,,9999.0,,Mostly Sunny,681.2689143959566,mostly_sunny.gif
2025-08-05 11:11,13.7,21.6,0.0,0.0,1021.1,60.0,564.2,21.8,5.0,21.8,54.0,NE,3.6,2.5,DRY,,9999.0,,Mostly Sunny,688.4255532792595,mostly_sunny.gif
2025-08-05 11:16,13.2,21.2,0.0,0.0,1021.1,59.0,568.4,21.5,5.0,21.5,175.0,S,7.2,5.4,DRY,,9999.0,,Mostly Sunny,695.3107093143421,mostly_sunny.gif
2025-08-05 11:21,13.0,21.3,0.0,0.0,1021.3,58.0,571.6,21.6,5.0,21.6,117.0,SE,11.2,9.0,DRY,,9999.0,,Mostly Sunny,701.9209519059056,mostly_sunny.gif
2025-08-05 11:26,12.7,21.2,0.0,0.0,1021.1,57.0,573.2,21.5,5.0,21.5,140.0,SE,3.6,3.6,DRY,,9999.0,,Mostly Sunny,708.2529912026023,mostly_sunny.gif
2025-08-05 11:31,13.3,21.6,0.0,0.0,1021.1,58.0,577.8,21.9,5.0,21.9,77.0,E,9.4,6.8,DRY,,9999.0,,Mostly Sunny,714.3036790764311,mostly_sunny.gif
2025-08-05 11:36,13.1,21.5,0.0,0.0,1021.1,58.0,581.1,21.7,5.0,21.7,123.0,SE,14.8,12.2,DRY,,9999.0,,Mostly Sunny,720.0700101027286,mostly_sunny.gif
2025-08-05 11:41,14.1,21.7,0.0,0.0,1020.59,61.0,584.0,21.9,5.0,21.9,110.0,E,11.2,8.6,DRY,,9999.0,,Mostly Sunny,725.5491225029929,mostly_sunny.gif
2025-08-05 11:46,13.5,21.7,0.0,0.0,1020.89,59.0,584.8,21.9,5.0,21.9,79.0,E,5.4,4.3,DRY,,9999.0,,Mostly Sunny,730.7382990796415,mostly_sunny.gif
2025-08-05 11:51,13.4,21.8,0.0,0.0,1020.79,58.0,588.4,22.0,5.0,22.0,119.0,SE,16.6,15.5,DRY,,9999.0,,Mostly Sunny,735.6349681047943,mostly_sunny.gif
2025-08-05 11:56,14.0,21.6,0.0,0.0,1021.0,61.0,590.9,21.8,5.0,21.8,92.0,E,11.2,10.4,DRY,,9999.0,,Mostly Sunny,740.2367041931728,mostly_sunny.gif
2025-08-05 12:01,13.8,22.0,0.0,0.0,1020.79,59.0,593.9,22.2,5.0,22.2,89.0,E,11.2,9.4,DRY,,9999.0,,Mostly Sunny,744.5412291229511,mostly_sunny.gif
2025-08-05 12:06,13.8,22.0,0.0,0.0,1020.89,59.0,596.9,22.2,5.0,22.2,121.0,SE,9.4,7.9,DRY,,9999.0,,Mostly Sunny,748.5464126281125,mostly_sunny.gif
2025-08-05 12:11,13.8,22.0,0.0,0.0,1021.0,59.0,597.5,22.2,5.0,22.2,100.0,E,9.4,7.2,DRY,,9999.0,,Mostly Sunny,752.250273148916,mostly_sunny.gif
2025-08-05 12:16,14.0,22.2,0.0,0.0,1020.89,59.0,602.5,22.4,5.0,22.4,126.0,SE,13.0,9.7,DRY,,9999.0,,Mostly Sunny,755.6509785276392,mostly_sunny.gif
2025-08-05 12:21,13.3,22.3,0.0,0.0,1020.69,56.0,602.4,22.5,5.0,22.5,119.0,SE,13.0,11.5,DRY,,9999.0,,Mostly Sunny,758.7468466737572,mostly_sunny.gif
2025-08-05 12:26,14.5,22.8,0.0,0.0,1020.69,59.0,606.9,22.9,5.0,22.9,137.0,SE,13.0,10.8,DRY,,9999.0,,Mostly Sunny,761.5363461639572,mostly_sunny.gif
2025-08-05 12:31,13.9,22.6,0.0,0.0,1020.69,57.0,607.5,22.8,5.0,22.8,118.0,SE,16.6,14.0,DRY,,9999.0,,Mostly Sunny,764.0180968091246,mostly_sunny.gif
2025-08-05 12:36,13.7,22.7,0.0,0.0,1020.59,56.0,608.7,22.9,5.0,22.9,102.0,E,11.2,8.3,DRY,,9999.0,,Mostly Sunny,766.1908701528581,mostly_sunny.gif
2025-08-05 12:41,13.4,22.7,0.0,0.0,1020.49,55.0,612.8,22.9,5.0,22.9,129.0,SE,14.8,11.2,DRY,,9999.0,,Mostly Sunny,768.0535899342541,mostly_sunny.gif
2025-08-05 12:46,14.9,22.9,0.0,0.0,1020.59,60.0,614.6,23.0,5.0,23.0,127.0,SE,5.4,4.7,DRY,,9999.0,,Mostly Sunny,769.6053324807642,mostly_sunny.gif
2025-08-05 12:51,12.8,22.6,0.0,0.0,1020.39,53.0,616.2,22.9,6.0,22.9,100.0,E,9.4,8.3,DRY,,9999.0,,Mostly Sunny,770.8453270568556,mostly_sunny.gif
2025-08-05 12:56,13.5,23.1,0.0,0.0,1020.39,54.0,616.1,23.3,6.0,23.3,116.0,SE,9.4,8.3,DRY,,9999.0,,Mostly Sunny,771.7729561569298,mostly_sunny.gif
2025-08-05 13:01,14.2,23.0,0.0,0.0,1020.39,57.0,615.7,23.1,6.0,23.1,81.0,E,11.2,8.3,DRY,,9999.0,,Mostly Sunny,772.3877557312135,mostly_sunny.gif
2025-08-05 13:06,13.0,22.9,0.0,0.0,1020.49,53.0,616.5,23.1,6.0,23.1,96.0,E,14.8,13.0,DRY,,9999.0,,Mostly Sunny,772.6894153707273,mostly_sunny.gif
2025-08-05 13:11,12.9,22.7,0.0,0.0,1020.12,53.0,617.3,23.0,6.0,23.0,99.0,E,11.2,10.1,DRY,,9999.0,,Mostly Sunny,772.6777784178508,mostly_sunny.gif
2025-08-05 13:16,14.2,23.6,0.0,0.0,1020.22,55.0,616.2,23.8,6.0,23.8,121.0,SE,7.2,6.1,DRY,,9999.0,,Mostly Sunny,772.3528420365072,mostly_sunny.gif
2025-08-05 13:21,13.5,23.4,0.0,0.0,1020.01,53.0,614.7,23.6,5.0,23.6,113.0,SE,13.0,11.5,DRY,,9999.0,,Mostly Sunny,771.7147572073609,mostly_sunny.gif
2025-08-05 13:26,13.5,23.1,0.0,0.0,1019.91,54.0,614.1,23.3,5.0,23.3,135.0,SE,16.6,13.3,DRY,,9999.0,,Mostly Sunny,770.7638286826933,mostly_sunny.gif
2025-08-05 13:31,13.1,23.3,0.0,0.0,1019.81,52.0,613.5,23.5,5.0,23.5,125.0,SE,16.6,14.4,DRY,,9999.0,,Mostly Sunny,769.5005148674417,mostly_sunny.gif
2025-08-05 13:36,13.9,23.2,0.0,0.0,1020.01,55.0,611.8,23.4,5.0,23.4,141.0,SE,13.0,10.8,DRY,,9999.0,,Mostly Sunny,767.9254276537703,mostly_sunny.gif
2025-08-05 13:41,13.4,23.6,0.0,0.0,1019.71,52.0,610.1,23.8,5.0,23.8,122.0,SE,11.2,10.1,DRY,,9999.0,,Mostly Sunny,766.0393321988768,mostly_sunny.gif
2025-08-05 13:46,14.3,23.5,0.0,0.0,1019.71,56.0,607.9,23.6,5.0,23.6,136.0,SE,11.2,10.4,DRY,,9999.0,,Mostly Sunny,763.843146635411,mostly_sunny.gif
2025-08-05 13:51,13.3,23.5,0.0,0.0,1019.71,52.0,607.0,23.7,5.0,23.7,53.0,NE,5.4,4.3,DRY,,9999.0,,Mostly Sunny,761.337941742808,mostly_sunny.gif
2025-08-05 13:56,14.6,23.8,0.0,0.0,1019.61,56.0,604.2,23.9,5.0,23.9,117.0,SE,11.2,7.9,DRY,,9999.0,,Mostly Sunny,758.5249405460498,mostly_sunny.gif
2025-08-05 14:01,14.9,24.2,0.0,0.0,1019.61,56.0,601.8,24.2,5.0,24.2,85.0,E,11.2,7.2,DRY,,9999.0,,Mostly Sunny,755.4055178784396,mostly_sunny.gif
2025-08-05 14:06,13.6,23.8,0.0,0.0,1019.51,52.0,599.6,24.0,5.0,24.0,112.0,E,11.2,9.4,DRY,,9999.0,,Mostly Sunny,751.9811998737785,mostly_sunny.gif
2025-08-05 14:11,13.3,23.8,0.0,0.0,1019.4,51.0,595.8,24.0,5.0,24.0,72.0,E,7.2,5.4,DRY,,9999.0,,Mostly Sunny,748.2536634251699,mostly_sunny.gif
2025-08-05 14:16,13.8,24.1,0.0,0.0,1019.3,52.0,591.8,24.3,5.0,24.3,155.0,SE,9.4,7.2,DRY,,9999.0,,Mostly Sunny,744.2247355771138,mostly_sunny.gif
2025-08-05 14:21,13.4,24.3,0.0,0.0,1019.2,50.0,589.6,24.5,5.0,24.5,244.0,SW,7.2,6.5,DRY,,9999.0,,Mostly Sunny,739.8963928807126,mostly_sunny.gif
2025-08-05 14:26,13.2,24.4,0.0,0.0,1019.2,49.0,586.1,24.6,5.0,24.6,142.0,SE,11.2,9.4,DRY,,9999.0,,Mostly Sunny,735.2707607028005,mostly_sunny.gif
2025-08-05 14:31,13.2,24.1,0.0,0.0,1019.2,50.0,580.2,24.3,5.0,24.3,90.0,E,1.8,1.1,DRY,,9999.0,,Mostly Sunny,730.3501124795881,mostly_sunny.gif
2025-08-05 14:36,13.9,24.2,0.0,0.0,1019.1,52.0,576.1,24.4,5.0,24.4,108.0,E,9.4,7.2,DRY,,9999.0,,Mostly Sunny,725.1368689459835,mostly_sunny.gif
2025-08-05 14:41,13.9,24.6,0.0,0.0,1019.0,51.0,572.2,24.7,5.0,24.7,139.0,SE,11.2,8.6,DRY,,9999.0,,Mostly Sunny,719.6335973075506,mostly_sunny.gif
2025-08-05 14:46,13.9,24.6,0.0,0.0,1019.3,51.0,567.0,24.7,5.0,24.7,131.0,SE,11.2,8.3,DRY,,9999.0,,Mostly Sunny,713.8430103952317,mostly_sunny.gif
2025-08-05 14:51,13.9,24.9,0.0,0.0,1019.1,50.0,561.7,25.0,5.0,25.0,126.0,SE,14.8,13.0,DRY,,9999.0,,Mostly Sunny,707.7679657690343,mostly_sunny.gif
2025-08-05 14:56,13.3,24.2,0.0,0.0,1019.1,50.0,557.1,24.4,5.0,24.4,147.0,SE,7.2,6.1,DRY,,9999.0,,Mostly Sunny,701.4114648116669,mostly_sunny.gif
2025-08-05 15:01,14.4,24.8,0.0,0.0,1019.1,52.0,551.3,24.9,5.0,24.9,180.0,S,9.4,6.8,DRY,,9999.0,,Mostly Sunny,694.7766517802434,mostly_sunny.gif
2025-08-05 15:06,14.0,25.0,0.0,0.0,1018.9,50.0,543.3,25.1,5.0,25.1,75.0,E,1.8,1.4,DRY,,9999.0,,Mostly Sunny,687.8668128498226,mostly_sunny.gif
