timestamp,imedvode1_dewpoint,imedvode1_heat_index,imedvode1_precipitation_rate,imedvode1_precipitation_today,imedvode1_pressure,imedvode1_relative_humidity,imedvode1_solar_radiation,imedvode1_temperature,imedvode1_uv_index,imedvode1_wind_chill,imedvode1_wind_direction_degrees,windCardinals,imedvode1_wind_gust,imedvode1_wind_speed,condition1,condition2,visibility,condition3,sky,max_solar_radiation,image_name
2025-04-20 17:43,8.5,18.1,0.0,0.0,1013.72,53.0,171.1,18.1,2.0,18.1,205.0,SW,5.4,4.0,DRY,,9999.0,,Partly Cloudy,282.8710040910063,partly_cloudy.gif
2025-04-20 17:48,8.5,18.5,0.0,0.0,1013.82,52.0,214.8,18.5,2.0,18.5,169.0,S,3.6,2.5,DRY,,9999.0,,Mostly Sunny,269.3939920262555,mostly_sunny.gif
2025-04-20 17:53,8.5,18.5,0.0,0.0,1013.72,52.0,214.7,18.5,2.0,18.5,213.0,SW,9.4,7.2,DRY,,9999.0,,Mostly Sunny,255.8562692323538,mostly_sunny.gif
2025-04-20 17:58,8.4,18.4,0.0,0.0,1013.61,52.0,132.8,18.4,1.0,18.4,209.0,SW,9.4,6.5,DRY,,9999.0,,Partly Cloudy,242.2693116735945,partly_cloudy.gif
2025-04-20 18:03,8.3,18.0,0.0,0.0,1013.61,53.0,123.3,18.0,1.0,18.0,208.0,SW,7.2,5.4,DRY,,9999.0,,Partly Cloudy,228.6454138213766,partly_cloudy.gif
2025-04-20 18:08,8.2,17.9,0.0,0.0,1013.72,53.0,117.0,17.9,1.0,17.9,226.0,SW,3.6,2.9,DRY,,9999.0,,Partly Cloudy,214.99784715902533,partly_cloudy.gif
2025-04-20 18:13,8.7,18.2,0.0,0.0,1013.51,54.0,110.4,18.2,1.0,18.2,217.0,SW,3.6,3.6,DRY,,9999.0,,Partly Cloudy,201.3410605653976,partly_cloudy.gif
2025-04-20 18:18,8.8,18.3,0.0,0.0,1013.61,54.0,104.6,18.3,1.0,18.3,195.0,S,3.6,2.2,DRY,,9999.0,,Mostly Sunny,187.69093556836685,mostly_sunny.gif
2025-04-20 18:23,8.4,18.1,0.0,0.0,1013.61,53.0,97.2,18.1,0.0,18.1,187.0,S,5.4,4.0,DRY,,9999.0,,Mostly Sunny,174.0651142669554,mostly_sunny.gif
2025-04-20 18:28,8.5,17.9,0.0,0.0,1013.61,54.0,85.8,17.9,0.0,17.9,296.0,NW,5.4,3.6,DRY,,9999.0,,Partly Cloudy,160.48342446785674,partly_cloudy.gif
2025-04-20 18:33,8.2,17.6,0.0,0.0,1013.61,54.0,69.1,17.6,0.0,17.6,241.0,SW,11.2,7.2,DRY,,9999.0,,Partly Cloudy,146.9684362064545,partly_cloudy.gif
2025-04-20 18:38,8.2,17.3,0.0,0.0,1013.88,55.0,57.8,17.3,0.0,17.3,286.0,W,9.4,5.0,DRY,,9999.0,,Partly Cloudy,133.54619792958263,partly_cloudy.gif
2025-04-20 18:43,8.1,17.2,0.0,0.0,1013.61,55.0,45.9,17.2,0.0,17.2,318.0,NW,1.8,1.8,DRY,,9999.0,,Partly Cloudy,120.24722104272354,partly_cloudy.gif
2025-04-20 18:48,8.1,16.9,0.0,0.0,1013.61,56.0,38.4,16.9,0.0,16.9,245.0,SW,7.2,4.3,DRY,,9999.0,,Partly Cloudy,107.10781189647994,partly_cloudy.gif
2025-04-20 18:53,8.3,16.9,0.0,0.0,1013.82,57.0,34.7,16.9,0.0,16.9,263.0,W,3.6,2.9,DRY,,9999.0,,Partly Cloudy,94.35584395969597,partly_cloudy.gif
2025-04-20 18:58,7.8,16.6,0.0,0.0,1013.61,56.0,31.5,16.6,0.0,16.6,287.0,W,5.4,4.3,DRY,,9999.0,,Partly Cloudy,86.37599450793121,partly_cloudy.gif
2025-04-20 19:03,7.6,16.4,0.0,0.0,1013.88,56.0,27.9,16.4,0.0,16.4,298.0,NW,7.2,6.5,DRY,,9999.0,,Partly Cloudy,78.4067607934267,partly_cloudy.gif
2025-04-20 19:08,7.5,16.3,0.0,0.0,1013.88,56.0,25.3,16.3,0.0,16.3,299.0,NW,13.0,7.6,DRY,,9999.0,,Partly Cloudy,70.45535049020367,partly_cloudy.gif
2025-04-20 19:13,7.7,16.2,0.0,0.0,1013.88,57.0,21.7,16.2,0.0,16.2,236.0,SW,9.4,6.1,DRY,,9999.0,,Mostly Cloudy,62.53003945713929,mostly_cloudy.gif
2025-04-20 19:18,8.0,16.0,0.0,0.0,1014.09,59.0,17.7,16.0,0.0,16.0,224.0,SW,3.6,1.8,DRY,,9999.0,,Mostly Cloudy,54.64054557122339,mostly_cloudy.gif
2025-04-20 19:23,7.8,15.8,0.0,0.0,1014.19,59.0,14.0,15.8,0.0,15.8,258.0,W,5.4,3.6,DRY,,9999.0,,Mostly Cloudy,46.7957155001891,mostly_cloudy.gif
2025-04-20 19:28,7.7,15.7,0.0,0.0,1014.19,59.0,11.4,15.7,0.0,15.7,269.0,W,5.4,4.3,DRY,,9999.0,,Mostly Cloudy,39.03178905858006,mostly_cloudy.gif
2025-04-20 19:33,7.7,15.7,0.0,0.0,1014.29,59.0,9.2,15.7,0.0,15.7,260.0,W,0.0,0.0,DRY,,9999.0,,Mostly Cloudy,31.35907730469964,mostly_cloudy.gif
2025-04-20 19:38,7.8,15.5,0.0,0.0,1014.19,60.0,8.0,15.5,0.0,15.5,288.0,W,7.2,5.4,DRY,,9999.0,,Mostly Cloudy,23.807277623418212,mostly_cloudy.gif
2025-04-20 19:43,7.9,15.4,0.0,0.0,1014.29,61.0,6.5,15.4,0.0,15.4,220.0,SW,14.8,10.8,DRY,,9999.0,,Partly Cloudy,16.427507192620734,partly_cloudy.gif
2025-04-20 19:48,7.9,15.4,0.0,0.0,1014.39,61.0,4.7,15.4,0.0,15.4,143.0,SE,5.4,4.7,DRY,,9999.0,,Partly Cloudy,9.291289964995565,partly_cloudy.gif
2025-04-20 19:53,7.8,15.3,0.0,0.0,1014.19,61.0,2.9,15.3,0.0,15.3,255.0,W,20.2,15.1,DRY,,9999.0,,Sunny,2.4893964710690755,sunny.gif
2025-04-20 19:58,7.8,15.3,0.0,0.0,1014.29,61.0,1.7,15.3,0.0,15.3,233.0,SW,18.4,15.5,DRY,,9999.0,,Twilight,0.0,cloudy.gif
2025-04-20 20:03,8.2,15.2,0.0,0.0,1014.19,63.0,1.0,15.2,0.0,15.2,281.0,W,9.4,6.1,DRY,,9999.0,,Twilight,0.0,cloudy.gif
2025-04-20 20:08,7.9,15.1,0.0,0.0,1014.19,62.0,0.5,15.1,0.0,15.1,256.0,W,5.4,5.4,DRY,,9999.0,,Twilight,0.0,cloudy.gif
2025-04-20 20:13,8.0,15.0,0.0,0.0,1014.49,63.0,0.2,15.0,0.0,15.0,202.0,S,5.4,4.7,DRY,,9999.0,,Twilight,0.0,cloudy.gif
2025-04-20 20:18,8.0,15.0,0.0,0.0,1014.7,63.0,0.1,15.0,0.0,15.0,241.0,SW,9.4,4.7,DRY,,9999.0,,Twilight,0.0,cloudy.gif
2025-04-20 20:23,8.1,15.1,0.0,0.0,1014.6,63.0,0.0,15.1,0.0,15.1,252.0,W,13.0,10.1,DRY,,9999.0,,Twilight,0.0,cloudy.gif
2025-04-20 20:28,7.8,15.0,0.0,0.0,1014.49,62.0,0.0,15.0,0.0,15.0,241.0,SW,16.6,13.0,DRY,,9999.0,,Twilight,0.0,cloudy.gif
2025-04-20 20:33,8.1,14.8,0.0,0.0,1014.6,64.0,0.0,14.8,0.0,14.8,257.0,W,5.4,4.7,DRY,,9999.0,,Night,0.0,night.gif
2025-04-20 20:38,8.0,14.7,0.0,0.0,1014.7,64.0,0.0,14.7,0.0,14.7,225.0,SW,9.4,7.2,DRY,,9999.0,,Night,0.0,night.gif
2025-04-20 20:43,7.8,14.8,0.0,0.0,1014.49,63.0,0.0,14.8,0.0,14.8,226.0,SW,7.2,4.7,DRY,,9999.0,,Night,0.0,night.gif
2025-04-20 20:48,8.0,14.7,0.0,0.0,1014.49,64.0,0.0,14.7,0.0,14.7,183.0,S,11.2,9.0,DRY,,9999.0,,Night,0.0,night.gif
2025-04-20 20:53,8.0,14.7,0.0,0.0,1014.39,64.0,0.0,14.7,0.0,14.7,192.0,S,5.4,4.7,DRY,,9999.0,,Night,0.0,night.gif
2025-04-20 20:58,8.0,14.7,0.0,0.0,1014.39,64.0,0.0,14.7,0.0,14.7,198.0,S,7.2,5.4,DRY,,9999.0,,Night,0.0,night.gif
2025-04-20 21:03,8.0,14.7,0.0,0.0,1014.39,64.0,0.0,14.7,0.0,14.7,245.0,SW,14.8,5.4,DRY,,9999.0,,Night,0.0,night.gif
2025-04-20 21:08,7.6,14.6,0.0,0.0,1014.29,63.0,0.0,14.6,0.0,14.6,202.0,S,9.4,6.1,DRY,,9999.0,,Night,0.0,night.gif
2025-04-20 21:13,7.7,14.9,0.0,0.0,1014.49,62.0,0.0,14.9,0.0,14.9,242.0,SW,13.0,7.9,DRY,,9999.0,,Night,0.0,night.gif
2025-04-20 21:18,7.4,14.9,0.0,0.0,1014.39,61.0,0.0,14.9,0.0,14.9,245.0,SW,9.4,7.6,DRY,,9999.0,,Night,0.0,night.gif
2025-04-20 21:23,7.5,15.0,0.0,0.0,1014.49,61.0,0.0,15.0,0.0,15.0,241.0,SW,7.2,4.7,DRY,,9999.0,,Night,0.0,night.gif
2025-04-20 21:28,7.4,14.9,0.0,0.0,1014.6,61.0,0.0,14.9,0.0,14.9,225.0,SW,20.2,15.5,DRY,,9999.0,,Night,0.0,night.gif
2025-04-20 21:33,7.6,14.8,0.0,0.0,1014.6,62.0,0.0,14.8,0.0,14.8,230.0,SW,5.4,2.9,DRY,,9999.0,,Night,0.0,night.gif
2025-04-20 21:38,7.5,14.7,0.0,0.0,1014.7,62.0,0.0,14.7,0.0,14.7,211.0,SW,14.8,13.0,DRY,,9999.0,,Night,0.0,night.gif
2025-04-20 21:43,7.3,14.7,0.0,0.0,1014.49,61.0,0.0,14.7,0.0,14.7,266.0,W,14.8,11.5,DRY,,9999.0,,Night,0.0,night.gif
2025-04-20 21:48,7.3,14.7,0.0,0.0,1014.7,61.0,0.0,14.7,0.0,14.7,266.0,W,5.4,4.3,DRY,,9999.0,,Night,0.0,night.gif
2025-04-20 21:53,7.5,14.7,0.0,0.0,1014.7,62.0,0.0,14.7,0.0,14.7,279.0,W,3.6,2.2,DRY,,9999.0,,Night,0.0,night.gif
2025-04-20 21:58,7.5,14.7,0.0,0.0,1014.6,62.0,0.0,14.7,0.0,14.7,252.0,W,18.4,11.2,DRY,,9999.0,,Night,0.0,night.gif
2025-04-20 22:03,7.5,14.7,0.0,0.0,1014.49,62.0,0.0,14.7,0.0,14.7,266.0,W,14.8,12.2,DRY,,9999.0,,Night,0.0,night.gif
2025-04-20 22:08,7.6,14.6,0.0,0.0,1014.7,63.0,0.0,14.6,0.0,14.6,297.0,NW,9.4,6.5,DRY,,9999.0,,Night,0.0,night.gif
2025-04-20 22:13,7.6,14.3,0.0,0.0,1014.7,64.0,0.0,14.3,0.0,14.3,320.0,NW,3.6,1.4,DRY,,9999.0,,Night,0.0,night.gif
2025-04-20 22:18,7.6,14.3,0.0,0.0,1014.49,64.0,0.0,14.3,0.0,14.3,307.0,NW,11.2,9.4,DRY,,9999.0,,Night,0.0,night.gif
2025-04-20 22:23,8.0,14.5,0.0,0.0,1014.7,65.0,0.0,14.5,0.0,14.5,301.0,NW,3.6,3.6,DRY,,9999.0,,Night,0.0,night.gif
2025-04-20 22:28,7.9,14.1,0.0,0.0,1014.9,66.0,0.0,14.1,0.0,14.1,38.0,NE,1.8,0.7,DRY,,9999.0,,Night,0.0,night.gif
2025-04-20 22:33,8.0,14.0,0.0,0.0,1014.9,67.0,0.0,14.0,0.0,14.0,47.0,NE,1.8,0.4,DRY,,9999.0,,Night,0.0,night.gif
2025-04-20 22:38,7.7,13.7,0.0,0.0,1014.7,67.0,0.0,13.7,0.0,13.7,240.0,SW,11.2,8.6,DRY,,9999.0,,Night,0.0,night.gif
2025-04-20 22:43,7.8,14.3,0.0,0.0,1014.8,65.0,0.0,14.3,0.0,14.3,213.0,SW,14.8,11.2,DRY,,9999.0,,Night,0.0,night.gif
2025-04-20 22:48,7.9,14.4,0.0,0.0,1014.9,65.0,0.0,14.4,0.0,14.4,134.0,SE,1.8,1.8,DRY,,9999.0,,Night,0.0,night.gif
2025-04-20 22:53,8.0,14.0,0.0,0.0,1015.0,67.0,0.0,14.0,0.0,14.0,227.0,SW,3.6,2.5,DRY,,9999.0,,Night,0.0,night.gif
2025-04-20 22:58,7.9,13.9,0.0,0.0,1015.1,67.0,0.0,13.9,0.0,13.9,314.0,NW,5.4,2.9,DRY,,9999.0,,Night,0.0,night.gif
2025-04-20 23:03,7.8,14.0,0.0,0.0,1014.8,66.0,0.0,14.0,0.0,14.0,241.0,SW,5.4,4.7,DRY,,9999.0,,Night,0.0,night.gif
2025-04-20 23:08,8.0,14.0,0.0,0.0,1014.9,67.0,0.0,14.0,0.0,14.0,331.0,NW,0.0,0.0,DRY,,9999.0,,Night,0.0,night.gif
2025-04-20 23:13,8.1,13.9,0.0,0.0,1014.8,68.0,0.0,13.9,0.0,13.9,332.0,NW,3.6,3.6,DRY,,9999.0,,Night,0.0,night.gif
2025-04-20 23:18,7.9,13.5,0.0,0.0,1014.9,69.0,0.0,13.5,0.0,13.5,326.0,NW,1.8,1.8,DRY,,9999.0,,Night,0.0,night.gif
2025-04-20 23:23,7.7,13.0,0.0,0.0,1014.8,70.0,0.0,13.0,0.0,13.0,311.0,NW,5.4,4.7,DRY,,9999.0,,Night,0.0,night.gif
2025-04-20 23:28,8.0,12.9,0.0,0.0,1014.8,72.0,0.0,12.9,0.0,12.9,330.0,NW,5.4,4.0,DRY,,9999.0,,Night,0.0,night.gif
2025-04-20 23:33,7.9,12.4,0.0,0.0,1015.0,74.0,0.0,12.4,0.0,12.4,320.0,NW,3.6,3.6,DRY,,9999.0,,Night,0.0,night.gif
2025-04-20 23:38,8.0,12.3,0.0,0.0,1014.9,75.0,0.0,12.3,0.0,12.3,333.0,NW,3.6,2.9,DRY,,9999.0,,Night,0.0,night.gif
2025-04-20 23:43,8.2,12.3,0.0,0.0,1015.0,76.0,0.0,12.3,0.0,12.3,338.0,N,5.4,5.4,DRY,,9999.0,,Night,0.0,night.gif
2025-04-20 23:48,8.1,12.0,0.0,0.0,1014.8,77.0,0.0,12.0,0.0,12.0,346.0,N,7.2,7.2,DRY,,9999.0,,Night,0.0,night.gif
2025-04-20 23:53,7.6,11.7,0.0,0.0,1014.8,76.0,0.0,11.7,0.0,11.7,336.0,NW,7.2,7.2,DRY,,9999.0,,Night,0.0,night.gif
2025-04-20 23:58,8.2,11.9,0.0,0.0,1014.8,78.0,0.0,11.9,0.0,11.9,339.0,N,3.6,2.2,DRY,,9999.0,,Night,0.0,night.gif
2025-04-21 00:03,8.0,12.9,0.0,0.0,1014.7,72.0,0.0,12.9,0.0,12.9,283.0,W,5.4,4.0,DRY,,9999.0,,Night,0.0,night.gif
2025-04-21 00:08,8.0,12.7,0.0,0.0,1014.8,73.0,0.0,12.7,0.0,12.7,6.0,N,7.2,6.1,DRY,,9999.0,,Night,0.0,night.gif
2025-04-21 00:13,8.0,12.3,0.0,0.0,1014.8,75.0,0.0,12.3,0.0,12.3,339.0,N,7.2,6.1,DRY,,9999.0,,Night,0.0,night.gif
2025-04-21 00:18,8.0,11.7,0.0,0.0,1014.6,78.0,0.0,11.7,0.0,11.7,352.0,N,7.2,5.8,DRY,,9999.0,,Night,0.0,night.gif
2025-04-21 00:23,8.0,11.3,0.0,0.0,1014.8,80.0,0.0,11.3,0.0,11.3,320.0,NW,1.8,0.4,DRY,,9999.0,,Night,0.0,night.gif
2025-04-21 00:28,7.6,11.3,0.0,0.0,1014.7,78.0,0.0,11.3,0.0,11.3,335.0,NW,9.4,7.6,DRY,,9999.0,,Night,0.0,night.gif
2025-04-21 00:33,8.2,12.1,0.0,0.0,1014.9,77.0,0.0,12.1,0.0,12.1,354.0,N,3.6,3.6,DRY,,9999.0,,Night,0.0,night.gif
2025-04-21 00:38,8.1,11.3,0.0,0.0,1014.9,81.0,0.0,11.3,0.0,11.3,26.0,NE,3.6,2.5,DRY,,9999.0,,Night,0.0,night.gif
2025-04-21 00:43,7.9,10.8,0.0,0.0,1014.7,82.0,0.0,10.8,0.0,10.8,3.0,N,5.4,5.4,DRY,,9999.0,,Night,0.0,night.gif
2025-04-21 00:48,8.2,11.7,0.0,0.0,1014.9,79.0,0.0,11.7,0.0,11.7,350.0,N,1.8,1.4,DRY,,9999.0,,Night,0.0,night.gif
2025-04-21 00:53,8.1,11.0,0.0,0.0,1014.9,82.0,0.0,11.0,0.0,11.0,350.0,N,0.0,0.0,DRY,,9999.0,,Night,0.0,night.gif
2025-04-21 00:58,7.6,10.7,0.0,0.0,1014.8,81.0,0.0,10.7,0.0,10.7,336.0,NW,1.8,1.4,DRY,,9999.0,,Night,0.0,night.gif
2025-04-21 01:03,7.9,11.0,0.0,0.0,1015.0,81.0,0.0,11.0,0.0,11.0,170.0,S,1.8,1.8,DRY,,9999.0,,Night,0.0,night.gif
2025-04-21 01:08,7.9,11.6,0.0,0.0,1015.0,78.0,0.0,11.6,0.0,11.6,9.0,N,1.8,1.1,DRY,,9999.0,,Night,0.0,night.gif
2025-04-21 01:13,7.9,11.4,0.0,0.0,1014.9,79.0,0.0,11.4,0.0,11.4,207.0,SW,3.6,3.2,DRY,,9999.0,,Night,0.0,night.gif
2025-04-21 01:18,7.6,11.5,0.0,0.0,1014.9,77.0,0.0,11.5,0.0,11.5,82.0,E,1.8,1.4,DRY,,9999.0,,Night,0.0,night.gif
2025-04-21 01:23,7.8,11.5,0.0,0.0,1014.8,78.0,0.0,11.5,0.0,11.5,323.0,NW,0.0,0.0,DRY,,9999.0,,Night,0.0,night.gif
2025-04-21 01:28,7.7,11.6,0.0,0.0,1014.8,77.0,0.0,11.6,0.0,11.6,257.0,W,1.8,1.4,DRY,,9999.0,,Night,0.0,night.gif
2025-04-21 01:33,8.1,11.8,0.0,0.0,1014.9,78.0,0.0,11.8,0.0,11.8,165.0,S,1.8,0.4,DRY,,9999.0,,Night,0.0,night.gif
2025-04-21 01:38,7.8,11.3,0.0,0.0,1014.7,79.0,0.0,11.3,0.0,11.3,165.0,S,0.0,0.0,DRY,,9999.0,,Night,0.0,night.gif
2025-04-21 01:43,7.5,11.0,0.0,0.0,1014.8,79.0,0.0,11.0,0.0,11.0,106.0,E,0.0,0.0,DRY,,9999.0,,Night,0.0,night.gif
2025-04-21 01:48,7.6,11.1,0.0,0.0,1014.7,79.0,0.0,11.1,0.0,11.1,148.0,SE,0.0,0.0,DRY,,9999.0,,Night,0.0,night.gif
2025-04-21 01:53,7.2,11.5,0.0,0.0,1014.8,75.0,0.0,11.5,0.0,11.5,324.0,NW,7.2,4.3,DRY,,9999.0,,Night,0.0,night.gif
2025-04-21 01:58,7.5,12.6,0.0,0.0,1014.8,71.0,0.0,12.6,0.0,12.6,289.0,W,1.8,1.4,DRY,,9999.0,,Night,0.0,night.gif
2025-04-21 02:03,7.6,12.9,0.0,0.0,1014.6,70.0,0.0,12.9,0.0,12.9,234.0,SW,3.6,2.2,DRY,,9999.0,,Night,0.0,night.gif
2025-04-21 02:08,7.4,12.9,0.0,0.0,1014.6,69.0,0.0,12.9,0.0,12.9,276.0,W,9.4,6.1,DRY,,9999.0,,Night,0.0,night.gif
2025-04-21 02:13,7.6,13.2,0.0,0.0,1014.6,69.0,0.0,13.2,0.0,13.2,319.0,NW,5.4,4.0,DRY,,9999.0,,Night,0.0,night.gif
2025-04-21 02:18,7.7,13.0,0.0,0.0,1014.8,70.0,0.0,13.0,0.0,13.0,325.0,NW,7.2,5.0,DRY,,9999.0,,Night,0.0,night.gif
2025-04-21 02:23,7.6,12.7,0.0,0.0,1014.9,71.0,0.0,12.7,0.0,12.7,303.0,NW,3.6,2.5,DRY,,9999.0,,Night,0.0,night.gif
2025-04-21 02:28,7.7,13.0,0.0,0.0,1014.9,70.0,0.0,13.0,0.0,13.0,311.0,NW,1.8,1.8,DRY,,9999.0,,Night,0.0,night.gif
2025-04-21 02:33,7.4,12.7,0.0,0.0,1014.9,70.0,0.0,12.7,0.0,12.7,309.0,NW,3.6,3.6,DRY,,9999.0,,Night,0.0,night.gif
2025-04-21 02:38,7.5,12.6,0.0,0.0,1014.8,71.0,0.0,12.6,0.0,12.6,293.0,NW,7.2,5.4,DRY,,9999.0,,Night,0.0,night.gif
2025-04-21 02:43,7.5,12.6,0.0,0.0,1014.8,71.0,0.0,12.6,0.0,12.6,252.0,W,5.4,3.6,DRY,,9999.0,,Night,0.0,night.gif
2025-04-21 02:48,7.4,12.5,0.0,0.0,1015.0,71.0,0.0,12.5,0.0,12.5,313.0,NW,3.6,3.6,DRY,,9999.0,,Night,0.0,night.gif
2025-04-21 02:53,7.6,12.5,0.0,0.0,1015.0,72.0,0.0,12.5,0.0,12.5,300.0,NW,5.4,4.0,DRY,,9999.0,,Night,0.0,night.gif
2025-04-21 02:58,7.6,12.3,0.0,0.0,1014.9,73.0,0.0,12.3,0.0,12.3,327.0,NW,5.4,5.4,DRY,,9999.0,,Night,0.0,night.gif
2025-04-21 03:03,7.6,11.9,0.0,0.0,1014.9,75.0,0.0,11.9,0.0,11.9,310.0,NW,7.2,5.8,DRY,,9999.0,,Night,0.0,night.gif
2025-04-21 03:08,7.4,12.1,0.0,0.0,1014.8,73.0,0.0,12.1,0.0,12.1,314.0,NW,5.4,5.4,DRY,,9999.0,,Night,0.0,night.gif
2025-04-21 03:13,7.6,12.1,0.0,0.0,1014.7,74.0,0.0,12.1,0.0,12.1,317.0,NW,1.8,1.8,DRY,,9999.0,,Night,0.0,night.gif
2025-04-21 03:18,7.4,12.1,0.0,0.0,1014.8,73.0,0.0,12.1,0.0,12.1,303.0,NW,5.4,4.0,DRY,,9999.0,,Night,0.0,night.gif
2025-04-21 03:23,7.7,12.2,0.0,0.0,1014.9,74.0,0.0,12.2,0.0,12.2,306.0,NW,3.6,2.2,DRY,,9999.0,,Night,0.0,night.gif
2025-04-21 03:28,7.5,11.8,0.0,0.0,1014.9,75.0,0.0,11.8,0.0,11.8,240.0,SW,0.0,0.0,DRY,,9999.0,,Night,0.0,night.gif
2025-04-21 03:33,7.8,11.7,0.0,0.0,1014.8,77.0,0.0,11.7,0.0,11.7,244.0,SW,0.0,0.0,DRY,,9999.0,,Night,0.0,night.gif
2025-04-21 03:38,7.6,11.3,0.0,0.0,1014.9,78.0,0.0,11.3,0.0,11.3,54.0,NE,1.8,0.4,DRY,,9999.0,,Night,0.0,night.gif
2025-04-21 03:43,7.9,11.0,0.0,0.0,1014.7,81.0,0.0,11.0,0.0,11.0,10.0,N,5.4,4.0,DRY,,9999.0,,Night,0.0,night.gif
2025-04-21 03:48,7.5,10.4,0.0,0.0,1014.8,82.0,0.0,10.4,0.0,10.4,16.0,N,3.6,2.2,DRY,,9999.0,,Night,0.0,night.gif
2025-04-21 03:53,7.4,9.6,0.0,0.0,1014.9,86.0,0.0,9.6,0.0,9.6,6.0,N,3.6,2.9,DRY,,9999.0,,Night,0.0,night.gif
2025-04-21 03:58,7.2,9.3,0.0,0.0,1015.0,87.0,0.0,9.3,0.0,9.3,19.0,N,3.6,3.6,DRY,,9999.0,,Night,0.0,night.gif
2025-04-21 04:03,7.2,8.9,0.0,0.0,1014.9,89.0,0.0,8.9,0.0,8.9,27.0,NE,0.0,0.0,DRY,,9999.0,,Night,0.0,night.gif
2025-04-21 04:08,7.3,9.4,0.0,0.0,1014.9,87.0,0.0,9.4,0.0,9.4,37.0,NE,0.0,0.0,DRY,,9999.0,,Night,0.0,night.gif
2025-04-21 04:13,7.3,9.1,0.0,0.0,1014.9,89.0,0.0,9.1,0.0,9.1,119.0,SE,0.0,0.0,DRY,,9999.0,,Night,0.0,night.gif
2025-04-21 04:18,7.2,9.3,0.0,0.0,1014.9,87.0,0.0,9.3,0.0,9.3,120.0,SE,1.8,0.4,DRY,,9999.0,,Night,0.0,night.gif
2025-04-21 04:23,7.4,9.6,0.0,0.0,1014.9,86.0,0.0,9.6,0.0,9.6,119.0,SE,1.8,0.4,DRY,,9999.0,,Night,0.0,night.gif
2025-04-21 04:28,7.5,9.9,0.0,0.0,1014.9,85.0,0.0,9.9,0.0,9.9,348.0,N,3.6,2.9,DRY,,9999.0,,Night,0.0,night.gif
2025-04-21 04:33,7.2,9.1,0.0,0.0,1014.8,88.0,0.0,9.1,0.0,9.1,333.0,NW,5.4,4.7,DRY,,9999.0,,Night,0.0,night.gif
2025-04-21 04:38,7.1,8.8,0.0,0.0,1014.7,89.0,0.0,8.8,0.0,8.0,18.0,N,9.4,6.1,DRY,,9999.0,,Night,0.0,night.gif
2025-04-21 04:43,7.1,8.7,0.0,0.0,1014.7,90.0,0.0,8.7,0.0,8.7,335.0,NW,5.4,4.0,DRY,,9999.0,,Night,0.0,night.gif
2025-04-21 04:48,7.2,8.9,0.0,0.0,1014.9,89.0,0.0,8.9,0.0,8.9,114.0,SE,3.6,3.6,DRY,,9999.0,,Night,0.0,night.gif
2025-04-21 04:53,7.1,9.2,0.0,0.0,1015.0,87.0,0.0,9.2,0.0,9.2,66.0,NE,3.6,2.9,DRY,,9999.0,,Night,0.0,night.gif
2025-04-21 04:58,7.5,9.7,0.0,0.0,1015.0,86.0,0.0,9.7,0.0,9.7,42.0,NE,5.4,3.6,DRY,,9999.0,,Night,0.0,night.gif
2025-04-21 05:03,7.3,9.9,0.0,0.0,1014.8,84.0,0.0,9.9,0.0,9.9,47.0,NE,5.4,4.7,DRY,,9999.0,,Night,0.0,night.gif
2025-04-21 05:08,7.6,10.0,0.0,0.0,1015.1,85.0,0.0,10.0,0.0,10.0,36.0,NE,1.8,0.4,DRY,,9999.0,,Night,0.0,night.gif
2025-04-21 05:13,7.6,9.7,0.0,0.0,1015.0,87.0,0.0,9.7,0.0,9.7,87.0,E,3.6,3.6,DRY,,9999.0,,Night,0.0,night.gif
2025-04-21 05:18,7.3,9.4,0.0,0.0,1014.9,87.0,0.0,9.4,0.0,9.4,101.0,E,1.8,1.4,DRY,,9999.0,,Night,0.0,night.gif
2025-04-21 05:23,7.4,9.6,0.0,0.0,1014.8,86.0,0.0,9.6,0.0,9.6,137.0,SE,5.4,4.7,DRY,,9999.0,,Night,0.0,night.gif
2025-04-21 05:28,7.5,9.9,0.0,0.0,1015.0,85.0,0.0,9.9,0.0,9.9,155.0,SE,3.6,3.6,DRY,,9999.0,,Night,0.0,night.gif
2025-04-21 05:33,7.4,9.5,0.0,0.0,1014.8,87.0,0.0,9.5,0.0,9.5,123.0,SE,1.8,1.1,DRY,,9999.0,,Twilight,0.0,cloudy.gif
2025-04-21 05:38,7.4,9.5,0.0,0.0,1014.7,87.0,0.0,9.5,0.0,9.5,123.0,SE,1.8,1.4,DRY,,9999.0,,Twilight,0.0,cloudy.gif
2025-04-21 05:43,7.3,9.2,0.0,0.0,1014.7,88.0,0.1,9.2,0.0,9.2,27.0,NE,1.8,1.8,DRY,,9999.0,,Twilight,0.0,cloudy.gif
2025-04-21 05:48,7.3,9.0,0.0,0.0,1014.9,89.0,0.1,9.0,0.0,9.0,26.0,NE,3.6,3.6,DRY,,9999.0,,Twilight,0.0,cloudy.gif
2025-04-21 05:53,7.0,8.7,0.0,0.0,1014.7,89.0,0.4,8.7,0.0,8.7,15.0,N,0.0,0.0,DRY,,9999.0,,Twilight,0.0,cloudy.gif
2025-04-21 05:58,7.0,8.5,0.0,0.0,1014.9,90.0,0.7,8.5,0.0,8.5,15.0,N,0.0,0.0,DRY,,9999.0,,Twilight,0.0,cloudy.gif
2025-04-21 06:03,7.1,8.4,0.0,0.0,1014.8,91.0,1.3,8.4,0.0,8.4,15.0,N,0.0,0.0,DRY,,9999.0,,Twilight,0.0,cloudy.gif
2025-04-21 06:08,7.3,8.6,0.0,0.0,1014.8,91.0,2.0,8.6,0.0,8.6,348.0,N,1.8,1.4,DRY,,9999.0,,Sunny,1.4977415404928582,sunny.gif
2025-04-21 06:13,7.1,8.7,0.0,0.0,1014.7,90.0,3.1,8.7,0.0,8.7,348.0,N,1.8,1.8,DRY,,9999.0,,Partly Cloudy,8.246566584962228,partly_cloudy.gif
2025-04-21 06:18,7.2,8.5,0.0,0.0,1014.9,91.0,4.3,8.5,0.0,8.5,348.0,N,1.8,1.8,DRY,,9999.0,,Mostly Cloudy,15.345819344794966,mostly_cloudy.gif
2025-04-21 06:23,7.1,8.4,0.0,0.0,1014.8,91.0,5.7,8.4,0.0,8.4,347.0,N,1.8,1.8,DRY,,9999.0,,Mostly Cloudy,22.701728120919974,mostly_cloudy.gif
2025-04-21 06:28,7.2,8.5,0.0,0.0,1014.8,91.0,7.4,8.5,0.0,8.5,336.0,NW,1.8,1.8,DRY,,9999.0,,Mostly Cloudy,30.23964268917206,mostly_cloudy.gif
2025-04-21 06:33,7.2,8.5,0.0,0.0,1014.8,91.0,9.1,8.5,0.0,8.5,313.0,NW,1.8,1.8,DRY,,9999.0,,Mostly Cloudy,37.90522665067756,mostly_cloudy.gif
2025-04-21 06:38,7.1,8.4,0.0,0.0,1015.0,91.0,10.9,8.4,0.0,8.4,345.0,N,3.6,3.6,DRY,,9999.0,,Mostly Cloudy,45.665505698902294,mostly_cloudy.gif
2025-04-21 06:43,6.6,7.8,0.0,0.0,1015.21,92.0,12.6,7.8,0.0,7.8,0.0,N,0.0,0.0,DRY,,9999.0,,Mostly Cloudy,53.50996660791648,mostly_cloudy.gif
2025-04-21 06:48,6.6,7.7,0.0,0.0,1015.21,93.0,14.5,7.7,0.0,7.7,2.0,N,1.8,1.8,DRY,,9999.0,,Mostly Cloudy,61.40285709352095,mostly_cloudy.gif
2025-04-21 06:53,6.7,7.8,0.0,0.0,1015.1,93.0,17.0,7.8,0.0,7.8,19.0,N,1.8,1.1,DRY,,9999.0,,Mostly Cloudy,69.33354808223514,mostly_cloudy.gif
2025-04-21 06:58,6.4,7.5,0.0,0.0,1015.21,93.0,20.0,7.5,0.0,7.5,18.0,N,1.8,1.1,DRY,,9999.0,,Mostly Cloudy,77.29205389236517,mostly_cloudy.gif
2025-04-21 07:03,6.7,7.7,0.0,0.0,1015.21,94.0,23.4,7.7,0.0,7.7,321.0,NW,3.6,3.6,DRY,,9999.0,,Mostly Cloudy,85.26990942383968,mostly_cloudy.gif
2025-04-21 07:08,6.9,8.0,0.0,0.0,1015.1,93.0,25.9,8.0,0.0,8.0,330.0,NW,1.8,1.4,DRY,,9999.0,,Mostly Cloudy,93.25976613078828,mostly_cloudy.gif
2025-04-21 07:13,7.0,8.1,0.0,0.0,1015.1,93.0,28.7,8.1,0.0,8.1,329.0,NW,1.8,1.4,DRY,,9999.0,,Mostly Cloudy,105.33723591886766,mostly_cloudy.gif
2025-04-21 07:18,7.1,8.3,0.0,0.0,1015.1,92.0,32.4,8.3,0.0,8.3,329.0,NW,0.0,0.0,DRY,,9999.0,,Mostly Cloudy,118.4715456603644,mostly_cloudy.gif
2025-04-21 07:23,7.2,8.5,0.0,0.0,1015.41,91.0,38.5,8.5,0.0,8.5,329.0,NW,0.0,0.0,DRY,,9999.0,,Mostly Cloudy,131.77211335452236,mostly_cloudy.gif
2025-04-21 07:28,7.1,8.7,0.0,0.0,1015.31,90.0,46.1,8.7,0.0,8.7,329.0,NW,1.8,0.4,DRY,,9999.0,,Mostly Cloudy,145.2016223463532,mostly_cloudy.gif
2025-04-21 07:33,7.3,8.9,0.0,0.0,1015.21,90.0,54.1,8.9,0.0,8.9,329.0,NW,1.8,0.7,DRY,,9999.0,,Mostly Cloudy,158.72879062189926,mostly_cloudy.gif
2025-04-21 07:38,7.7,9.0,0.0,0.0,1015.31,91.0,71.2,9.0,0.0,9.0,28.0,NE,3.6,2.9,DRY,,9999.0,,Partly Cloudy,172.32697475272346,partly_cloudy.gif
2025-04-21 07:43,7.4,8.6,0.0,0.0,1015.41,92.0,81.6,8.6,0.0,8.6,39.0,NE,5.4,4.7,DRY,,9999.0,,Partly Cloudy,185.9731399257782,partly_cloudy.gif
2025-04-21 07:48,7.9,9.2,0.0,0.0,1015.41,91.0,90.6,9.2,0.0,9.2,55.0,NE,1.8,0.4,DRY,,9999.0,,Partly Cloudy,199.64709118346278,partly_cloudy.gif
2025-04-21 07:53,7.7,9.3,0.0,0.0,1015.51,90.0,97.1,9.3,0.0,9.3,54.0,NE,1.8,1.1,DRY,,9999.0,,Partly Cloudy,213.33089323882413,partly_cloudy.gif
2025-04-21 07:58,7.9,9.5,0.0,0.0,1015.21,90.0,99.9,9.5,0.0,9.5,347.0,N,1.8,1.8,DRY,,9999.0,,Partly Cloudy,227.00842800689344,partly_cloudy.gif
2025-04-21 08:03,7.9,9.7,0.0,0.0,1015.41,89.0,113.1,9.7,1.0,9.7,348.0,N,0.0,0.0,DRY,,9999.0,,Partly Cloudy,240.66505378034708,partly_cloudy.gif
2025-04-21 08:08,7.9,10.0,0.0,0.0,1015.31,87.0,130.3,10.0,1.0,10.0,347.0,N,0.0,0.0,DRY,,9999.0,,Partly Cloudy,254.2873403256983,partly_cloudy.gif
2025-04-21 08:13,8.2,10.4,0.0,0.0,1015.41,86.0,150.8,10.4,1.0,10.4,345.0,N,1.8,0.4,DRY,,9999.0,,Partly Cloudy,267.86286117465625,partly_cloudy.gif
2025-04-21 08:18,8.3,10.7,0.0,0.0,1015.31,85.0,166.1,10.7,1.0,10.7,40.0,NE,1.8,1.4,DRY,,9999.0,,Partly Cloudy,281.380029525035,partly_cloudy.gif
2025-04-21 08:23,8.3,10.9,0.0,0.0,1015.31,84.0,183.2,10.9,1.0,10.9,75.0,E,0.0,0.0,DRY,,9999.0,,Partly Cloudy,294.8279676012197,partly_cloudy.gif
2025-04-21 08:28,8.1,10.7,0.0,0.0,1015.31,84.0,205.4,10.7,2.0,10.7,22.0,N,3.6,2.9,DRY,,9999.0,,Mostly Sunny,308.19640200966836,mostly_sunny.gif
2025-04-21 08:33,8.3,11.1,0.0,0.0,1015.0,83.0,217.1,11.1,2.0,11.1,32.0,NE,1.8,0.4,DRY,,9999.0,,Mostly Sunny,321.4755793705875,mostly_sunny.gif
2025-04-21 08:38,8.5,11.3,0.0,0.0,1015.1,83.0,234.0,11.3,2.0,11.3,329.0,NW,1.8,1.8,DRY,,9999.0,,Mostly Sunny,334.65619793776114,mostly_sunny.gif
2025-04-21 08:43,8.7,11.7,0.0,0.0,1015.31,82.0,247.8,11.7,2.0,11.7,328.0,NW,1.8,1.8,DRY,,9999.0,,Mostly Sunny,347.7293519248364,mostly_sunny.gif
2025-04-21 08:48,8.9,12.2,0.0,0.0,1015.0,80.0,256.9,12.2,2.0,12.2,326.0,NW,1.8,1.8,DRY,,9999.0,,Mostly Sunny,360.6864859380049,mostly_sunny.gif
2025-04-21 08:53,8.9,12.1,0.0,0.0,1015.1,81.0,267.5,12.1,2.0,12.1,301.0,NW,1.8,1.1,DRY,,9999.0,,Mostly Sunny,373.5193575907148,mostly_sunny.gif
2025-04-21 08:58,9.3,12.7,0.0,0.0,1015.0,80.0,275.1,12.7,2.0,12.7,19.0,N,0.0,0.0,DRY,,9999.0,,Mostly Sunny,386.2200066808375,mostly_sunny.gif
2025-04-21 09:03,9.4,13.4,0.0,0.0,1015.1,77.0,276.7,13.4,2.0,13.4,327.0,NW,1.8,1.8,DRY,,9999.0,,Mostly Sunny,398.78072976368344,mostly_sunny.gif
2025-04-21 09:08,9.1,13.6,0.0,0.0,1015.0,74.0,269.4,13.6,2.0,13.6,70.0,E,1.8,0.4,DRY,,9999.0,,Mostly Sunny,411.19405908180585,mostly_sunny.gif
2025-04-21 09:13,9.9,14.4,0.0,0.0,1015.1,74.0,311.6,14.4,3.0,14.4,82.0,E,1.8,1.1,DRY,,9999.0,,Mostly Sunny,423.4527451307757,mostly_sunny.gif
2025-04-21 09:18,9.3,14.7,0.0,0.0,1014.9,70.0,311.3,14.7,3.0,14.7,81.0,E,1.8,0.4,DRY,,9999.0,,Mostly Sunny,435.5497421839891,mostly_sunny.gif
2025-04-21 09:23,9.2,14.8,0.0,0.0,1015.21,69.0,313.7,14.8,3.0,14.8,82.0,E,3.6,3.6,DRY,,9999.0,,Mostly Sunny,447.47819628799385,mostly_sunny.gif
2025-04-21 09:28,9.0,14.2,0.0,0.0,1015.1,71.0,314.7,14.2,3.0,14.2,49.0,NE,0.0,0.0,DRY,,9999.0,,Mostly Sunny,459.231435333605,mostly_sunny.gif
2025-04-21 09:33,9.6,15.2,0.0,0.0,1015.1,69.0,333.8,15.2,3.0,15.2,25.0,NE,0.0,0.0,DRY,,9999.0,,Mostly Sunny,470.80296081736356,mostly_sunny.gif
2025-04-21 09:38,9.5,15.4,0.0,0.0,1015.0,68.0,367.1,15.4,3.0,15.4,119.0,SE,1.8,1.4,DRY,,9999.0,,Mostly Sunny,482.1864410744614,mostly_sunny.gif
2025-04-21 09:43,9.6,15.2,0.0,0.0,1015.0,69.0,379.6,15.2,3.0,15.2,95.0,E,3.6,2.9,DRY,,9999.0,,Mostly Sunny,493.37570569331865,mostly_sunny.gif
2025-04-21 09:48,10.1,15.1,0.0,0.0,1014.9,72.0,394.3,15.1,3.0,15.1,113.0,SE,5.4,5.0,DRY,,9999.0,,Mostly Sunny,504.3647409819729,mostly_sunny.gif
2025-04-21 09:53,10.6,15.0,0.0,0.0,1014.7,75.0,420.5,15.0,4.0,15.0,80.0,E,3.6,3.2,DRY,,9999.0,,Mostly Sunny,515.1476862678961,mostly_sunny.gif
2025-04-21 09:58,9.7,15.1,0.0,0.0,1014.9,70.0,441.0,15.1,4.0,15.1,78.0,E,3.6,2.9,DRY,,9999.0,,Mostly Sunny,525.7188309567343,mostly_sunny.gif
2025-04-21 10:03,9.4,16.0,0.0,0.0,1014.9,65.0,449.1,16.0,4.0,16.0,71.0,E,1.8,1.8,DRY,,9999.0,,Mostly Sunny,536.072612191869,mostly_sunny.gif
2025-04-21 10:13,10.5,16.2,0.0,0.0,1014.6,69.0,467.6,16.2,4.0,16.2,90.0,E,3.6,2.2,DRY,,9999.0,,Mostly Sunny,556.1065611425848,mostly_sunny.gif
2025-04-21 10:18,10.4,16.3,0.0,0.0,1014.7,68.0,470.5,16.3,4.0,16.3,88.0,E,5.4,5.4,DRY,,9999.0,,Mostly Sunny,565.7763277155474,mostly_sunny.gif
2025-04-21 10:23,10.9,17.1,0.0,0.0,1014.49,67.0,480.6,17.1,4.0,17.1,106.0,E,5.4,4.3,DRY,,9999.0,,Mostly Sunny,575.207926904198,mostly_sunny.gif
2025-04-21 10:28,10.9,16.6,0.0,0.0,1014.7,69.0,493.0,16.6,4.0,16.6,116.0,SE,3.6,3.6,DRY,,9999.0,,Mostly Sunny,584.3965153780969,mostly_sunny.gif
2025-04-21 10:33,12.2,18.0,0.0,0.0,1014.39,69.0,467.1,18.0,4.0,18.0,81.0,E,1.8,1.4,DRY,,9999.0,,Mostly Sunny,593.3373921862394,mostly_sunny.gif
2025-04-21 10:38,10.2,17.3,0.0,0.0,1014.6,63.0,445.3,17.3,4.0,17.3,107.0,E,0.0,0.0,DRY,,9999.0,,Mostly Sunny,602.0259987771944,mostly_sunny.gif
2025-04-21 10:43,10.7,18.1,0.0,0.0,1014.49,62.0,507.7,18.1,4.0,18.1,104.0,E,1.8,1.8,DRY,,9999.0,,Mostly Sunny,610.4579192084694,mostly_sunny.gif
2025-04-21 10:48,10.5,17.9,0.0,0.0,1014.7,62.0,514.8,17.9,5.0,17.9,91.0,E,1.8,1.8,DRY,,9999.0,,Mostly Sunny,618.6288804732898,mostly_sunny.gif
2025-04-21 10:53,10.9,18.0,0.0,0.0,1014.49,63.0,520.0,18.0,5.0,18.0,101.0,E,7.2,5.4,DRY,,9999.0,,Mostly Sunny,626.5347529393175,mostly_sunny.gif
2025-04-21 10:58,11.5,18.7,0.0,0.0,1014.39,63.0,539.1,18.7,5.0,18.7,93.0,E,5.4,3.6,DRY,,9999.0,,Sunny,634.1715508958342,sunny.gif
2025-04-21 11:03,10.8,18.4,0.0,0.0,1014.49,61.0,529.0,18.4,5.0,18.4,74.0,E,1.8,1.4,DRY,,9999.0,,Mostly Sunny,641.5354331480761,mostly_sunny.gif
2025-04-21 11:08,11.5,18.9,0.0,0.0,1014.6,62.0,511.0,18.9,4.0,18.9,90.0,E,7.2,7.2,DRY,,9999.0,,Mostly Sunny,648.6227036967265,mostly_sunny.gif
2025-04-21 11:13,11.2,19.1,0.0,0.0,1014.6,60.0,520.0,19.1,5.0,19.1,115.0,SE,5.4,4.0,DRY,,9999.0,,Mostly Sunny,655.4298124335464,mostly_sunny.gif
2025-04-21 11:18,10.5,19.5,0.0,0.0,1014.6,56.0,536.7,19.5,5.0,19.5,82.0,E,5.4,4.7,DRY,,9999.0,,Mostly Sunny,661.9533558959633,mostly_sunny.gif
2025-04-21 11:23,10.6,19.3,0.0,0.0,1014.49,57.0,563.3,19.3,5.0,19.3,63.0,NE,1.8,1.1,DRY,,9999.0,,Mostly Sunny,668.1900780152328,mostly_sunny.gif
2025-04-21 11:28,10.2,18.9,0.0,0.0,1014.49,57.0,190.0,18.9,1.0,18.9,44.0,NE,0.0,0.0,DRY,,9999.0,,Cloudy,674.136870901576,cloudy.gif
2025-04-21 11:33,11.4,19.9,0.0,0.0,1014.39,58.0,506.3,19.9,4.0,19.9,105.0,E,9.4,8.3,DRY,,9999.0,,Mostly Sunny,679.7907756152861,mostly_sunny.gif
2025-04-21 11:38,11.1,19.6,0.0,0.0,1014.39,58.0,533.3,19.6,5.0,19.6,93.0,E,3.6,2.5,DRY,,9999.0,,Mostly Sunny,685.1489829337809,mostly_sunny.gif
2025-04-21 11:43,11.1,19.6,0.0,0.0,1014.29,58.0,273.4,19.6,2.0,19.6,111.0,E,7.2,6.5,DRY,,9999.0,,Mostly Cloudy,690.2088341242619,mostly_cloudy.gif
2025-04-21 11:48,10.6,19.3,0.0,0.0,1014.29,57.0,206.0,19.3,2.0,19.3,140.0,SE,7.2,6.8,DRY,,9999.0,,Cloudy,694.967821674866,cloudy.gif
2025-04-21 11:53,10.3,19.3,0.0,0.0,1014.29,56.0,270.5,19.3,2.0,19.3,107.0,E,3.6,2.2,DRY,,9999.0,,Mostly Cloudy,699.4235900302633,mostly_cloudy.gif
2025-04-21 11:58,11.1,19.6,0.0,0.0,1014.19,58.0,578.8,19.6,5.0,19.6,85.0,E,5.4,4.7,DRY,,9999.0,,Mostly Sunny,703.5739362744831,mostly_sunny.gif
2025-04-21 12:03,10.0,19.5,0.0,0.0,1014.19,54.0,577.6,19.5,5.0,19.5,68.0,E,5.4,4.0,DRY,,9999.0,,Mostly Sunny,707.4168108093874,mostly_sunny.gif
2025-04-21 12:08,11.9,20.4,0.0,0.0,1014.29,58.0,203.4,20.4,1.0,20.4,142.0,SE,1.8,0.4,DRY,,9999.0,,Cloudy,710.9503179727585,cloudy.gif
2025-04-21 12:13,11.2,20.2,0.0,0.0,1014.09,56.0,593.2,20.2,5.0,20.2,103.0,E,0.0,0.0,DRY,,9999.0,,Mostly Sunny,714.1727166433989,mostly_sunny.gif
2025-04-21 12:18,10.4,20.6,0.0,0.0,1014.09,52.0,277.5,20.6,2.0,20.6,306.0,NW,5.4,3.6,DRY,,9999.0,,Mostly Cloudy,717.0824207896059,mostly_cloudy.gif
2025-04-21 12:23,10.3,20.2,0.0,0.0,1014.09,53.0,347.6,20.2,3.0,20.2,132.0,SE,5.4,5.4,DRY,,9999.0,,Partly Cloudy,719.6779999750802,partly_cloudy.gif
2025-04-21 12:28,11.4,20.5,0.0,0.0,1013.99,56.0,546.4,20.5,5.0,20.5,118.0,SE,7.2,5.8,DRY,,9999.0,,Mostly Sunny,721.9581798356488,mostly_sunny.gif
2025-04-21 12:33,10.6,20.5,0.0,0.0,1014.09,53.0,248.1,20.5,2.0,20.5,128.0,SE,5.4,4.7,DRY,,9999.0,,Cloudy,723.9218424852475,cloudy.gif
2025-04-21 12:38,11.4,21.0,0.0,0.0,1013.99,54.0,302.9,21.0,2.0,21.0,100.0,E,3.6,2.2,DRY,,9999.0,,Mostly Cloudy,725.5680268986424,mostly_cloudy.gif
2025-04-21 12:43,12.0,20.5,0.0,0.0,1013.99,58.0,643.1,20.5,6.0,20.5,43.0,NE,1.8,0.4,DRY,,9999.0,,Sunny,726.8959292188823,sunny.gif
2025-04-21 12:48,10.1,20.7,0.0,0.0,1013.82,49.0,306.7,21.2,2.0,21.2,90.0,E,1.8,0.4,DRY,,9999.0,,Mostly Cloudy,727.9049030387018,mostly_cloudy.gif
2025-04-21 12:53,13.0,21.6,0.0,0.0,1013.72,57.0,254.4,21.9,2.0,21.9,120.0,SE,3.6,3.2,DRY,,9999.0,,Cloudy,728.5944596046725,cloudy.gif
2025-04-21 12:58,11.3,20.8,0.0,0.0,1013.61,53.0,582.8,21.2,5.0,21.2,301.0,NW,5.4,5.0,DRY,,9999.0,,Mostly Sunny,728.9642679917325,mostly_sunny.gif
2025-04-21 13:03,10.5,21.1,0.0,0.0,1013.82,49.0,307.9,21.6,3.0,21.6,298.0,NW,3.6,3.6,DRY,,9999.0,,Mostly Cloudy,729.0141552085989,mostly_cloudy.gif
2025-04-21 13:08,10.4,21.0,0.0,0.0,1013.82,49.0,260.0,21.5,2.0,21.5,256.0,W,13.0,8.6,DRY,,9999.0,,Mostly Cloudy,728.7441062493604,mostly_cloudy.gif
2025-04-21 13:13,10.8,21.3,0.0,0.0,1013.61,50.0,219.5,21.7,2.0,21.7,311.0,NW,5.4,4.0,DRY,,9999.0,,Cloudy,728.154264106089,cloudy.gif
2025-04-21 13:18,10.5,20.8,0.0,0.0,1013.61,50.0,435.3,21.3,4.0,21.3,268.0,W,5.4,5.4,DRY,,9999.0,,Partly Cloudy,727.2449297043953,partly_cloudy.gif
2025-04-21 13:23,9.2,21.0,0.0,0.0,1013.61,45.0,498.6,21.6,4.0,21.6,286.0,W,3.6,2.9,DRY,,9999.0,,Mostly Sunny,726.0165618092814,mostly_sunny.gif
2025-04-21 13:28,10.4,21.7,0.0,0.0,1013.61,47.0,360.2,22.2,3.0,22.2,274.0,W,5.4,4.0,DRY,,9999.0,,Partly Cloudy,724.4697768529875,partly_cloudy.gif
2025-04-21 13:33,10.7,21.4,0.0,0.0,1013.72,49.0,598.0,21.9,5.0,21.9,307.0,NW,7.2,6.5,DRY,,9999.0,,Mostly Sunny,722.6053487338188,mostly_sunny.gif
2025-04-21 13:38,11.7,21.6,0.0,0.0,1013.61,52.0,239.2,22.0,2.0,22.0,315.0,NW,9.4,7.2,DRY,,9999.0,,Cloudy,720.4242085384599,cloudy.gif
2025-04-21 13:43,9.8,21.3,0.0,0.0,1013.51,46.0,379.9,21.9,3.0,21.9,293.0,NW,5.4,4.7,DRY,,9999.0,,Partly Cloudy,717.9274442351306,partly_cloudy.gif
2025-04-21 13:48,9.8,21.1,0.0,0.0,1013.41,47.0,209.9,21.6,2.0,21.6,296.0,NW,13.0,9.7,DRY,,9999.0,,Cloudy,715.1163003014171,cloudy.gif
2025-04-21 13:53,10.6,21.3,0.0,0.0,1013.61,49.0,570.4,21.8,5.0,21.8,307.0,NW,7.2,5.0,DRY,,9999.0,,Mostly Sunny,711.992177302968,mostly_sunny.gif
2025-04-21 13:58,10.3,22.0,0.0,0.0,1013.41,46.0,515.9,22.5,5.0,22.5,309.0,NW,9.4,4.7,DRY,,9999.0,,Mostly Sunny,708.5566314395985,mostly_sunny.gif
2025-04-21 14:03,11.0,21.8,0.0,0.0,1013.51,49.0,261.7,22.2,2.0,22.2,231.0,SW,9.4,4.7,DRY,,9999.0,,Mostly Cloudy,704.8113740233648,mostly_cloudy.gif
2025-04-21 14:08,10.5,21.2,0.0,0.0,1013.61,49.0,279.6,21.7,2.0,21.7,285.0,W,7.2,4.7,DRY,,9999.0,,Mostly Cloudy,700.7582709368212,mostly_cloudy.gif
2025-04-21 14:13,9.7,21.2,0.0,0.0,1013.51,46.0,199.4,21.8,1.0,21.8,350.0,N,3.6,2.9,DRY,,9999.0,,Cloudy,696.3993420264471,cloudy.gif
2025-04-21 14:18,9.9,21.2,0.0,0.0,1013.51,47.0,196.6,21.7,1.0,21.7,283.0,W,7.2,4.7,DRY,,9999.0,,Cloudy,691.736760481085,cloudy.gif
2025-04-21 14:23,10.2,21.1,0.0,0.0,1013.61,48.0,260.1,21.6,2.0,21.6,335.0,NW,3.6,2.2,DRY,,9999.0,,Mostly Cloudy,686.772852151702,mostly_cloudy.gif
2025-04-21 14:28,9.8,21.3,0.0,0.0,1013.51,46.0,301.3,21.9,2.0,21.9,304.0,NW,7.2,7.2,DRY,,9999.0,,Mostly Cloudy,681.5100948610075,mostly_cloudy.gif
2025-04-21 14:33,10.3,21.3,0.0,0.0,1013.51,48.0,236.8,21.8,2.0,21.8,290.0,W,5.4,3.2,DRY,,9999.0,,Mostly Cloudy,675.9511176706161,mostly_cloudy.gif
2025-04-21 14:38,9.3,21.1,0.0,0.0,1013.61,45.0,195.5,21.7,1.0,21.7,300.0,NW,13.0,11.5,DRY,,9999.0,,Cloudy,670.0987001245481,cloudy.gif
2025-04-21 14:43,9.0,20.8,0.0,0.0,1013.51,45.0,250.3,21.4,2.0,21.4,284.0,W,20.2,16.2,DRY,,9999.0,,Mostly Cloudy,663.9557714887408,mostly_cloudy.gif
2025-04-21 14:48,9.7,20.9,0.0,0.0,1013.51,47.0,213.7,21.5,2.0,21.5,291.0,W,9.4,8.6,DRY,,9999.0,,Cloudy,657.5254099556361,cloudy.gif
2025-04-21 14:53,9.5,21.0,0.0,0.0,1013.31,46.0,289.2,21.6,2.0,21.6,284.0,W,7.2,5.4,DRY,,9999.0,,Mostly Cloudy,650.8108418652288,mostly_cloudy.gif
2025-04-21 14:58,10.5,21.5,0.0,0.0,1013.41,48.0,252.9,22.0,2.0,22.0,290.0,W,7.2,4.0,DRY,,9999.0,,Mostly Cloudy,643.8154409032869,mostly_cloudy.gif
2025-04-21 15:03,10.5,21.5,0.0,0.0,1013.51,48.0,462.6,22.0,4.0,22.0,267.0,W,3.6,2.2,DRY,,9999.0,,Mostly Sunny,636.5427273308738,mostly_sunny.gif
2025-04-21 15:08,10.0,22.0,0.0,0.0,1013.51,45.0,448.2,22.5,4.0,22.5,302.0,NW,11.2,9.7,DRY,,9999.0,,Mostly Sunny,628.9963672081346,mostly_sunny.gif
2025-04-21 15:13,10.5,22.3,0.0,0.0,1013.51,46.0,352.6,22.7,3.0,22.7,286.0,W,13.0,10.8,DRY,,9999.0,,Partly Cloudy,621.1801716671168,partly_cloudy.gif
2025-04-21 15:18,10.0,22.0,0.0,0.0,1013.51,45.0,501.3,22.5,4.0,22.5,301.0,NW,20.2,9.4,DRY,,9999.0,,Mostly Sunny,613.0980962092357,mostly_sunny.gif
2025-04-21 15:23,9.6,21.8,0.0,0.0,1013.31,44.0,442.3,22.4,4.0,22.4,232.0,SW,5.4,4.0,DRY,,9999.0,,Mostly Sunny,604.7542400547826,mostly_sunny.gif
2025-04-21 15:28,10.1,21.8,0.0,0.0,1013.31,46.0,462.8,22.3,4.0,22.3,315.0,NW,7.2,5.4,DRY,,9999.0,,Mostly Sunny,596.1528455740229,mostly_sunny.gif
2025-04-21 15:33,10.4,22.1,0.0,0.0,1013.21,46.0,413.7,22.6,4.0,22.6,289.0,W,9.4,5.0,DRY,,9999.0,,Mostly Sunny,587.2982977806608,mostly_sunny.gif
2025-04-21 15:38,9.8,22.1,0.0,0.0,1013.31,44.0,432.8,22.6,4.0,22.6,299.0,NW,20.2,17.3,DRY,,9999.0,,Mostly Sunny,578.1951239519583,mostly_sunny.gif
2025-04-21 15:43,9.6,21.8,0.0,0.0,1013.31,44.0,421.6,22.4,4.0,22.4,252.0,W,13.0,8.3,DRY,,9999.0,,Mostly Sunny,568.8479933517875,mostly_sunny.gif
2025-04-21 15:48,10.4,21.8,0.0,0.0,1013.31,47.0,431.5,22.3,4.0,22.3,302.0,NW,13.0,6.1,DRY,,9999.0,,Mostly Sunny,559.2617171282675,mostly_sunny.gif
2025-04-21 15:53,9.7,22.0,0.0,0.0,1013.11,44.0,399.6,22.5,3.0,22.5,287.0,W,16.6,9.0,DRY,,9999.0,,Mostly Sunny,549.4412483696601,mostly_sunny.gif
2025-04-21 15:58,9.4,21.6,0.0,0.0,1013.31,44.0,378.5,22.2,3.0,22.2,245.0,SW,11.2,7.6,DRY,,9999.0,,Mostly Sunny,539.3916823973265,mostly_sunny.gif
2025-04-21 16:03,8.9,21.8,0.0,0.0,1013.21,42.0,400.9,22.4,3.0,22.4,248.0,W,5.4,4.7,DRY,,9999.0,,Mostly Sunny,529.1182572995959,mostly_sunny.gif
2025-04-21 16:08,9.1,21.7,0.0,0.0,1013.21,43.0,379.6,22.3,3.0,22.3,284.0,W,9.4,5.8,DRY,,9999.0,,Mostly Sunny,518.6263547671061,mostly_sunny.gif
2025-04-21 16:13,9.8,21.7,0.0,0.0,1013.11,45.0,372.2,22.3,3.0,22.3,254.0,W,13.0,8.3,DRY,,9999.0,,Mostly Sunny,507.92150129802906,mostly_sunny.gif
2025-04-21 16:18,10.5,22.3,0.0,0.0,1013.31,46.0,357.7,22.7,3.0,22.7,228.0,SW,9.4,7.2,DRY,,9999.0,,Mostly Sunny,497.00936980055894,mostly_sunny.gif
2025-04-21 16:23,10.3,21.6,0.0,0.0,1013.31,47.0,349.8,22.1,3.0,22.1,192.0,S,1.8,1.8,DRY,,9999.0,,Mostly Sunny,485.89578171146167,mostly_sunny.gif
2025-04-21 16:28,10.0,21.6,0.0,0.0,1013.31,46.0,338.7,22.1,3.0,22.1,317.0,NW,7.2,6.8,DRY,,9999.0,,Mostly Sunny,474.58670967243904,mostly_sunny.gif
2025-04-21 16:33,9.2,21.4,0.0,0.0,1013.11,44.0,316.0,22.0,3.0,22.0,301.0,NW,3.6,3.2,DRY,,9999.0,,Mostly Sunny,463.0882809142888,mostly_sunny.gif
2025-04-21 16:38,9.2,21.4,0.0,0.0,1013.21,44.0,309.1,22.0,3.0,22.0,301.0,NW,9.4,6.1,DRY,,9999.0,,Mostly Sunny,451.40678142605526,mostly_sunny.gif
2025-04-21 16:43,9.7,21.7,0.0,0.0,1013.11,45.0,289.2,22.2,2.0,22.2,295.0,NW,9.4,7.9,DRY,,9999.0,,Mostly Sunny,439.54866110138664,mostly_sunny.gif
2025-04-21 16:48,10.2,21.9,0.0,0.0,1013.11,46.0,285.7,22.4,2.0,22.4,335.0,NW,5.4,4.0,DRY,,9999.0,,Mostly Sunny,427.5205400024693,mostly_sunny.gif
2025-04-21 16:53,9.8,22.1,0.0,0.0,1013.11,44.0,279.6,22.6,2.0,22.6,247.0,SW,5.4,4.3,DRY,,9999.0,,Mostly Sunny,415.32921596841703,mostly_sunny.gif
2025-04-21 16:58,11.8,22.0,0.0,0.0,1013.11,51.0,266.7,22.4,2.0,22.4,348.0,N,3.6,3.6,DRY,,9999.0,,Mostly Sunny,402.98167383967353,mostly_sunny.gif
2025-04-21 17:03,9.6,21.6,0.0,0.0,1013.0,45.0,244.1,22.1,2.0,22.1,302.0,NW,3.6,3.2,DRY,,9999.0,,Partly Cloudy,390.4850965739805,partly_cloudy.gif
2025-04-21 17:08,9.2,21.4,0.0,0.0,1013.11,44.0,236.2,22.0,2.0,22.0,237.0,SW,3.6,3.6,DRY,,9999.0,,Partly Cloudy,377.8468786799533,partly_cloudy.gif
2025-04-21 17:13,9.6,21.8,0.0,0.0,1013.11,44.0,216.2,22.4,2.0,22.4,247.0,SW,9.4,6.1,DRY,,9999.0,,Partly Cloudy,365.07464238860274,partly_cloudy.gif
2025-04-21 17:18,10.0,21.6,0.0,0.0,1013.0,46.0,213.9,22.1,2.0,22.1,238.0,SW,7.2,5.0,DRY,,9999.0,,Partly Cloudy,352.17625718579626,partly_cloudy.gif
2025-04-21 17:23,8.6,21.1,0.0,0.0,1012.9,43.0,208.1,21.7,2.0,21.7,245.0,SW,9.4,4.7,DRY,,9999.0,,Partly Cloudy,339.15986337306833,partly_cloudy.gif
2025-04-21 17:28,9.0,21.2,0.0,0.0,1013.0,44.0,202.8,21.8,1.0,21.8,232.0,SW,9.4,8.3,DRY,,9999.0,,Partly Cloudy,326.03390059341416,partly_cloudy.gif
2025-04-21 17:33,9.4,21.2,0.0,0.0,1013.21,45.0,193.5,21.8,1.0,21.8,273.0,W,7.2,5.0,DRY,,9999.0,,Partly Cloudy,312.80714240350096,partly_cloudy.gif
2025-04-21 17:38,9.8,21.3,0.0,0.0,1013.41,46.0,181.0,21.9,1.0,21.9,243.0,SW,9.4,4.7,DRY,,9999.0,,Partly Cloudy,299.4887383193415,partly_cloudy.gif
