timestamp,imedvode1_dewpoint,imedvode1_heat_index,imedvode1_precipitation_rate,imedvode1_precipitation_today,imedvode1_pressure,imedvode1_relative_humidity,imedvode1_solar_radiation,imedvode1_temperature,imedvode1_uv_index,imedvode1_wind_chill,imedvode1_wind_direction_degrees,windCardinals,imedvode1_wind_gust,imedvode1_wind_speed,condition1,condition2,visibility,condition3,sky,max_solar_radiation,image_name
2025-05-10 14:22,7.0,17.7,0.0,0.0,1019.0,43.0,639.6,17.7,5.0,17.7,182.0,S,5.4,4.0,DRY,,9999.0,,Sunny,737.9497490797604,sunny.gif
2025-05-10 14:27,7.0,18.2,0.0,0.0,1019.0,48.0,627.6,18.2,5.0,18.2,106.0,E,9.4,5.4,DRY,,9999.0,,Sunny,732.7447811027196,sunny.gif
2025-05-10 14:32,6.7,16.9,0.0,0.0,1019.1,51.0,621.6,16.9,5.0,16.9,162.0,S,7.2,5.8,DRY,,9999.0,,Sunny,727.2516704057541,sunny.gif
2025-05-10 14:37,5.5,17.2,0.0,0.0,1019.0,46.0,618.2,17.2,5.0,17.2,26.0,NE,5.4,4.7,DRY,,9999.0,,Sunny,721.473137405823,sunny.gif
2025-05-10 14:42,5.0,17.4,0.0,0.0,1018.8,44.0,618.8,17.4,5.0,17.4,138.0,SE,5.4,4.7,DRY,,9999.0,,Sunny,715.4120459315874,sunny.gif
2025-05-10 14:47,5.1,17.8,0.0,0.0,1018.69,43.0,607.8,17.8,5.0,17.8,225.0,SW,3.6,3.6,DRY,,9999.0,,Sunny,709.0714022659295,sunny.gif
2025-05-10 14:52,5.5,17.5,0.0,0.0,1018.8,45.0,594.8,17.5,5.0,17.5,85.0,E,1.8,1.4,DRY,,9999.0,,Mostly Sunny,702.4543541776367,mostly_sunny.gif
2025-05-10 14:57,4.6,18.0,0.0,0.0,1018.69,41.0,587.1,18.0,5.0,18.0,185.0,S,1.8,1.1,DRY,,9999.0,,Mostly Sunny,695.5641899141392,mostly_sunny.gif
2025-05-10 15:02,4.6,17.6,0.0,0.0,1018.59,42.0,578.0,17.6,5.0,17.6,92.0,E,1.8,1.8,DRY,,9999.0,,Mostly Sunny,688.4043371926997,mostly_sunny.gif
2025-05-10 15:07,4.9,18.4,0.0,0.0,1018.59,41.0,573.6,18.4,5.0,18.4,318.0,NW,5.4,3.6,DRY,,9999.0,,Mostly Sunny,680.978362162765,mostly_sunny.gif
2025-05-10 15:12,5.6,18.7,0.0,0.0,1018.29,42.0,554.8,18.7,5.0,18.7,170.0,S,3.6,2.9,DRY,,9999.0,,Mostly Sunny,673.2899683772332,mostly_sunny.gif
2025-05-10 15:17,5.9,17.7,0.0,0.0,1018.39,46.0,564.9,17.7,5.0,17.7,139.0,SE,5.4,3.2,DRY,,9999.0,,Mostly Sunny,665.3429957536923,mostly_sunny.gif
2025-05-10 15:22,7.1,18.3,0.0,0.0,1018.29,48.0,550.6,18.3,5.0,18.3,200.0,S,3.6,1.8,DRY,,9999.0,,Mostly Sunny,657.1414195434809,mostly_sunny.gif
2025-05-10 15:27,5.6,18.4,0.0,0.0,1018.19,43.0,538.3,18.4,5.0,18.4,152.0,SE,7.2,6.5,DRY,,9999.0,,Mostly Sunny,648.6893493273382,mostly_sunny.gif
2025-05-10 15:32,5.2,17.9,0.0,0.0,1018.39,43.0,528.2,17.9,5.0,17.9,198.0,S,0.0,0.0,DRY,,9999.0,,Mostly Sunny,639.9910280212619,mostly_sunny.gif
2025-05-10 15:37,5.1,18.2,0.0,0.0,1018.19,42.0,540.5,18.2,5.0,18.2,147.0,SE,5.4,4.0,DRY,,9999.0,,Sunny,631.0508309356175,sunny.gif
2025-05-10 15:42,7.1,18.3,0.0,0.0,1018.08,48.0,524.4,18.3,5.0,18.3,110.0,E,5.4,4.0,DRY,,9999.0,,Mostly Sunny,621.8732648660712,mostly_sunny.gif
2025-05-10 15:47,7.1,18.6,0.0,0.0,1018.19,47.0,524.3,18.6,5.0,18.6,136.0,SE,5.4,4.0,DRY,,9999.0,,Sunny,612.462967263853,sunny.gif
2025-05-10 15:52,5.8,17.9,0.0,0.0,1018.02,45.0,515.5,17.9,5.0,17.9,141.0,SE,9.4,7.9,DRY,,9999.0,,Sunny,602.8247054669835,sunny.gif
2025-05-10 15:57,7.8,18.1,0.0,0.0,1017.91,51.0,516.4,18.1,5.0,18.1,103.0,E,5.4,3.6,DRY,,9999.0,,Sunny,592.9633760433233,sunny.gif
2025-05-10 16:02,5.8,17.9,0.0,0.0,1017.91,45.0,505.0,17.9,4.0,17.9,147.0,SE,5.4,5.4,DRY,,9999.0,,Sunny,582.8840042389502,sunny.gif
2025-05-10 16:07,7.4,18.6,0.0,0.0,1018.02,48.0,499.9,18.6,4.0,18.6,75.0,E,5.4,3.6,DRY,,9999.0,,Sunny,572.5917435657465,sunny.gif
2025-05-10 16:12,6.3,18.8,0.0,0.0,1017.91,44.0,487.1,18.8,4.0,18.8,63.0,NE,5.4,3.6,DRY,,9999.0,,Sunny,562.0918755658076,sunny.gif
2025-05-10 16:17,5.6,18.0,0.0,0.0,1017.81,44.0,470.6,18.0,4.0,18.0,47.0,NE,9.4,7.2,DRY,,9999.0,,Sunny,551.3898097560541,sunny.gif
2025-05-10 16:22,5.4,17.8,0.0,0.0,1017.71,44.0,456.1,17.8,4.0,17.8,112.0,E,7.2,7.2,DRY,,9999.0,,Mostly Sunny,540.4910838224854,mostly_sunny.gif
2025-05-10 16:27,5.3,18.1,0.0,0.0,1017.81,43.0,282.8,18.1,2.0,18.1,210.0,SW,3.6,3.6,DRY,,9999.0,,Partly Cloudy,529.4013640698165,partly_cloudy.gif
2025-05-10 16:32,5.7,18.5,0.0,0.0,1017.91,43.0,404.1,18.5,3.0,18.5,42.0,NE,5.4,3.6,DRY,,9999.0,,Mostly Sunny,518.1264462097524,mostly_sunny.gif
2025-05-10 16:37,5.8,18.2,0.0,0.0,1017.81,44.0,401.1,18.2,3.0,18.2,109.0,E,3.6,2.9,DRY,,9999.0,,Mostly Sunny,506.67225650777215,mostly_sunny.gif
2025-05-10 16:42,6.4,18.2,0.0,0.0,1017.81,46.0,405.0,18.2,3.0,18.2,39.0,NE,7.2,4.7,DRY,,9999.0,,Mostly Sunny,495.0448533882908,mostly_sunny.gif
2025-05-10 16:47,6.0,18.1,0.0,0.0,1017.71,45.0,388.1,18.1,3.0,18.1,87.0,E,1.8,1.8,DRY,,9999.0,,Mostly Sunny,483.25042954648916,mostly_sunny.gif
2025-05-10 16:52,4.9,18.0,0.0,0.0,1017.41,42.0,356.1,18.0,3.0,18.0,82.0,E,3.6,3.6,DRY,,9999.0,,Mostly Sunny,471.295314667999,mostly_sunny.gif
2025-05-10 16:57,7.8,18.1,0.0,0.0,1017.51,51.0,328.9,18.1,3.0,18.1,49.0,NE,7.2,3.6,DRY,,9999.0,,Mostly Sunny,459.18597887443457,mostly_sunny.gif
2025-05-10 17:02,4.7,18.2,0.0,0.0,1017.51,41.0,206.3,18.2,2.0,18.2,72.0,E,1.8,1.4,DRY,,9999.0,,Partly Cloudy,446.92903699244056,partly_cloudy.gif
2025-05-10 17:07,5.9,18.7,0.0,0.0,1017.51,43.0,303.3,18.7,2.0,18.7,38.0,NE,3.6,2.5,DRY,,9999.0,,Mostly Sunny,434.5312538325806,mostly_sunny.gif
2025-05-10 17:12,5.7,18.8,0.0,0.0,1017.51,42.0,297.5,18.8,2.0,18.8,319.0,NW,1.8,1.4,DRY,,9999.0,,Mostly Sunny,421.99955062114714,mostly_sunny.gif
2025-05-10 17:17,4.9,18.8,0.0,0.0,1017.41,40.0,281.2,18.8,2.0,18.8,317.0,NW,1.8,0.4,DRY,,9999.0,,Mostly Sunny,409.34101283889976,mostly_sunny.gif
2025-05-10 17:22,6.3,19.2,0.0,0.0,1017.41,43.0,266.7,19.2,2.0,19.2,99.0,E,1.8,1.8,DRY,,9999.0,,Mostly Sunny,396.56289969049726,mostly_sunny.gif
2025-05-10 17:27,5.5,18.3,0.0,0.0,1017.51,43.0,252.8,18.3,2.0,18.3,102.0,E,1.8,1.1,DRY,,9999.0,,Mostly Sunny,383.67265555821314,mostly_sunny.gif
2025-05-10 17:32,8.4,18.7,0.0,0.0,1017.31,51.0,242.4,18.7,2.0,18.7,58.0,NE,1.8,1.4,DRY,,9999.0,,Mostly Sunny,370.677923796671,mostly_sunny.gif
2025-05-10 17:37,6.4,18.2,0.0,0.0,1017.31,46.0,233.2,18.2,2.0,18.2,110.0,E,3.6,2.9,DRY,,9999.0,,Mostly Sunny,357.58656335314197,mostly_sunny.gif
2025-05-10 17:42,5.9,18.3,0.0,0.0,1017.31,44.0,222.7,18.3,2.0,18.3,96.0,E,1.8,1.1,DRY,,9999.0,,Partly Cloudy,344.40666880776143,partly_cloudy.gif
2025-05-10 17:47,6.8,18.0,0.0,0.0,1017.2,48.0,198.1,18.0,1.0,18.0,82.0,E,7.2,4.7,DRY,,9999.0,,Partly Cloudy,331.14659452359905,partly_cloudy.gif
2025-05-10 17:52,6.0,17.8,0.0,0.0,1017.2,46.0,83.6,17.8,0.0,17.8,67.0,NE,3.6,2.9,DRY,,9999.0,,Cloudy,317.81498384081976,cloudy.gif
2025-05-10 17:57,6.8,17.6,0.0,0.0,1017.0,49.0,52.0,17.6,0.0,17.6,131.0,SE,5.4,4.7,DRY,,9999.0,,Cloudy,304.4208043978672,cloudy.gif
2025-05-10 18:02,6.5,17.6,0.0,0.0,1017.1,48.0,49.3,17.6,0.0,17.6,68.0,E,7.2,6.1,DRY,,9999.0,,Cloudy,290.973391032906,cloudy.gif
2025-05-10 18:07,5.2,17.6,0.0,0.0,1016.9,44.0,48.4,17.6,0.0,17.6,77.0,E,5.4,4.3,DRY,,9999.0,,Cloudy,277.4824980181189,cloudy.gif
2025-05-10 18:12,5.1,17.5,0.0,0.0,1016.8,44.0,47.6,17.5,0.0,17.5,121.0,SE,5.4,4.0,DRY,,9999.0,,Cloudy,263.9583629537158,cloudy.gif
2025-05-10 18:17,4.8,17.5,0.0,0.0,1016.9,43.0,46.6,17.5,0.0,17.5,144.0,SE,1.8,1.1,DRY,,9999.0,,Mostly Cloudy,250.41178523242982,mostly_cloudy.gif
2025-05-10 18:22,4.9,17.6,0.0,0.0,1016.7,43.0,45.5,17.6,0.0,17.6,137.0,SE,0.0,0.0,DRY,,9999.0,,Mostly Cloudy,236.85422289808,mostly_cloudy.gif
2025-05-10 18:27,4.2,17.6,0.0,0.0,1016.8,41.0,63.2,17.6,0.0,17.6,109.0,E,0.0,0.0,DRY,,9999.0,,Mostly Cloudy,223.29791288701347,mostly_cloudy.gif
2025-05-10 18:32,4.9,17.6,0.0,0.0,1016.8,43.0,47.3,17.6,0.0,17.6,99.0,E,3.6,2.2,DRY,,9999.0,,Mostly Cloudy,209.7560211716667,mostly_cloudy.gif
2025-05-10 18:37,5.6,17.3,0.0,0.0,1016.8,46.0,42.5,17.3,0.0,17.3,131.0,SE,5.4,4.7,DRY,,9999.0,,Mostly Cloudy,196.24283154411503,mostly_cloudy.gif
2025-05-10 18:42,5.5,17.5,0.0,0.0,1016.7,45.0,41.4,17.5,0.0,17.5,134.0,SE,5.4,4.0,DRY,,9999.0,,Mostly Cloudy,182.7739846528282,mostly_cloudy.gif
2025-05-10 18:47,6.0,17.4,0.0,0.0,1016.8,47.0,51.1,17.4,0.0,17.4,77.0,E,5.4,3.2,DRY,,9999.0,,Mostly Cloudy,169.3667830929667,mostly_cloudy.gif
2025-05-10 18:52,5.7,17.4,0.0,0.0,1016.7,46.0,44.4,17.4,0.0,17.4,112.0,E,3.6,3.6,DRY,,9999.0,,Mostly Cloudy,156.04058402428953,mostly_cloudy.gif
2025-05-10 18:57,6.6,17.4,0.0,0.0,1016.8,49.0,84.5,17.4,0.0,17.4,118.0,SE,5.4,5.0,DRY,,9999.0,,Mostly Sunny,142.8173090140281,mostly_sunny.gif
2025-05-10 19:02,6.6,17.1,0.0,0.0,1016.9,50.0,36.3,17.1,0.0,17.1,111.0,E,5.4,4.7,DRY,,9999.0,,Mostly Cloudy,129.72211234964948,mostly_cloudy.gif
2025-05-10 19:07,6.7,17.2,0.0,0.0,1016.7,50.0,68.9,17.2,0.0,17.2,119.0,SE,1.8,1.8,DRY,,9999.0,,Mostly Sunny,116.78426581502976,mostly_sunny.gif
2025-05-10 19:12,5.7,17.1,0.0,0.0,1016.7,47.0,60.5,17.1,0.0,17.1,124.0,SE,5.4,4.0,DRY,,9999.0,,Mostly Sunny,104.03834206993471,mostly_sunny.gif
2025-05-10 19:17,6.5,17.0,0.0,0.0,1016.7,50.0,52.4,17.0,0.0,17.0,112.0,E,3.6,3.6,DRY,,9999.0,,Mostly Sunny,92.70439677796709,mostly_sunny.gif
2025-05-10 19:22,6.6,16.8,0.0,0.0,1016.7,51.0,39.2,16.8,0.0,16.8,109.0,E,1.8,1.8,DRY,,9999.0,,Partly Cloudy,84.97475003112045,partly_cloudy.gif
2025-05-10 19:27,7.2,16.8,0.0,0.0,1016.9,53.0,38.4,16.8,0.0,16.8,103.0,E,1.8,1.8,DRY,,9999.0,,Partly Cloudy,77.27494347484738,partly_cloudy.gif
2025-05-10 19:32,6.7,16.6,0.0,0.0,1016.8,52.0,26.0,16.6,0.0,16.6,109.0,E,1.8,1.4,DRY,,9999.0,,Partly Cloudy,69.61175119835018,partly_cloudy.gif
2025-05-10 19:37,7.1,16.7,0.0,0.0,1016.9,53.0,29.6,16.7,0.0,16.7,136.0,SE,1.8,1.8,DRY,,9999.0,,Partly Cloudy,61.99284578538728,partly_cloudy.gif
2025-05-10 19:42,7.5,16.6,0.0,0.0,1017.0,55.0,25.3,16.6,0.0,16.6,175.0,S,1.8,0.4,DRY,,9999.0,,Partly Cloudy,54.42709554678022,partly_cloudy.gif
2025-05-10 19:47,7.2,16.2,0.0,0.0,1016.9,55.0,20.0,16.2,0.0,16.2,217.0,SW,0.0,0.0,DRY,,9999.0,,Partly Cloudy,46.921986451270875,partly_cloudy.gif
2025-05-10 19:52,7.0,15.5,0.0,0.0,1016.9,57.0,18.0,15.5,0.0,15.5,154.0,SE,0.0,0.0,DRY,,9999.0,,Partly Cloudy,39.511039061768116,partly_cloudy.gif
2025-05-10 19:57,6.8,15.3,0.0,0.0,1017.0,57.0,13.7,15.3,0.0,15.3,189.0,S,1.8,1.4,DRY,,9999.0,,Partly Cloudy,32.20194461806607,partly_cloudy.gif
2025-05-10 20:02,7.2,14.9,0.0,0.0,1017.0,60.0,11.0,14.9,0.0,14.9,193.0,S,0.0,0.0,DRY,,9999.0,,Partly Cloudy,25.01834858251971,partly_cloudy.gif
2025-05-10 20:07,7.0,14.7,0.0,0.0,1017.2,60.0,8.5,14.7,0.0,14.7,210.0,SW,0.0,0.0,DRY,,9999.0,,Partly Cloudy,18.000908408825218,partly_cloudy.gif
2025-05-10 20:12,6.7,14.4,0.0,0.0,1017.31,60.0,6.2,14.4,0.0,14.4,252.0,W,1.8,1.4,DRY,,9999.0,,Mostly Sunny,11.206015134361047,mostly_sunny.gif
2025-05-10 20:17,6.6,14.2,0.0,0.0,1017.2,60.0,4.3,14.2,0.0,14.2,251.0,W,1.8,1.1,DRY,,9999.0,,Sunny,4.704417986537783,sunny.gif
2025-05-10 20:22,6.7,13.9,0.0,0.0,1017.31,62.0,2.8,13.9,0.0,13.9,244.0,SW,0.0,0.0,DRY,,9999.0,,Twilight,0.0,cloudy.gif
2025-05-10 20:27,6.7,13.4,0.0,0.0,1017.51,64.0,1.6,13.4,0.0,13.4,244.0,SW,0.0,0.0,DRY,,9999.0,,Twilight,0.0,cloudy.gif
2025-05-10 20:32,6.4,13.0,0.0,0.0,1017.2,64.0,0.9,13.0,0.0,13.0,244.0,SW,1.8,1.8,DRY,,9999.0,,Twilight,0.0,cloudy.gif
2025-05-10 20:37,6.2,13.1,0.0,0.0,1017.61,63.0,0.4,13.1,0.0,13.1,244.0,SW,1.8,0.7,DRY,,9999.0,,Twilight,0.0,cloudy.gif
2025-05-10 20:42,6.7,13.1,0.0,0.0,1017.41,65.0,0.2,13.1,0.0,13.1,244.0,SW,1.8,0.4,DRY,,9999.0,,Twilight,0.0,cloudy.gif
2025-05-10 20:47,6.5,12.9,0.0,0.0,1017.71,65.0,0.1,12.9,0.0,12.9,170.0,S,1.8,1.8,DRY,,9999.0,,Twilight,0.0,cloudy.gif
2025-05-10 20:52,6.5,12.9,0.0,0.0,1017.61,65.0,0.0,12.9,0.0,12.9,241.0,SW,3.6,2.9,DRY,,9999.0,,Twilight,0.0,cloudy.gif
2025-05-10 20:57,6.4,12.8,0.0,0.0,1017.81,65.0,0.0,12.8,0.0,12.8,230.0,SW,3.6,2.9,DRY,,9999.0,,Twilight,0.0,cloudy.gif
2025-05-10 21:02,6.4,12.4,0.0,0.0,1017.71,67.0,0.0,12.4,0.0,12.4,246.0,SW,1.8,1.8,DRY,,9999.0,,Night,0.0,night.gif
2025-05-10 21:07,6.7,12.2,0.0,0.0,1017.71,69.0,0.0,12.2,0.0,12.2,215.0,SW,1.8,1.8,DRY,,9999.0,,Night,0.0,night.gif
2025-05-10 21:12,6.5,11.8,0.0,0.0,1018.02,70.0,0.0,11.8,0.0,11.8,210.0,SW,3.6,1.8,DRY,,9999.0,,Night,0.0,night.gif
2025-05-10 21:17,6.7,11.6,0.0,0.0,1017.91,72.0,0.0,11.6,0.0,11.6,238.0,SW,1.8,1.8,DRY,,9999.0,,Night,0.0,night.gif
2025-05-10 21:22,6.7,11.4,0.0,0.0,1018.02,73.0,0.0,11.4,0.0,11.4,249.0,W,1.8,1.8,DRY,,9999.0,,Night,0.0,night.gif
2025-05-10 21:27,6.9,11.3,0.0,0.0,1018.08,74.0,0.0,11.3,0.0,11.3,250.0,W,0.0,0.0,DRY,,9999.0,,Night,0.0,night.gif
2025-05-10 21:32,7.1,10.4,0.0,0.0,1018.08,80.0,0.0,10.4,0.0,10.4,14.0,N,1.8,1.1,DRY,,9999.0,,Night,0.0,night.gif
2025-05-10 21:37,7.2,10.1,0.0,0.0,1018.08,82.0,0.0,10.1,0.0,10.1,14.0,N,0.0,0.0,DRY,,9999.0,,Night,0.0,night.gif
2025-05-10 21:42,6.5,10.4,0.0,0.0,1018.08,77.0,0.0,10.4,0.0,10.4,261.0,W,1.8,1.8,DRY,,9999.0,,Night,0.0,night.gif
2025-05-10 21:47,6.7,11.0,0.0,0.0,1018.39,75.0,0.0,11.0,0.0,11.0,260.0,W,3.6,1.4,DRY,,9999.0,,Night,0.0,night.gif
2025-05-10 21:52,6.8,11.1,0.0,0.0,1018.39,75.0,0.0,11.1,0.0,11.1,235.0,SW,3.6,2.2,DRY,,9999.0,,Night,0.0,night.gif
2025-05-10 21:57,6.9,10.6,0.0,0.0,1018.19,78.0,0.0,10.6,0.0,10.6,249.0,W,1.8,0.7,DRY,,9999.0,,Night,0.0,night.gif
2025-05-10 22:02,6.6,10.3,0.0,0.0,1018.39,78.0,0.0,10.3,0.0,10.3,252.0,W,1.8,1.4,DRY,,9999.0,,Night,0.0,night.gif
2025-05-10 22:07,6.6,10.1,0.0,0.0,1018.39,79.0,0.0,10.1,0.0,10.1,252.0,W,0.0,0.0,DRY,,9999.0,,Night,0.0,night.gif
2025-05-10 22:12,6.7,10.0,0.0,0.0,1018.19,80.0,0.0,10.0,0.0,10.0,252.0,W,0.0,0.0,DRY,,9999.0,,Night,0.0,night.gif
2025-05-10 22:17,6.4,9.7,0.0,0.0,1018.59,80.0,0.0,9.7,0.0,9.7,252.0,W,0.0,0.0,DRY,,9999.0,,Night,0.0,night.gif
2025-05-10 22:22,6.8,9.7,0.0,0.0,1018.49,82.0,0.0,9.7,0.0,9.7,301.0,NW,0.0,0.0,DRY,,9999.0,,Night,0.0,night.gif
2025-05-10 22:27,6.6,9.4,0.0,0.0,1018.59,83.0,0.0,9.4,0.0,9.4,301.0,NW,0.0,0.0,DRY,,9999.0,,Night,0.0,night.gif
2025-05-10 22:32,6.5,9.1,0.0,0.0,1018.69,84.0,0.0,9.1,0.0,9.1,301.0,NW,1.8,0.4,DRY,,9999.0,,Night,0.0,night.gif
2025-05-10 22:37,7.1,9.2,0.0,0.0,1018.8,87.0,0.0,9.2,0.0,9.2,345.0,N,0.0,0.0,DRY,,9999.0,,Night,0.0,night.gif
2025-05-10 22:42,7.2,8.9,0.0,0.0,1018.69,89.0,0.0,8.9,0.0,8.9,345.0,N,1.8,1.4,DRY,,9999.0,,Night,0.0,night.gif
2025-05-10 22:48,7.0,8.7,0.0,0.0,1018.8,89.0,0.0,8.7,0.0,8.7,344.0,N,1.8,1.4,DRY,,9999.0,,Night,0.0,night.gif
2025-05-10 22:53,7.0,8.6,0.0,0.0,1018.8,90.0,0.0,8.6,0.0,8.6,345.0,N,0.0,0.0,DRY,,9999.0,,Night,0.0,night.gif
2025-05-10 22:58,7.3,8.6,0.0,0.0,1018.9,91.0,0.0,8.6,0.0,8.6,345.0,N,0.0,0.0,DRY,,9999.0,,Night,0.0,night.gif
2025-05-10 23:03,7.2,8.4,0.0,0.0,1019.2,92.0,0.0,8.4,0.0,8.4,345.0,N,0.0,0.0,DRY,,9999.0,,Night,0.0,night.gif
2025-05-10 23:08,7.1,8.3,0.0,0.0,1018.8,92.0,0.0,8.3,0.0,8.3,345.0,N,0.0,0.0,DRY,,9999.0,,Night,0.0,night.gif
2025-05-10 23:13,7.2,8.4,0.0,0.0,1018.9,92.0,0.0,8.4,0.0,8.4,345.0,N,1.8,1.8,DRY,,9999.0,,Night,0.0,night.gif
2025-05-10 23:18,7.3,8.5,0.0,0.0,1018.8,92.0,0.0,8.5,0.0,8.5,345.0,N,1.8,1.1,DRY,,9999.0,,Night,0.0,night.gif
2025-05-10 23:23,6.9,8.1,0.0,0.0,1019.0,92.0,0.0,8.1,0.0,8.1,345.0,N,1.8,0.4,DRY,,9999.0,,Night,0.0,night.gif
2025-05-10 23:28,6.7,7.8,0.0,0.0,1019.0,93.0,0.0,7.8,0.0,7.8,345.0,N,1.8,1.1,DRY,,9999.0,,Night,0.0,night.gif
2025-05-10 23:33,6.8,7.9,0.0,0.0,1019.0,93.0,0.0,7.9,0.0,7.9,345.0,N,1.8,1.4,DRY,,9999.0,,Night,0.0,night.gif
2025-05-10 23:38,6.8,7.9,0.0,0.0,1019.0,93.0,0.0,7.9,0.0,7.9,345.0,N,1.8,1.8,DRY,,9999.0,,Night,0.0,night.gif
2025-05-10 23:43,6.7,7.7,0.0,0.0,1018.9,94.0,0.0,7.7,0.0,7.7,345.0,N,1.8,0.7,DRY,,9999.0,,Night,0.0,night.gif
2025-05-10 23:48,6.5,7.5,0.0,0.0,1018.9,94.0,0.0,7.5,0.0,7.5,345.0,N,1.8,0.4,DRY,,9999.0,,Night,0.0,night.gif
2025-05-10 23:53,6.6,7.6,0.0,0.0,1019.0,94.0,0.0,7.6,0.0,7.6,344.0,N,1.8,1.8,DRY,,9999.0,,Night,0.0,night.gif
2025-05-10 23:58,6.6,7.6,0.0,0.0,1018.9,94.0,0.0,7.6,0.0,7.6,344.0,N,1.8,1.8,DRY,,9999.0,,Night,0.0,night.gif
2025-05-11 00:03,6.5,7.5,0.0,0.0,1019.0,94.0,0.0,7.5,0.0,7.5,345.0,N,0.0,0.0,DRY,,9999.0,,Night,0.0,night.gif
2025-05-11 00:08,6.3,7.3,0.0,0.0,1019.1,94.0,0.0,7.3,0.0,7.3,345.0,N,0.0,0.0,DRY,,9999.0,,Night,0.0,night.gif
2025-05-11 00:13,6.6,7.4,0.0,0.0,1019.1,95.0,0.0,7.4,0.0,7.4,344.0,N,1.8,1.8,DRY,,9999.0,,Night,0.0,night.gif
2025-05-11 00:18,6.3,7.1,0.0,0.0,1019.1,95.0,0.0,7.1,0.0,7.1,345.0,N,0.0,0.0,DRY,,9999.0,,Night,0.0,night.gif
2025-05-11 00:23,6.1,6.9,0.0,0.0,1019.0,95.0,0.0,6.9,0.0,6.9,345.0,N,0.0,0.0,DRY,,9999.0,,Night,0.0,night.gif
2025-05-11 00:28,6.0,6.8,0.0,0.0,1019.1,95.0,0.0,6.8,0.0,6.8,345.0,N,0.0,0.0,DRY,,9999.0,,Night,0.0,night.gif
2025-05-11 00:33,6.1,6.9,0.0,0.0,1019.0,95.0,0.0,6.9,0.0,6.9,345.0,N,0.0,0.0,DRY,,9999.0,,Night,0.0,night.gif
2025-05-11 00:38,6.4,6.9,0.0,0.0,1019.1,96.0,0.0,6.9,0.0,6.9,345.0,N,1.8,0.4,DRY,,9999.0,,Night,0.0,night.gif
2025-05-11 00:43,6.4,6.9,0.0,0.0,1019.1,96.0,0.0,6.9,0.0,6.9,345.0,N,0.0,0.0,DRY,,9999.0,,Night,0.0,night.gif
2025-05-11 00:48,6.3,6.8,0.0,0.0,1019.0,96.0,0.0,6.8,0.0,6.8,345.0,N,0.0,0.0,DRY,,9999.0,,Night,0.0,night.gif
2025-05-11 00:53,6.2,6.7,0.0,0.0,1019.2,96.0,0.0,6.7,0.0,6.7,345.0,N,1.8,0.4,DRY,,9999.0,,Night,0.0,night.gif
2025-05-11 00:58,6.1,6.6,0.0,0.0,1019.0,96.0,0.0,6.6,0.0,6.6,345.0,N,1.8,1.8,DRY,,9999.0,,Night,0.0,night.gif
2025-05-11 01:03,6.1,6.6,0.0,0.0,1019.1,96.0,0.0,6.6,0.0,6.6,345.0,N,0.0,0.0,DRY,,9999.0,,Night,0.0,night.gif
2025-05-11 01:08,6.0,6.5,0.0,0.0,1018.9,96.0,0.0,6.5,0.0,6.5,345.0,N,0.0,0.0,DRY,,9999.0,,Night,0.0,night.gif
2025-05-11 01:13,6.0,6.4,0.0,0.0,1019.0,97.0,0.0,6.4,0.0,6.4,345.0,N,0.0,0.0,DRY,,9999.0,,Night,0.0,night.gif
2025-05-11 01:18,6.0,6.4,0.0,0.0,1019.0,97.0,0.0,6.4,0.0,6.4,345.0,N,3.6,3.6,DRY,,9999.0,,Night,0.0,night.gif
2025-05-11 01:23,6.1,6.5,0.0,0.0,1018.9,97.0,0.0,6.5,0.0,6.5,344.0,N,1.8,1.8,DRY,,9999.0,,Night,0.0,night.gif
2025-05-11 01:28,6.0,6.4,0.0,0.0,1019.0,97.0,0.0,6.4,0.0,6.4,344.0,N,3.6,2.9,DRY,,9999.0,,Night,0.0,night.gif
2025-05-11 01:33,5.8,6.2,0.0,0.0,1019.0,97.0,0.0,6.2,0.0,6.2,344.0,N,1.8,1.8,DRY,,9999.0,,Night,0.0,night.gif
2025-05-11 01:38,5.6,6.0,0.0,0.0,1018.9,97.0,0.0,6.0,0.0,6.0,344.0,N,1.8,1.1,DRY,,9999.0,,Night,0.0,night.gif
2025-05-11 01:43,5.5,5.9,0.0,0.0,1019.0,97.0,0.0,5.9,0.0,5.9,344.0,N,0.0,0.0,DRY,,9999.0,,Night,0.0,night.gif
2025-05-11 01:48,5.7,6.1,0.0,0.0,1019.0,97.0,0.0,6.1,0.0,6.1,344.0,N,0.0,0.0,DRY,,9999.0,,Night,0.0,night.gif
2025-05-11 01:53,5.8,6.2,0.0,0.0,1018.8,97.0,0.0,6.2,0.0,6.2,345.0,N,0.0,0.0,DRY,,9999.0,,Night,0.0,night.gif
2025-05-11 02:03,5.8,6.2,0.0,0.0,1018.69,97.0,0.0,6.2,0.0,6.2,345.0,N,1.8,0.7,DRY,,9999.0,,Night,0.0,night.gif
2025-05-11 02:08,5.3,5.7,0.0,0.0,1018.69,97.0,0.0,5.7,0.0,5.7,345.0,N,0.0,0.0,DRY,,9999.0,,Night,0.0,night.gif
2025-05-11 02:18,5.6,6.0,0.0,0.0,1018.49,97.0,0.0,6.0,0.0,6.0,345.0,N,1.8,1.8,DRY,,9999.0,,Night,0.0,night.gif
2025-05-11 02:23,5.1,5.5,0.0,0.0,1018.59,97.0,0.0,5.5,0.0,5.5,345.0,N,0.0,0.0,DRY,,9999.0,,Night,0.0,night.gif
2025-05-11 02:28,5.0,5.4,0.0,0.0,1018.59,97.0,0.0,5.4,0.0,5.4,345.0,N,0.0,0.0,DRY,,9999.0,,Night,0.0,night.gif
2025-05-11 02:33,4.7,5.1,0.0,0.0,1018.59,97.0,0.0,5.1,0.0,5.1,344.0,N,1.8,0.4,DRY,,9999.0,,Night,0.0,night.gif
2025-05-11 02:38,5.2,5.5,0.0,0.0,1018.59,98.0,0.0,5.5,0.0,5.5,344.0,N,1.8,1.8,DRY,,9999.0,,Night,0.0,night.gif
2025-05-11 02:43,5.3,5.6,0.0,0.0,1018.49,98.0,0.0,5.6,0.0,5.6,344.0,N,1.8,1.4,DRY,,9999.0,,Night,0.0,night.gif
2025-05-11 02:48,5.1,5.4,0.0,0.0,1018.49,98.0,0.0,5.4,0.0,5.4,344.0,N,0.0,0.0,DRY,,9999.0,,Night,0.0,night.gif
2025-05-11 02:53,4.9,5.2,0.0,0.0,1018.49,98.0,0.0,5.2,0.0,5.2,344.0,N,0.0,0.0,DRY,,9999.0,,Night,0.0,night.gif
2025-05-11 02:58,5.3,5.6,0.0,0.0,1018.39,98.0,0.0,5.6,0.0,5.6,345.0,N,1.8,0.7,DRY,,9999.0,,Night,0.0,night.gif
2025-05-11 03:03,5.0,5.3,0.0,0.0,1018.29,98.0,0.0,5.3,0.0,5.3,345.0,N,1.8,0.4,DRY,,9999.0,,Night,0.0,night.gif
2025-05-11 03:08,5.0,5.3,0.0,0.0,1018.39,98.0,0.0,5.3,0.0,5.3,345.0,N,1.8,0.4,DRY,,9999.0,,Night,0.0,night.gif
2025-05-11 03:13,5.1,5.4,0.0,0.0,1018.29,98.0,0.0,5.4,0.0,5.4,345.0,N,3.6,3.6,DRY,,9999.0,,Night,0.0,night.gif
2025-05-11 03:18,4.9,5.2,0.0,0.0,1018.39,98.0,0.0,5.2,0.0,5.2,345.0,N,1.8,1.4,DRY,,9999.0,,Night,0.0,night.gif
2025-05-11 03:23,4.7,5.0,0.0,0.0,1018.29,98.0,0.0,5.0,0.0,5.0,344.0,N,3.6,2.2,DRY,,9999.0,,Night,0.0,night.gif
2025-05-11 03:28,4.8,5.1,0.0,0.0,1018.19,98.0,0.0,5.1,0.0,5.1,345.0,N,0.0,0.0,DRY,,9999.0,,Night,0.0,night.gif
2025-05-11 03:33,4.7,5.0,0.0,0.0,1018.19,98.0,0.0,5.0,0.0,5.0,345.0,N,0.0,0.0,DRY,,9999.0,,Night,0.0,night.gif
2025-05-11 03:43,4.9,5.2,0.0,0.0,1018.02,98.0,0.0,5.2,0.0,5.2,345.0,N,0.0,0.0,DRY,,9999.0,,Night,0.0,night.gif
2025-05-11 03:48,4.6,4.9,0.0,0.0,1018.02,98.0,0.0,4.9,0.0,4.9,345.0,N,1.8,0.4,DRY,,9999.0,,Night,0.0,night.gif
2025-05-11 03:53,4.5,4.8,0.0,0.0,1018.08,98.0,0.0,4.8,0.0,4.8,345.0,N,1.8,1.4,DRY,,9999.0,,Night,0.0,night.gif
2025-05-11 03:58,4.7,5.0,0.0,0.0,1018.02,98.0,0.0,5.0,0.0,5.0,344.0,N,1.8,1.8,DRY,,9999.0,,Night,0.0,night.gif
2025-05-11 04:03,4.4,4.7,0.0,0.0,1017.91,98.0,0.0,4.7,0.0,4.7,344.0,N,0.0,0.0,DRY,,9999.0,,Night,0.0,night.gif
2025-05-11 04:08,4.5,4.8,0.0,0.0,1018.02,98.0,0.0,4.8,0.0,4.8,344.0,N,1.8,0.4,DRY,,9999.0,,Night,0.0,night.gif
2025-05-11 04:13,4.4,4.7,0.0,0.0,1017.91,98.0,0.0,4.7,0.0,4.7,345.0,N,0.0,0.0,DRY,,9999.0,,Night,0.0,night.gif
2025-05-11 04:18,4.4,4.7,0.0,0.0,1017.71,98.0,0.0,4.7,0.0,4.7,345.0,N,1.8,1.8,DRY,,9999.0,,Night,0.0,night.gif
2025-05-11 04:23,4.5,4.8,0.0,0.0,1017.71,98.0,0.0,4.8,0.0,4.8,345.0,N,0.0,0.0,DRY,,9999.0,,Night,0.0,night.gif
2025-05-11 04:28,4.5,4.7,0.0,0.0,1017.61,99.0,0.0,4.7,0.0,4.7,345.0,N,1.8,1.1,DRY,,9999.0,,Night,0.0,night.gif
2025-05-11 04:33,4.4,4.7,0.0,0.0,1017.71,98.0,0.0,4.7,0.0,4.7,345.0,N,1.8,1.4,DRY,,9999.0,,Night,0.0,night.gif
2025-05-11 04:38,4.2,4.5,0.0,0.0,1017.71,98.0,0.0,4.5,0.0,4.5,345.0,N,1.8,0.4,DRY,,9999.0,,Night,0.0,night.gif
2025-05-11 04:43,3.8,4.0,0.0,0.0,1017.61,99.0,0.0,4.0,0.0,4.0,345.0,N,0.0,0.0,DRY,,9999.0,,Night,0.0,night.gif
2025-05-11 04:48,4.0,4.2,0.0,0.0,1017.51,99.0,0.0,4.2,0.0,4.2,345.0,N,0.0,0.0,DRY,,9999.0,,Night,0.0,night.gif
2025-05-11 04:53,4.0,4.2,0.0,0.0,1017.31,99.0,0.0,4.2,0.0,4.2,345.0,N,1.8,0.7,DRY,,9999.0,,Night,0.0,night.gif
2025-05-11 04:58,3.8,4.0,0.0,0.0,1017.1,99.0,0.0,4.0,0.0,4.0,345.0,N,0.0,0.0,DRY,,9999.0,,Night,0.0,night.gif
2025-05-11 05:03,3.8,4.0,0.0,0.0,1017.51,99.0,0.0,4.0,0.0,4.0,345.0,N,1.8,1.8,DRY,,9999.0,,Twilight,0.0,cloudy.gif
2025-05-11 05:08,4.0,4.2,0.0,0.0,1017.31,99.0,0.1,4.2,0.0,4.2,344.0,N,1.8,1.8,DRY,,9999.0,,Twilight,0.0,cloudy.gif
2025-05-11 05:13,3.8,4.0,0.0,0.0,1017.41,99.0,0.1,4.0,0.0,4.0,344.0,N,1.8,1.8,DRY,,9999.0,,Twilight,0.0,cloudy.gif
2025-05-11 05:18,3.5,3.7,0.0,0.0,1017.51,99.0,0.3,3.7,0.0,3.7,344.0,N,1.8,0.7,DRY,,9999.0,,Twilight,0.0,cloudy.gif
2025-05-11 05:23,3.9,4.1,0.0,0.0,1017.41,99.0,0.6,4.1,0.0,4.1,344.0,N,0.0,0.0,DRY,,9999.0,,Twilight,0.0,cloudy.gif
2025-05-11 05:28,3.9,4.1,0.0,0.0,1017.41,99.0,1.2,4.1,0.0,4.1,344.0,N,0.0,0.0,DRY,,9999.0,,Twilight,0.0,cloudy.gif
2025-05-11 05:33,4.2,4.4,0.0,0.0,1017.41,99.0,2.3,4.4,0.0,4.4,344.0,N,1.8,1.8,DRY,,9999.0,,Twilight,0.0,cloudy.gif
2025-05-11 05:38,4.0,4.2,0.0,0.0,1017.31,99.0,3.6,4.2,0.0,4.2,344.0,N,0.0,0.0,DRY,,9999.0,,Sunny,1.9794695430522085,sunny.gif
2025-05-11 05:43,4.0,4.2,0.0,0.0,1017.2,99.0,5.2,4.2,0.0,4.2,344.0,N,0.0,0.0,DRY,,9999.0,,Mostly Sunny,8.330219740216299,mostly_sunny.gif
2025-05-11 05:48,4.3,4.5,0.0,0.0,1017.2,99.0,7.4,4.5,0.0,4.5,344.0,N,0.0,0.0,DRY,,9999.0,,Partly Cloudy,15.009625960889737,partly_cloudy.gif
2025-05-11 05:53,4.0,4.2,0.0,0.0,1017.1,99.0,9.6,4.2,0.0,4.2,344.0,N,1.8,0.4,DRY,,9999.0,,Partly Cloudy,21.94105266455776,partly_cloudy.gif
2025-05-11 05:58,4.1,4.3,0.0,0.0,1017.31,99.0,12.1,4.3,0.0,4.3,344.0,N,1.8,0.4,DRY,,9999.0,,Partly Cloudy,29.06161545117689,partly_cloudy.gif
2025-05-11 06:03,4.0,4.2,0.0,0.0,1017.1,99.0,15.1,4.2,0.0,4.2,344.0,N,0.0,0.0,DRY,,9999.0,,Partly Cloudy,36.32359839263149,partly_cloudy.gif
2025-05-11 06:08,4.4,4.6,0.0,0.0,1017.2,99.0,18.0,4.6,0.0,4.6,344.0,N,1.8,1.8,DRY,,9999.0,,Partly Cloudy,43.69578222724034,partly_cloudy.gif
2025-05-11 06:13,4.0,4.2,0.0,0.0,1017.31,99.0,21.3,4.2,0.0,4.2,344.0,N,1.8,1.8,DRY,,9999.0,,Partly Cloudy,51.16850339724015,partly_cloudy.gif
2025-05-11 06:18,4.0,4.2,0.0,0.0,1017.2,99.0,24.5,4.2,0.0,4.2,337.0,NW,3.6,3.6,DRY,,9999.0,,Partly Cloudy,58.71212968282524,partly_cloudy.gif
2025-05-11 06:23,4.4,4.6,0.0,0.0,1017.1,99.0,27.5,4.6,0.0,4.6,1.0,N,1.8,1.8,DRY,,9999.0,,Partly Cloudy,66.31348321612113,partly_cloudy.gif
2025-05-11 06:28,4.8,5.0,0.0,0.0,1017.2,99.0,31.4,5.0,0.0,5.0,16.0,N,0.0,0.0,DRY,,9999.0,,Partly Cloudy,73.96301085996133,partly_cloudy.gif
2025-05-11 06:33,4.8,5.1,0.0,0.0,1017.1,98.0,35.5,5.1,0.0,5.1,17.0,N,1.8,1.1,DRY,,9999.0,,Partly Cloudy,81.6525658198186,partly_cloudy.gif
2025-05-11 06:38,5.1,5.4,0.0,0.0,1017.1,98.0,39.2,5.4,0.0,5.4,81.0,E,1.8,1.4,DRY,,9999.0,,Partly Cloudy,89.3750133658802,partly_cloudy.gif
2025-05-11 06:43,5.4,5.8,0.0,0.0,1017.1,97.0,44.6,5.8,0.0,5.8,88.0,E,1.8,1.4,DRY,,9999.0,,Partly Cloudy,98.6310010469035,partly_cloudy.gif
2025-05-11 06:48,5.9,6.3,0.0,0.0,1017.31,97.0,50.3,6.3,0.0,6.3,90.0,E,1.8,1.4,DRY,,9999.0,,Partly Cloudy,111.29091825661664,partly_cloudy.gif
2025-05-11 06:53,6.1,6.9,0.0,0.0,1017.1,95.0,56.7,6.9,0.0,6.9,91.0,E,1.8,0.7,DRY,,9999.0,,Partly Cloudy,124.16023999549061,partly_cloudy.gif
2025-05-11 06:58,5.9,7.0,0.0,0.0,1017.31,93.0,62.3,7.0,0.0,7.0,99.0,E,3.6,3.6,DRY,,9999.0,,Partly Cloudy,137.20161474804345,partly_cloudy.gif
2025-05-11 07:03,6.1,7.2,0.0,0.0,1017.1,93.0,66.8,7.2,0.0,7.2,120.0,SE,3.6,2.2,DRY,,9999.0,,Partly Cloudy,150.38363057811733,partly_cloudy.gif
2025-05-11 07:08,6.2,7.4,0.0,0.0,1017.31,92.0,72.6,7.4,0.0,7.4,120.0,SE,1.8,1.4,DRY,,9999.0,,Partly Cloudy,163.67946699906565,partly_cloudy.gif
2025-05-11 07:13,6.4,7.9,0.0,0.0,1017.2,90.0,80.3,7.9,0.0,7.9,119.0,SE,1.8,1.1,DRY,,9999.0,,Partly Cloudy,177.0658915896052,partly_cloudy.gif
2025-05-11 07:18,6.7,8.6,0.0,0.0,1016.9,88.0,87.4,8.6,0.0,8.6,119.0,SE,0.0,0.0,DRY,,9999.0,,Partly Cloudy,190.52250545333936,partly_cloudy.gif
2025-05-11 07:23,6.9,8.8,0.0,0.0,1017.1,88.0,94.1,8.8,0.0,8.8,119.0,SE,1.8,1.1,DRY,,9999.0,,Partly Cloudy,204.0311701016971,partly_cloudy.gif
2025-05-11 07:28,6.6,9.2,0.0,0.0,1017.0,84.0,99.8,9.2,0.0,9.2,119.0,SE,0.0,0.0,DRY,,9999.0,,Partly Cloudy,217.57556787636713,partly_cloudy.gif
2025-05-11 07:33,7.0,9.6,0.0,0.0,1017.2,84.0,105.3,9.6,1.0,9.6,119.0,SE,1.8,0.7,DRY,,9999.0,,Partly Cloudy,231.14086172292716,partly_cloudy.gif
2025-05-11 07:38,6.9,9.3,0.0,0.0,1017.2,85.0,111.9,9.3,1.0,9.3,70.0,E,1.8,0.4,DRY,,9999.0,,Partly Cloudy,244.71342954578375,partly_cloudy.gif
2025-05-11 07:43,7.1,10.0,0.0,0.0,1016.9,82.0,124.3,10.0,1.0,10.0,84.0,E,0.0,0.0,DRY,,9999.0,,Partly Cloudy,258.28065515052276,partly_cloudy.gif
2025-05-11 07:48,7.1,9.9,0.0,0.0,1017.1,83.0,137.0,9.9,1.0,9.9,81.0,E,1.8,1.8,DRY,,9999.0,,Partly Cloudy,271.83076245893835,partly_cloudy.gif
2025-05-11 07:53,7.1,10.6,0.0,0.0,1017.2,79.0,149.8,10.6,1.0,10.6,82.0,E,1.8,1.8,DRY,,9999.0,,Partly Cloudy,285.35268313694513,partly_cloudy.gif
2025-05-11 07:58,7.2,10.5,0.0,0.0,1017.2,80.0,160.6,10.5,1.0,10.5,82.0,E,3.6,2.2,DRY,,9999.0,,Partly Cloudy,298.83595024184143,partly_cloudy.gif
2025-05-11 08:03,7.3,10.8,0.0,0.0,1016.8,79.0,169.5,10.8,1.0,10.8,86.0,E,0.0,0.0,DRY,,9999.0,,Partly Cloudy,312.2706122509865,partly_cloudy.gif
2025-05-11 08:08,7.8,10.7,0.0,0.0,1017.1,82.0,184.2,10.7,1.0,10.7,145.0,SE,1.8,1.4,DRY,,9999.0,,Partly Cloudy,325.647163234932,partly_cloudy.gif
2025-05-11 08:13,7.7,10.6,0.0,0.0,1017.1,82.0,205.1,10.6,1.0,10.6,102.0,E,3.6,2.2,DRY,,9999.0,,Partly Cloudy,338.95648584234374,partly_cloudy.gif
2025-05-11 08:18,7.6,11.7,0.0,0.0,1017.2,76.0,230.2,11.7,2.0,11.7,103.0,E,3.6,2.2,DRY,,9999.0,,Mostly Sunny,352.189804587142,mostly_sunny.gif
2025-05-11 08:23,8.2,11.9,0.0,0.0,1017.1,78.0,257.7,11.9,2.0,11.9,102.0,E,0.0,0.0,DRY,,9999.0,,Mostly Sunny,365.33864740439157,mostly_sunny.gif
2025-05-11 08:28,8.6,12.1,0.0,0.0,1017.1,79.0,296.6,12.1,2.0,12.1,53.0,NE,1.8,1.1,DRY,,9999.0,,Mostly Sunny,378.3948139479292,mostly_sunny.gif
2025-05-11 08:33,7.9,11.6,0.0,0.0,1017.2,78.0,269.3,11.6,2.0,11.6,99.0,E,3.6,2.2,DRY,,9999.0,,Mostly Sunny,391.35034935776594,mostly_sunny.gif
2025-05-11 08:38,7.5,11.6,0.0,0.0,1017.1,76.0,272.6,11.6,2.0,11.6,94.0,E,3.6,2.5,DRY,,9999.0,,Mostly Sunny,404.1975225220028,mostly_sunny.gif
2025-05-11 08:43,8.6,11.8,0.0,0.0,1017.1,81.0,300.5,11.8,2.0,11.8,68.0,E,1.8,0.7,DRY,,9999.0,,Mostly Sunny,416.92880805397425,mostly_sunny.gif
2025-05-11 08:48,8.8,12.3,0.0,0.0,1017.1,79.0,346.0,12.3,3.0,12.3,127.0,SE,5.4,4.0,DRY,,9999.0,,Mostly Sunny,429.5368713149171,mostly_sunny.gif
2025-05-11 08:53,7.9,12.4,0.0,0.0,1016.9,74.0,334.7,12.4,3.0,12.4,127.0,SE,3.6,2.9,DRY,,9999.0,,Mostly Sunny,442.0145560035426,mostly_sunny.gif
2025-05-11 08:58,8.0,12.3,0.0,0.0,1017.2,75.0,360.0,12.3,3.0,12.3,133.0,SE,5.4,4.7,DRY,,9999.0,,Mostly Sunny,454.3548738511614,mostly_sunny.gif
2025-05-11 09:03,8.0,12.3,0.0,0.0,1016.9,75.0,360.3,12.3,3.0,12.3,158.0,S,3.6,3.6,DRY,,9999.0,,Mostly Sunny,466.5509961164417,mostly_sunny.gif
2025-05-11 09:08,7.6,12.7,0.0,0.0,1016.9,71.0,375.9,12.7,3.0,12.7,139.0,SE,5.4,5.4,DRY,,9999.0,,Mostly Sunny,478.5962465566553,mostly_sunny.gif
2025-05-11 09:13,7.7,13.0,0.0,0.0,1016.8,70.0,387.5,13.0,3.0,13.0,102.0,E,5.4,4.7,DRY,,9999.0,,Mostly Sunny,490.48409567790407,mostly_sunny.gif
2025-05-11 09:18,7.8,13.1,0.0,0.0,1016.8,70.0,398.6,13.1,3.0,13.1,69.0,E,3.6,2.2,DRY,,9999.0,,Mostly Sunny,502.20815603913303,mostly_sunny.gif
2025-05-11 09:23,8.1,13.4,0.0,0.0,1016.8,70.0,413.7,13.4,4.0,13.4,97.0,E,3.6,3.6,DRY,,9999.0,,Mostly Sunny,513.7621784592034,mostly_sunny.gif
2025-05-11 09:28,7.8,13.4,0.0,0.0,1016.7,69.0,428.5,13.4,4.0,13.4,71.0,E,5.4,3.6,DRY,,9999.0,,Mostly Sunny,525.140049002523,mostly_sunny.gif
2025-05-11 09:33,8.0,13.6,0.0,0.0,1016.59,69.0,441.8,13.6,4.0,13.6,121.0,SE,3.6,1.4,DRY,,9999.0,,Mostly Sunny,536.3357865989892,mostly_sunny.gif
2025-05-11 09:38,7.8,14.0,0.0,0.0,1016.9,66.0,455.7,14.0,4.0,14.0,146.0,SE,3.6,2.5,DRY,,9999.0,,Mostly Sunny,547.343541237941,mostly_sunny.gif
2025-05-11 09:43,8.7,14.5,0.0,0.0,1016.59,68.0,474.1,14.5,4.0,14.5,138.0,SE,5.4,4.0,DRY,,9999.0,,Mostly Sunny,558.1575926167825,mostly_sunny.gif
2025-05-11 09:48,9.1,14.7,0.0,0.0,1016.8,69.0,506.3,14.7,4.0,14.7,103.0,E,0.0,0.0,DRY,,9999.0,,Sunny,568.7723492114677,sunny.gif
2025-05-11 09:53,8.7,14.8,0.0,0.0,1016.49,67.0,560.2,14.8,5.0,14.8,107.0,E,1.8,1.4,DRY,,9999.0,,Sunny,579.1823476727138,sunny.gif
2025-05-11 09:58,8.7,14.8,0.0,0.0,1016.59,67.0,224.6,14.8,2.0,14.8,78.0,E,1.8,0.4,DRY,,9999.0,,Mostly Cloudy,589.3822525321606,mostly_cloudy.gif
2025-05-11 10:03,8.1,14.3,0.0,0.0,1016.49,66.0,591.0,14.3,5.0,14.3,126.0,SE,5.4,3.2,DRY,,9999.0,,Sunny,599.3668561463854,sunny.gif
2025-05-11 10:08,8.3,15.0,0.0,0.0,1016.49,64.0,218.6,15.0,2.0,15.0,82.0,E,1.8,0.4,DRY,,9999.0,,Mostly Cloudy,609.1310788523379,mostly_cloudy.gif
2025-05-11 10:13,8.1,14.6,0.0,0.0,1016.39,65.0,234.0,14.6,2.0,14.6,109.0,E,1.8,1.1,DRY,,9999.0,,Mostly Cloudy,618.669969312709,mostly_cloudy.gif
2025-05-11 10:18,8.6,14.7,0.0,0.0,1016.49,67.0,216.9,14.7,2.0,14.7,137.0,SE,7.2,5.4,DRY,,9999.0,,Cloudy,627.9787049949705,cloudy.gif
2025-05-11 10:23,8.6,14.4,0.0,0.0,1016.39,68.0,220.0,14.4,2.0,14.4,50.0,NE,3.6,2.2,DRY,,9999.0,,Cloudy,637.0525927938937,cloudy.gif
2025-05-11 10:28,9.1,14.5,0.0,0.0,1016.39,70.0,233.3,14.5,2.0,14.5,87.0,E,3.6,3.6,DRY,,9999.0,,Mostly Cloudy,645.8870697407867,mostly_cloudy.gif
2025-05-11 10:33,9.2,14.4,0.0,0.0,1016.29,71.0,250.4,14.4,2.0,14.4,51.0,NE,1.8,1.4,DRY,,9999.0,,Mostly Cloudy,654.477703815585,mostly_cloudy.gif
2025-05-11 10:38,8.8,15.3,0.0,0.0,1016.29,65.0,691.9,15.3,6.0,15.3,82.0,E,7.2,5.4,DRY,,9999.0,,Sunny,662.8201948105984,sunny.gif
2025-05-11 10:43,9.2,15.7,0.0,0.0,1016.29,65.0,573.0,15.7,5.0,15.7,107.0,E,7.2,5.4,DRY,,9999.0,,Sunny,670.9103752648398,sunny.gif
2025-05-11 10:48,8.8,15.8,0.0,0.0,1016.19,63.0,673.3,15.8,6.0,15.8,88.0,E,5.4,4.3,DRY,,9999.0,,Sunny,678.7442114292264,sunny.gif
2025-05-11 10:53,8.6,16.4,0.0,0.0,1016.19,60.0,664.0,16.4,6.0,16.4,117.0,SE,3.6,2.2,DRY,,9999.0,,Sunny,686.3178042621621,sunny.gif
2025-05-11 10:58,8.2,16.5,0.0,0.0,1016.09,58.0,368.4,16.5,3.0,16.5,67.0,NE,5.4,4.0,DRY,,9999.0,,Partly Cloudy,693.6273904559602,partly_cloudy.gif
2025-05-11 11:03,7.1,16.7,0.0,0.0,1016.09,53.0,642.4,16.7,6.0,16.7,91.0,E,5.4,4.0,DRY,,9999.0,,Sunny,700.6693434588458,sunny.gif
2025-05-11 11:08,8.0,16.8,0.0,0.0,1015.98,56.0,645.7,16.8,6.0,16.8,67.0,NE,5.4,3.6,DRY,,9999.0,,Sunny,707.4401745171684,sunny.gif
2025-05-11 11:13,7.5,17.1,0.0,0.0,1016.09,53.0,641.0,17.1,6.0,17.1,82.0,E,5.4,2.9,DRY,,9999.0,,Sunny,713.9365336973647,sunny.gif
2025-05-11 11:18,7.4,17.0,0.0,0.0,1015.98,53.0,630.1,17.0,6.0,17.0,114.0,SE,7.2,6.5,DRY,,9999.0,,Sunny,720.1552109145075,sunny.gif
2025-05-11 11:23,8.6,17.2,0.0,0.0,1015.81,57.0,630.3,17.2,6.0,17.2,111.0,E,11.2,8.3,DRY,,9999.0,,Sunny,726.0931369288475,sunny.gif
2025-05-11 11:28,8.2,17.3,0.0,0.0,1015.81,55.0,628.7,17.3,6.0,17.3,117.0,SE,7.2,6.1,DRY,,9999.0,,Sunny,731.7473843371159,sunny.gif
2025-05-11 11:33,8.2,17.6,0.0,0.0,1015.71,54.0,633.2,17.6,6.0,17.6,113.0,SE,3.6,3.6,DRY,,9999.0,,Sunny,737.1151685283451,sunny.gif
2025-05-11 11:38,8.1,17.5,0.0,0.0,1015.71,54.0,639.3,17.5,6.0,17.5,107.0,E,9.4,8.3,DRY,,9999.0,,Sunny,742.1938486105657,sunny.gif
2025-05-11 11:43,7.6,17.5,0.0,0.0,1015.51,52.0,642.2,17.5,6.0,17.5,100.0,E,3.6,2.9,DRY,,9999.0,,Sunny,746.9809283146368,sunny.gif
2025-05-11 11:48,9.2,17.8,0.0,0.0,1015.41,57.0,646.4,17.8,6.0,17.8,100.0,E,5.4,5.0,DRY,,9999.0,,Sunny,751.4740568467668,sunny.gif
2025-05-11 11:53,8.0,17.7,0.0,0.0,1015.61,53.0,646.4,17.7,6.0,17.7,92.0,E,3.6,3.6,DRY,,9999.0,,Sunny,755.6710297179309,sunny.gif
2025-05-11 11:58,7.1,17.6,0.0,0.0,1015.51,50.0,651.9,17.6,6.0,17.6,112.0,E,11.2,9.4,DRY,,9999.0,,Sunny,759.5697895154779,sunny.gif
2025-05-11 12:03,7.4,17.9,0.0,0.0,1015.1,50.0,656.8,17.9,6.0,17.9,105.0,E,5.4,5.4,DRY,,9999.0,,Sunny,763.1684266464354,sunny.gif
2025-05-11 12:08,6.1,17.9,0.0,0.0,1015.21,46.0,659.4,17.9,6.0,17.9,66.0,NE,5.4,3.2,DRY,,9999.0,,Sunny,766.4651800186061,sunny.gif
2025-05-11 12:13,7.7,18.0,0.0,0.0,1015.0,51.0,663.1,18.0,6.0,18.0,50.0,NE,5.4,3.6,DRY,,9999.0,,Sunny,769.4584376882639,sunny.gif
2025-05-11 12:18,7.2,18.1,0.0,0.0,1015.1,49.0,664.6,18.1,6.0,18.1,111.0,E,13.0,11.2,DRY,,9999.0,,Sunny,772.1467374479429,sunny.gif
2025-05-11 12:23,6.8,18.3,0.0,0.0,1015.1,47.0,668.6,18.3,6.0,18.3,104.0,E,7.2,6.1,DRY,,9999.0,,Sunny,774.5287673628401,sunny.gif
2025-05-11 12:28,7.0,18.5,0.0,0.0,1014.8,47.0,671.3,18.5,6.0,18.5,120.0,SE,11.2,7.6,DRY,,9999.0,,Sunny,776.6033662641706,sunny.gif
2025-05-11 12:33,8.7,18.2,0.0,0.0,1014.9,54.0,673.3,18.2,6.0,18.2,123.0,SE,9.4,7.6,DRY,,9999.0,,Sunny,778.3695241738734,sunny.gif
2025-05-11 12:38,7.1,18.6,0.0,0.0,1014.8,47.0,674.1,18.6,6.0,18.6,110.0,E,9.4,8.6,DRY,,9999.0,,Sunny,779.8263826899545,sunny.gif
2025-05-11 12:43,9.3,18.8,0.0,0.0,1014.8,54.0,676.0,18.8,6.0,18.8,117.0,SE,5.4,5.0,DRY,,9999.0,,Sunny,780.9732353004053,sunny.gif
2025-05-11 12:48,8.5,19.2,0.0,0.0,1014.7,50.0,677.2,19.2,6.0,19.2,138.0,SE,5.4,4.7,DRY,,9999.0,,Sunny,781.8095276561,sunny.gif
2025-05-11 12:53,9.5,19.0,0.0,0.0,1014.8,54.0,677.7,19.0,6.0,19.0,95.0,E,9.4,6.1,DRY,,9999.0,,Sunny,782.3348577709802,sunny.gif
2025-05-11 12:58,8.4,18.7,0.0,0.0,1014.6,51.0,678.7,18.7,6.0,18.7,80.0,E,7.2,5.8,DRY,,9999.0,,Sunny,782.5489761792522,sunny.gif
2025-05-11 13:03,9.7,18.9,0.0,0.0,1014.49,55.0,678.6,18.9,6.0,18.9,77.0,E,9.4,6.1,DRY,,9999.0,,Sunny,782.4517860248579,sunny.gif
2025-05-11 13:08,8.1,19.0,0.0,0.0,1014.39,49.0,676.9,19.0,6.0,19.0,122.0,SE,11.2,9.4,DRY,,9999.0,,Sunny,782.0433430928805,sunny.gif
2025-05-11 13:13,6.8,19.3,0.0,0.0,1014.49,44.0,676.4,19.3,6.0,19.3,126.0,SE,7.2,6.5,DRY,,9999.0,,Sunny,781.323855792348,sunny.gif
2025-05-11 13:18,8.5,19.2,0.0,0.0,1014.29,50.0,673.6,19.2,6.0,19.2,74.0,E,3.6,2.2,DRY,,9999.0,,Sunny,780.2936850663853,sunny.gif
2025-05-11 13:23,5.7,18.9,0.0,0.0,1014.29,42.0,674.8,18.9,6.0,18.9,114.0,SE,7.2,5.0,DRY,,9999.0,,Sunny,778.9533442597404,sunny.gif
2025-05-11 13:28,5.7,19.3,0.0,0.0,1014.49,41.0,674.1,19.3,6.0,19.3,113.0,SE,5.4,5.4,DRY,,9999.0,,Sunny,777.3034989131756,sunny.gif
2025-05-11 13:33,7.6,19.5,0.0,0.0,1014.09,46.0,670.0,19.5,6.0,19.5,143.0,SE,7.2,7.2,DRY,,9999.0,,Sunny,775.3449665159268,sunny.gif
2025-05-11 13:38,7.9,19.5,0.0,0.0,1014.09,47.0,669.6,19.5,6.0,19.5,65.0,NE,14.8,9.4,DRY,,9999.0,,Sunny,773.0787161858951,sunny.gif
2025-05-11 13:43,7.6,19.5,0.0,0.0,1014.09,46.0,665.9,19.5,6.0,19.5,72.0,E,7.2,6.5,DRY,,9999.0,,Sunny,770.505868308266,sunny.gif
2025-05-11 13:48,7.6,19.8,0.0,0.0,1013.99,45.0,662.1,19.8,6.0,19.8,86.0,E,7.2,6.1,DRY,,9999.0,,Sunny,767.627694109056,sunny.gif
2025-05-11 13:53,7.0,19.6,0.0,0.0,1014.09,44.0,658.8,19.6,6.0,19.6,87.0,E,7.2,5.4,DRY,,9999.0,,Sunny,764.4456151743292,sunny.gif
2025-05-11 13:58,7.3,19.9,0.0,0.0,1013.72,44.0,650.1,19.9,6.0,19.9,73.0,E,5.4,2.9,DRY,,9999.0,,Sunny,760.9612029258066,sunny.gif
2025-05-11 14:03,6.9,19.8,0.0,0.0,1013.82,43.0,648.5,19.8,6.0,19.8,89.0,E,11.2,9.0,DRY,,9999.0,,Sunny,757.1761780299491,sunny.gif
2025-05-11 14:08,6.5,19.7,0.0,0.0,1013.72,42.0,632.7,19.7,6.0,19.7,104.0,E,7.2,6.1,DRY,,9999.0,,Mostly Sunny,753.0924097719845,mostly_sunny.gif
2025-05-11 14:13,7.3,19.9,0.0,0.0,1013.61,44.0,637.5,19.9,6.0,19.9,136.0,SE,13.0,8.6,DRY,,9999.0,,Sunny,748.7119153654155,sunny.gif
2025-05-11 14:18,7.8,20.4,0.0,0.0,1013.61,44.0,633.6,20.4,6.0,20.4,135.0,SE,11.2,9.7,DRY,,9999.0,,Sunny,744.0368592300725,sunny.gif
