timestamp,imedvode1_dewpoint,imedvode1_heat_index,imedvode1_precipitation_rate,imedvode1_precipitation_today,imedvode1_pressure,imedvode1_relative_humidity,imedvode1_solar_radiation,imedvode1_temperature,imedvode1_uv_index,imedvode1_wind_chill,imedvode1_wind_direction_degrees,windCardinals,imedvode1_wind_gust,imedvode1_wind_speed,visibility,condition1,condition2,condition3,sky,max_solar_radiation,image_name
2025-05-05 17:08,10.0,10.4,0.0,0.0,1009.01,97.0,1.1,10.4,1.0,10.4,15.0,N,1.8,0.4,6000.0,DRY,,,Cloudy,418.9554852632197,cloudy.gif
2025-05-05 17:38,10.0,10.4,0.0,0.0,1009.01,97.0,1.1,10.4,1.0,10.4,15.0,N,1.8,0.4,8000.0,DRY,,,Cloudy,341.4513048755447,cloudy.gif
2025-05-05 18:38,10.0,10.4,0.0,0.0,1009.01,97.0,1.1,10.4,1.0,10.4,15.0,N,1.8,0.4,7000.0,DRY,,,Cloudy,179.4254334801123,cloudy.gif
2025-05-05 19:08,10.0,10.4,0.0,0.0,1009.01,97.0,1.1,10.4,1.0,10.4,15.0,N,1.8,0.4,8000.0,DRY,,,Cloudy,100.37323027558128,cloudy.gif
2025-05-05 19:38,10.0,10.4,0.0,0.0,1009.01,97.0,1.1,10.4,1.0,10.4,15.0,N,1.8,0.4,5000.0,DRY,,,Cloudy,51.77245898692372,cloudy.gif
2025-05-05 19:54,10.0,10.4,1.19,31.7,1009.01,97.0,1.1,10.4,1.0,10.4,15.0,N,1.8,0.4,5000.0,RAIN,LIGHT,,Cloudy,27.908367259314584,rain_light.gif
2025-05-05 19:59,10.1,10.5,3.0,32.0,1009.01,97.0,1.0,10.5,1.0,10.5,50.0,NE,0.0,0.0,5000.0,RAIN,MODERATE,,Cloudy,20.714380158142152,rain_moderate.gif
2025-05-05 20:04,10.0,10.4,1.8,32.0,1009.21,97.0,0.9,10.4,1.0,10.4,50.0,NE,0.0,0.0,5000.0,RAIN,LIGHT,,Cloudy,13.719981546681355,rain_light.gif
2025-05-05 20:09,10.0,10.4,0.0,32.0,1009.01,97.0,0.8,10.4,1.0,10.4,51.0,NE,0.0,0.0,5000.0,DRY,,,Cloudy,6.994031833135304,cloudy.gif
2025-05-05 20:14,9.8,10.4,0.0,32.0,1009.31,96.0,0.4,10.4,1.0,10.4,116.0,SE,3.6,2.2,5000.0,DRY,,,Cloudy,0.6200955868491055,cloudy.gif
2025-05-05 20:19,9.5,10.3,0.0,32.0,1009.41,95.0,0.3,10.3,1.0,10.3,120.0,SE,1.8,1.4,5000.0,DRY,,,Twilight,0.0,cloudy.gif
2025-05-05 20:24,9.6,10.4,0.0,32.0,1009.52,95.0,0.1,10.4,1.0,10.4,147.0,SE,3.6,3.2,5000.0,DRY,,,Twilight,0.0,cloudy.gif
2025-05-05 20:29,9.4,10.4,0.0,32.0,1009.52,94.0,0.1,10.4,1.0,10.4,125.0,SE,3.6,3.6,5000.0,DRY,,,Twilight,0.0,cloudy.gif
2025-05-05 20:34,9.4,10.4,0.0,32.0,1009.31,94.0,0.0,10.4,1.0,10.4,144.0,SE,3.6,2.5,5000.0,DRY,,,Twilight,0.0,cloudy.gif
2025-05-05 20:38,9.4,10.4,0.0,32.0,1009.31,94.0,0.0,10.4,1.0,10.4,144.0,SE,3.6,2.5,9999.0,DRY,,,Twilight,0.0,cloudy.gif
2025-05-05 20:39,9.7,10.5,0.0,32.0,1009.58,95.0,0.0,10.5,1.0,10.5,185.0,S,5.4,4.7,9999.0,DRY,,,Twilight,0.0,cloudy.gif
2025-05-05 20:44,9.6,10.4,0.0,32.0,1009.69,95.0,0.0,10.4,1.0,10.4,152.0,SE,3.6,2.9,9999.0,DRY,,,Twilight,0.0,cloudy.gif
2025-05-05 20:49,9.6,10.4,0.0,32.0,1009.79,95.0,0.0,10.4,1.0,10.4,143.0,SE,7.2,5.8,9999.0,DRY,,,Twilight,0.0,cloudy.gif
2025-05-05 20:54,9.4,10.4,0.0,32.0,1009.89,94.0,0.0,10.4,1.0,10.4,157.0,SE,13.0,11.2,9999.0,DRY,,,Night,0.0,night.gif
2025-05-05 20:59,9.2,10.3,0.0,32.0,1010.09,93.0,0.0,10.3,1.0,10.3,157.0,SE,13.0,11.2,9999.0,DRY,,,Night,0.0,night.gif
2025-05-05 21:04,9.3,10.3,3.0,32.51,1010.09,94.0,0.0,10.3,1.0,10.3,161.0,S,0.0,0.0,9999.0,RAIN,MODERATE,,Night,0.0,rain_moderate.gif
2025-05-05 21:09,9.4,10.2,5.99,32.99,1009.99,95.0,0.0,10.2,1.0,10.2,123.0,SE,1.8,0.4,9999.0,RAIN,MODERATE,,Night,0.0,rain_moderate.gif
2025-05-05 21:15,9.5,10.1,0.0,33.5,1009.89,96.0,0.0,10.1,1.0,10.1,123.0,SE,0.0,0.0,9999.0,RAIN,LIGHT,,Night,0.0,rain_light.gif
2025-05-05 21:20,9.5,10.1,4.19,33.71,1010.19,96.0,0.0,10.1,1.0,10.1,124.0,SE,1.8,1.8,9999.0,RAIN,MODERATE,,Night,0.0,rain_moderate.gif
2025-05-05 21:25,9.5,10.0,4.8,34.01,1010.09,96.0,0.0,10.0,1.0,10.0,127.0,SE,1.8,1.4,9999.0,RAIN,MODERATE,,Night,0.0,rain_moderate.gif
2025-05-05 21:30,9.7,10.1,4.19,34.19,1010.3,97.0,0.0,10.1,1.0,10.1,127.0,SE,1.8,1.4,9999.0,RAIN,MODERATE,,Night,0.0,rain_moderate.gif
2025-05-05 21:35,9.6,10.0,1.19,34.19,1010.09,97.0,0.0,10.0,1.0,10.0,127.0,SE,0.0,0.0,9999.0,RAIN,LIGHT,,Night,0.0,rain_light.gif
2025-05-05 21:38,9.6,10.0,0.0,34.19,1010.09,97.0,0.0,10.0,1.0,10.0,127.0,SE,0.0,0.0,7000.0,DRY,,,Night,0.0,night.gif
2025-05-05 21:40,9.6,10.0,1.8,34.49,1010.09,97.0,0.0,10.0,1.0,10.0,68.0,E,1.8,1.4,7000.0,RAIN,LIGHT,,Night,0.0,rain_light.gif
2025-05-05 21:45,9.6,10.0,3.61,34.8,1010.3,97.0,0.0,10.0,1.0,10.0,69.0,E,0.0,0.0,7000.0,RAIN,MODERATE,,Night,0.0,rain_moderate.gif
2025-05-05 21:50,9.6,10.0,3.0,35.0,1010.19,97.0,0.0,10.0,1.0,10.0,69.0,E,0.0,0.0,7000.0,RAIN,MODERATE,,Night,0.0,rain_moderate.gif
2025-05-05 21:55,9.6,10.0,0.0,35.31,1010.19,97.0,0.0,10.0,1.0,10.0,69.0,E,1.8,0.7,7000.0,RAIN,LIGHT,,Night,0.0,rain_light.gif
2025-05-05 22:00,9.6,10.0,1.8,35.31,1010.3,97.0,0.0,10.0,1.0,10.0,117.0,SE,1.8,1.4,7000.0,RAIN,LIGHT,,Night,0.0,rain_light.gif
2025-05-05 22:05,9.6,10.0,3.0,35.51,1010.4,97.0,0.0,10.0,1.0,10.0,106.0,E,3.6,3.6,7000.0,RAIN,MODERATE,,Night,0.0,rain_moderate.gif
2025-05-05 22:08,9.6,10.0,0.0,35.51,1010.4,97.0,0.0,10.0,1.0,10.0,106.0,E,3.6,3.6,9999.0,RAIN,LIGHT,,Night,0.0,rain_light.gif
2025-05-05 22:10,9.6,10.0,1.19,35.51,1010.4,97.0,0.0,10.0,1.0,10.0,134.0,SE,7.2,4.7,9999.0,DRY,,,Night,0.0,night.gif
2025-05-05 22:15,9.5,9.9,1.8,35.79,1010.19,97.0,0.0,9.9,1.0,9.6,134.0,SE,5.4,5.0,9999.0,RAIN,LIGHT,,Night,0.0,rain_light.gif
2025-05-05 22:20,9.4,9.9,0.0,35.79,1010.4,96.0,0.0,9.9,1.0,9.3,127.0,SE,7.2,6.1,9999.0,RAIN,LIGHT,,Night,0.0,rain_light.gif
2025-05-05 22:25,9.4,9.9,1.19,35.99,1010.5,96.0,0.0,9.9,1.0,9.2,154.0,SE,7.2,6.5,9999.0,RAIN,LIGHT,,Night,0.0,rain_light.gif
2025-05-05 22:30,9.4,9.9,0.0,35.99,1010.4,96.0,0.0,9.9,1.0,9.3,165.0,S,7.2,6.1,9999.0,RAIN,LIGHT,,Night,0.0,rain_light.gif
2025-05-05 22:35,9.4,9.9,1.8,36.3,1010.4,96.0,0.0,9.9,1.0,8.9,164.0,S,9.4,7.9,9999.0,RAIN,LIGHT,,Night,0.0,rain_light.gif
2025-05-05 22:40,9.3,9.8,0.0,36.3,1010.6,96.0,0.0,9.8,1.0,8.9,148.0,SE,7.2,7.2,9999.0,RAIN,LIGHT,,Night,0.0,rain_light.gif
2025-05-05 22:45,9.3,9.8,1.19,36.5,1010.7,96.0,0.0,9.8,1.0,9.1,133.0,SE,7.2,6.5,9999.0,RAIN,LIGHT,,Night,0.0,rain_light.gif
2025-05-05 22:50,9.3,9.8,0.0,36.5,1010.7,96.0,0.0,9.8,1.0,9.1,175.0,S,9.4,6.5,9999.0,RAIN,LIGHT,,Night,0.0,rain_light.gif
2025-05-05 22:55,9.3,9.8,1.8,36.8,1010.7,96.0,0.0,9.8,1.0,9.5,108.0,E,5.4,5.0,9999.0,RAIN,LIGHT,,Night,0.0,rain_light.gif
2025-05-05 23:00,9.2,9.7,3.0,37.01,1010.7,96.0,0.0,9.7,1.0,8.8,129.0,SE,9.4,7.6,9999.0,RAIN,MODERATE,,Night,0.0,rain_moderate.gif
2025-05-05 23:05,9.2,9.7,1.19,37.01,1010.9,96.0,0.0,9.7,1.0,9.2,140.0,SE,7.2,5.8,9999.0,RAIN,LIGHT,,Night,0.0,rain_light.gif
2025-05-05 23:10,9.3,9.7,0.0,37.01,1010.8,97.0,0.0,9.7,1.0,9.7,131.0,SE,3.6,3.2,9999.0,DRY,,,Night,0.0,night.gif
2025-05-05 23:15,9.3,9.7,0.0,37.01,1010.8,97.0,0.0,9.7,1.0,9.7,121.0,SE,5.4,4.7,9999.0,DRY,,,Night,0.0,night.gif
2025-05-05 23:20,9.3,9.7,1.8,37.31,1010.8,97.0,0.0,9.7,1.0,9.3,138.0,SE,5.4,5.4,9999.0,RAIN,LIGHT,,Night,0.0,rain_light.gif
2025-05-05 23:25,9.3,9.7,0.0,37.31,1010.8,97.0,0.0,9.7,1.0,9.7,137.0,SE,3.6,3.6,9999.0,RAIN,LIGHT,,Night,0.0,rain_light.gif
2025-05-05 23:30,9.3,9.7,0.0,37.31,1010.8,97.0,0.0,9.7,1.0,9.7,126.0,SE,5.4,3.6,9999.0,DRY,,,Night,0.0,night.gif
2025-05-05 23:35,9.4,9.8,0.0,37.31,1010.9,97.0,0.0,9.8,1.0,9.8,107.0,E,1.8,1.8,9999.0,DRY,,,Night,0.0,night.gif
2025-05-05 23:40,9.3,9.7,0.0,37.31,1010.8,97.0,0.0,9.7,1.0,9.7,117.0,SE,3.6,3.6,9999.0,DRY,,,Night,0.0,night.gif
2025-05-05 23:45,9.3,9.7,0.0,37.31,1011.01,97.0,0.0,9.7,1.0,9.7,107.0,E,3.6,2.9,9999.0,DRY,,,Night,0.0,night.gif
2025-05-05 23:50,9.4,9.7,0.0,37.31,1011.01,98.0,0.0,9.7,1.0,9.7,104.0,E,3.6,3.2,9999.0,DRY,,,Night,0.0,night.gif
2025-05-05 23:55,9.5,9.8,0.0,37.31,1010.9,98.0,0.0,9.8,1.0,9.8,144.0,SE,1.8,1.8,9999.0,DRY,,,Night,0.0,night.gif
2025-05-06 00:00,9.4,9.7,0.0,0.0,1010.8,98.0,0.0,9.7,1.0,9.7,135.0,SE,5.4,4.0,9999.0,DRY,,,Night,0.0,night.gif
2025-05-06 00:05,9.4,9.7,0.0,0.0,1011.01,98.0,0.0,9.7,1.0,9.7,143.0,SE,5.4,3.2,9999.0,DRY,,,Night,0.0,night.gif
2025-05-06 00:10,9.4,9.7,1.8,0.3,1010.9,98.0,0.0,9.7,1.0,9.7,136.0,SE,3.6,3.6,9999.0,RAIN,LIGHT,,Night,0.0,rain_light.gif
2025-05-06 00:15,9.4,9.8,0.0,0.3,1011.11,97.0,0.0,9.8,1.0,9.4,139.0,SE,5.4,5.4,9999.0,RAIN,LIGHT,,Night,0.0,rain_light.gif
2025-05-06 00:20,9.5,9.8,0.0,0.3,1010.8,98.0,0.0,9.8,1.0,9.8,137.0,SE,3.6,2.2,9999.0,DRY,,,Night,0.0,night.gif
2025-05-06 00:25,9.4,9.7,0.0,0.3,1011.11,98.0,0.0,9.7,1.0,9.7,127.0,SE,3.6,2.9,9999.0,DRY,,,Night,0.0,night.gif
2025-05-06 00:30,9.3,9.7,0.0,0.3,1010.8,97.0,0.0,9.7,1.0,9.7,129.0,SE,3.6,2.5,9999.0,DRY,,,Night,0.0,night.gif
2025-05-06 00:35,9.3,9.7,0.0,0.3,1010.9,97.0,0.0,9.7,1.0,9.3,126.0,SE,5.4,5.4,9999.0,DRY,,,Night,0.0,night.gif
2025-05-06 00:40,9.2,9.7,0.0,0.3,1010.9,96.0,0.0,9.7,1.0,9.3,134.0,SE,5.4,5.4,9999.0,DRY,,,Night,0.0,night.gif
2025-05-06 00:45,9.3,9.7,0.0,0.3,1011.01,97.0,0.0,9.7,1.0,9.7,123.0,SE,5.4,4.0,9999.0,DRY,,,Night,0.0,night.gif
2025-05-06 00:50,9.4,9.8,0.0,0.3,1010.9,97.0,0.0,9.8,1.0,9.8,166.0,S,3.6,3.2,9999.0,DRY,,,Night,0.0,night.gif
2025-05-06 00:55,9.2,9.7,0.0,0.3,1010.8,96.0,0.0,9.7,1.0,9.1,134.0,SE,7.2,6.1,9999.0,DRY,,,Night,0.0,night.gif
2025-05-06 01:00,9.2,9.7,1.19,0.51,1010.8,96.0,0.0,9.7,1.0,9.4,141.0,SE,5.4,5.0,9999.0,RAIN,LIGHT,,Night,0.0,rain_light.gif
2025-05-06 01:05,9.1,9.6,0.0,0.51,1010.8,96.0,0.0,9.6,1.0,9.3,146.0,SE,5.4,5.0,9999.0,RAIN,LIGHT,,Night,0.0,rain_light.gif
2025-05-06 01:10,9.0,9.5,0.0,0.51,1010.9,96.0,0.0,9.5,1.0,9.0,103.0,E,7.2,5.8,9999.0,DRY,,,Night,0.0,night.gif
2025-05-06 01:15,9.1,9.5,0.0,0.51,1010.8,97.0,0.0,9.5,1.0,9.1,139.0,SE,5.4,5.4,9999.0,DRY,,,Night,0.0,night.gif
2025-05-06 01:20,9.1,9.5,0.0,0.51,1010.9,97.0,0.0,9.5,1.0,9.5,147.0,SE,3.6,3.6,9999.0,DRY,,,Night,0.0,night.gif
2025-05-06 01:25,9.1,9.5,0.0,0.51,1010.8,97.0,0.0,9.5,1.0,9.5,128.0,SE,1.8,1.8,9999.0,DRY,,,Night,0.0,night.gif
2025-05-06 01:30,9.2,9.6,0.0,0.51,1010.7,97.0,0.0,9.6,1.0,9.6,125.0,SE,1.8,1.8,9999.0,DRY,,,Night,0.0,night.gif
2025-05-06 01:35,9.2,9.6,0.0,0.51,1010.8,97.0,0.0,9.6,1.0,9.6,119.0,SE,3.6,3.6,9999.0,DRY,,,Night,0.0,night.gif
2025-05-06 01:38,9.2,9.6,0.0,0.51,1010.8,97.0,0.0,9.6,1.0,9.6,119.0,SE,3.6,3.6,6000.0,DRY,,,Night,0.0,night.gif
2025-05-06 01:40,9.2,9.6,0.0,0.51,1010.9,97.0,0.0,9.6,1.0,9.6,104.0,E,5.4,4.0,6000.0,DRY,,,Night,0.0,night.gif
2025-05-06 01:45,9.1,9.5,0.0,0.51,1010.8,97.0,0.0,9.5,1.0,9.5,108.0,E,3.6,3.6,6000.0,DRY,,,Night,0.0,night.gif
2025-05-06 01:50,9.2,9.5,0.0,0.51,1010.9,98.0,0.0,9.5,1.0,9.5,102.0,E,3.6,3.6,6000.0,DRY,,,Night,0.0,night.gif
2025-05-06 01:55,9.2,9.5,1.8,0.79,1010.9,98.0,0.0,9.5,1.0,9.5,108.0,E,3.6,3.2,6000.0,RAIN,LIGHT,,Night,0.0,rain_light.gif
2025-05-06 02:00,9.3,9.6,0.0,0.79,1010.8,98.0,0.0,9.6,1.0,9.6,121.0,SE,3.6,2.5,6000.0,RAIN,LIGHT,,Night,0.0,rain_light.gif
2025-05-06 02:05,9.3,9.6,0.0,0.79,1010.8,98.0,0.0,9.6,1.0,9.6,123.0,SE,3.6,2.2,6000.0,DRY,,,Night,0.0,night.gif
2025-05-06 06:08,9.3,9.6,0.0,0.79,1010.8,98.0,0.0,9.6,1.0,9.6,123.0,SE,3.6,2.2,3000.0,DRY,,,Cloudy,34.31305787826867,cloudy.gif
2025-05-06 07:08,9.3,9.6,0.0,0.79,1010.8,98.0,0.0,9.6,1.0,9.6,123.0,SE,3.6,2.2,4000.0,DRY,,,Cloudy,148.35120526748452,cloudy.gif
2025-05-06 07:25,9.2,9.5,0.0,1.8,1011.21,98.0,18.1,9.5,1.0,9.5,78.0,E,0.0,0.0,4000.0,RAIN,LIGHT,,Cloudy,194.11542598132243,rain_light.gif
2025-05-06 07:30,9.1,9.5,0.0,1.8,1011.21,97.0,21.7,9.5,1.0,9.5,78.0,E,1.8,1.4,4000.0,RAIN,LIGHT,,Cloudy,207.69885892703186,rain_light.gif
2025-05-06 07:35,9.1,9.5,0.0,1.8,1011.41,97.0,21.9,9.5,1.0,9.5,78.0,E,0.0,0.0,4000.0,DRY,,,Cloudy,221.30720630790006,cloudy.gif
2025-05-06 07:38,9.1,9.5,0.0,1.8,1011.41,97.0,21.9,9.5,1.0,9.5,78.0,E,0.0,0.0,6000.0,DRY,,,Cloudy,229.4780041427946,cloudy.gif
2025-05-06 07:40,9.1,9.5,0.0,1.8,1011.31,97.0,33.5,9.5,1.0,9.5,78.0,E,0.0,0.0,6000.0,DRY,,,Cloudy,234.9257635353246,cloudy.gif
2025-05-06 07:50,8.9,9.7,0.0,1.8,1011.21,95.0,54.9,9.7,1.0,9.7,79.0,E,3.6,3.2,6000.0,DRY,,,Cloudy,262.1404692500982,cloudy.gif
2025-05-06 07:55,9.3,9.8,0.0,1.8,1011.31,96.0,60.5,9.8,1.0,9.8,91.0,E,1.8,1.8,6000.0,DRY,,,Cloudy,275.7124153388032,cloudy.gif
2025-05-06 08:00,9.3,9.8,0.0,1.8,1011.41,96.0,58.2,9.8,1.0,9.8,91.0,E,1.8,0.7,6000.0,DRY,,,Cloudy,289.2458739013539,cloudy.gif
2025-05-06 08:05,9.0,9.8,0.0,1.8,1011.41,95.0,46.4,9.8,1.0,9.8,98.0,E,1.8,1.8,6000.0,DRY,,,Cloudy,302.73045237610626,cloudy.gif
2025-05-06 08:10,9.0,9.8,0.0,1.8,1011.41,95.0,45.2,9.8,1.0,9.8,98.0,E,1.8,0.7,6000.0,DRY,,,Cloudy,316.1562688193387,cloudy.gif
2025-05-06 08:15,9.1,9.9,0.0,1.8,1011.41,95.0,48.2,9.9,1.0,9.9,107.0,E,3.6,3.2,6000.0,DRY,,,Cloudy,329.51388345432395,cloudy.gif
2025-05-06 08:20,9.0,10.0,0.0,1.8,1011.51,94.0,51.3,10.0,1.0,10.0,141.0,SE,5.4,4.3,6000.0,DRY,,,Cloudy,342.79424282963987,cloudy.gif
2025-05-06 08:25,8.8,9.9,0.0,1.8,1011.72,93.0,47.0,9.9,1.0,9.2,114.0,SE,7.2,6.5,6000.0,DRY,,,Cloudy,355.9886340430974,cloudy.gif
2025-05-06 08:30,9.2,10.0,0.0,1.8,1011.62,95.0,49.3,10.0,1.0,10.0,111.0,E,3.6,2.2,6000.0,DRY,,,Cloudy,369.0886471200367,cloudy.gif
2025-05-06 08:35,8.9,9.9,0.0,1.8,1011.62,94.0,57.9,9.9,1.0,9.9,127.0,SE,3.6,2.2,6000.0,DRY,,,Cloudy,382.08614396061785,cloudy.gif
2025-05-06 08:38,8.9,9.9,0.0,1.8,1011.62,94.0,57.9,9.9,1.0,9.9,127.0,SE,3.6,2.2,9999.0,DRY,,,Cloudy,389.8321416704445,cloudy.gif
2025-05-06 08:40,8.9,9.9,0.0,1.8,1011.79,94.0,48.9,9.9,1.0,9.9,122.0,SE,5.4,4.0,9999.0,DRY,,,Cloudy,394.97323268543795,cloudy.gif
2025-05-06 08:45,9.1,10.1,0.0,1.8,1011.99,94.0,58.3,10.1,1.0,10.1,141.0,SE,3.6,3.6,9999.0,DRY,,,Cloudy,407.74224636316626,cloudy.gif
2025-05-06 08:50,9.3,10.1,0.0,1.8,1011.79,95.0,54.8,10.1,1.0,10.1,148.0,SE,1.8,1.8,9999.0,DRY,,,Cloudy,420.3857253881871,cloudy.gif
2025-05-06 08:55,9.3,10.1,0.0,1.8,1011.79,95.0,49.0,10.1,1.0,10.1,186.0,S,5.4,4.0,9999.0,DRY,,,Cloudy,432.8964028457013,cloudy.gif
2025-05-06 09:00,9.1,10.1,0.0,1.8,1011.89,94.0,53.4,10.1,1.0,10.1,132.0,SE,3.6,3.6,9999.0,DRY,,,Cloudy,445.2671923715207,cloudy.gif
2025-05-06 09:05,9.0,10.1,0.0,1.8,1011.79,93.0,58.9,10.1,1.0,10.1,126.0,SE,5.4,4.0,9999.0,DRY,,,Cloudy,457.49117810677757,cloudy.gif
2025-05-06 09:10,9.0,10.1,0.0,1.8,1011.99,93.0,72.0,10.1,1.0,10.1,134.0,SE,3.6,2.5,9999.0,DRY,,,Cloudy,469.5616063738584,cloudy.gif
2025-05-06 09:15,9.2,10.2,0.0,1.8,1011.89,94.0,56.6,10.2,1.0,10.2,135.0,SE,3.6,2.9,9999.0,DRY,,,Cloudy,481.4718788383468,cloudy.gif
2025-05-06 09:20,9.0,10.1,0.0,1.8,1011.89,93.0,51.7,10.1,1.0,10.1,139.0,SE,5.4,5.4,9999.0,DRY,,,Cloudy,493.2155468818621,cloudy.gif
2025-05-06 09:25,9.1,10.1,0.0,1.8,1011.89,94.0,44.7,10.1,1.0,10.1,142.0,SE,3.6,3.6,9999.0,DRY,,,Cloudy,504.7863070390158,cloudy.gif
2025-05-06 09:30,9.0,10.1,0.0,1.8,1011.79,93.0,77.7,10.1,1.0,10.1,118.0,SE,3.6,2.5,9999.0,DRY,,,Cloudy,516.1779972946248,cloudy.gif
2025-05-06 09:35,9.1,10.2,0.0,1.8,1011.99,93.0,100.2,10.2,1.0,10.2,98.0,E,5.4,4.3,9999.0,DRY,,,Cloudy,527.384594150136,cloudy.gif
2025-05-06 09:40,9.1,10.3,0.0,1.8,1011.79,92.0,107.4,10.3,1.0,10.3,141.0,SE,7.2,6.1,9999.0,DRY,,,Cloudy,538.4002103126504,cloudy.gif
2025-05-06 09:45,9.2,10.3,0.0,1.8,1012.09,93.0,87.1,10.3,0.0,10.3,112.0,E,7.2,6.8,9999.0,DRY,,,Cloudy,549.219092925498,cloudy.gif
2025-05-06 09:50,9.2,10.3,0.0,1.8,1012.19,93.0,84.9,10.3,0.0,10.3,113.0,SE,7.2,6.1,9999.0,DRY,,,Cloudy,559.8356222731402,cloudy.gif
2025-05-06 09:55,9.3,10.3,0.0,1.8,1012.09,94.0,87.6,10.3,0.0,10.3,126.0,SE,7.2,5.4,9999.0,DRY,,,Cloudy,570.2443108586999,cloudy.gif
2025-05-06 10:00,9.2,10.3,1.19,2.01,1012.09,93.0,91.9,10.3,0.0,10.3,161.0,S,9.4,8.3,9999.0,RAIN,LIGHT,,Cloudy,580.4398028370692,rain_light.gif
2025-05-06 10:05,9.2,10.2,0.0,2.01,1012.19,94.0,130.3,10.2,1.0,10.2,135.0,SE,11.2,7.2,9999.0,RAIN,LIGHT,,Cloudy,590.4168737111916,rain_light.gif
2025-05-06 10:08,9.2,10.2,0.0,2.01,1012.19,94.0,130.3,10.2,1.0,10.2,135.0,SE,11.2,7.2,7000.0,DRY,,,Cloudy,596.2961498725608,cloudy.gif
2025-05-06 10:10,9.2,10.2,0.0,2.01,1012.09,94.0,141.7,10.2,1.0,10.2,96.0,E,7.2,6.5,7000.0,DRY,,,Cloudy,600.1704302907401,cloudy.gif
2025-05-06 10:15,9.2,10.2,0.0,2.01,1012.29,94.0,123.8,10.2,1.0,10.2,118.0,SE,7.2,5.0,7000.0,DRY,,,Cloudy,609.695510834351,cloudy.gif
2025-05-06 10:20,9.3,10.1,1.8,2.31,1012.19,95.0,130.5,10.1,1.0,10.1,106.0,E,9.4,7.2,7000.0,RAIN,LIGHT,,Cloudy,618.9872853836782,rain_light.gif
2025-05-06 10:25,9.2,10.2,0.0,2.31,1012.09,94.0,162.6,10.2,1.0,10.2,141.0,SE,11.2,10.4,7000.0,RAIN,LIGHT,,Cloudy,628.0410562291671,rain_light.gif
2025-05-06 10:30,9.3,10.1,0.0,2.31,1012.39,95.0,138.2,10.1,1.0,10.1,122.0,SE,7.2,5.8,7000.0,DRY,,,Cloudy,636.8522584964775,cloudy.gif
2025-05-06 10:35,9.2,10.2,0.0,2.31,1012.39,94.0,153.6,10.2,1.0,10.2,124.0,SE,11.2,9.4,7000.0,DRY,,,Cloudy,645.4164608449623,cloudy.gif
2025-05-06 10:38,9.2,10.2,0.0,2.31,1012.39,94.0,153.6,10.2,1.0,10.2,124.0,SE,11.2,9.4,4000.0,DRY,,,Cloudy,650.4346291099328,cloudy.gif
2025-05-06 10:40,9.5,10.3,0.0,2.31,1012.39,95.0,184.5,10.3,1.0,10.3,108.0,E,9.4,7.2,4000.0,DRY,,,Cloudy,653.7293662282722,cloudy.gif
2025-05-06 10:45,9.3,10.1,0.0,2.31,1012.29,95.0,134.3,10.1,1.0,10.1,145.0,SE,9.4,7.2,4000.0,DRY,,,Cloudy,661.7868127399347,cloudy.gif
2025-05-06 10:50,9.0,10.0,0.0,2.31,1012.5,94.0,134.4,10.0,1.0,8.5,114.0,SE,13.0,11.2,4000.0,DRY,,,Cloudy,669.5847744896373,cloudy.gif
2025-05-06 10:55,9.1,9.9,0.0,2.31,1012.5,95.0,225.2,9.9,2.0,8.4,145.0,SE,13.0,10.4,4000.0,DRY,,,Cloudy,677.1193625375023,cloudy.gif
2025-05-06 11:00,9.4,10.2,0.0,2.31,1012.39,95.0,203.1,10.2,1.0,10.2,143.0,SE,9.4,7.9,4000.0,DRY,,,Cloudy,684.3868258357454,cloudy.gif
2025-05-06 11:05,9.4,10.2,0.0,2.31,1012.39,95.0,218.8,10.2,2.0,10.2,135.0,SE,13.0,9.7,4000.0,DRY,,,Cloudy,691.3835522059848,cloudy.gif
2025-05-06 11:08,9.4,10.2,0.0,2.31,1012.39,95.0,218.8,10.2,2.0,10.2,135.0,SE,13.0,9.7,5000.0,DRY,,,Cloudy,695.4501839651032,cloudy.gif
2025-05-06 11:10,9.4,10.2,0.0,2.31,1012.5,95.0,218.2,10.2,2.0,10.2,131.0,SE,11.2,9.4,5000.0,DRY,,,Cloudy,698.1060693129222,cloudy.gif
2025-05-06 11:15,9.3,10.1,0.0,2.31,1012.5,95.0,212.0,10.1,2.0,10.1,131.0,SE,9.4,6.1,5000.0,DRY,,,Cloudy,704.5510456389126,cloudy.gif
2025-05-06 11:20,9.3,10.3,0.0,2.31,1012.7,94.0,184.9,10.3,1.0,10.3,123.0,SE,9.4,7.6,5000.0,DRY,,,Cloudy,710.7152914645623,cloudy.gif
2025-05-06 11:25,9.5,10.3,0.0,2.31,1012.6,95.0,191.3,10.3,1.0,10.3,124.0,SE,9.4,7.9,5000.0,DRY,,,Cloudy,716.5957598190973,cloudy.gif
2025-05-06 11:30,9.4,10.4,0.0,2.31,1012.5,94.0,199.8,10.4,1.0,10.4,131.0,SE,7.2,6.8,5000.0,DRY,,,Cloudy,722.1895474321469,cloudy.gif
2025-05-06 11:35,9.5,10.5,0.0,2.31,1012.6,94.0,111.4,10.5,1.0,10.5,123.0,SE,11.2,8.6,5000.0,DRY,,,Cloudy,727.4938956439355,cloudy.gif
2025-05-06 11:40,9.4,10.4,0.0,2.31,1012.7,94.0,100.7,10.4,0.0,10.4,144.0,SE,9.4,7.2,5000.0,DRY,,,Cloudy,732.5061913073506,cloudy.gif
2025-05-06 11:45,9.2,10.3,0.0,2.31,1012.7,93.0,145.8,10.3,1.0,10.3,172.0,S,11.2,9.0,5000.0,DRY,,,Cloudy,737.22396764026,cloudy.gif
2025-05-06 11:50,9.3,10.3,0.0,2.31,1012.7,94.0,168.6,10.3,1.0,10.3,152.0,SE,5.4,4.7,5000.0,DRY,,,Cloudy,741.6449050608578,cloudy.gif
2025-05-06 11:55,9.4,10.4,0.0,2.31,1012.7,94.0,194.8,10.4,1.0,10.4,130.0,SE,11.2,9.0,5000.0,DRY,,,Cloudy,745.7668319736825,cloudy.gif
2025-05-06 12:00,9.6,10.4,1.19,2.49,1012.8,95.0,157.1,10.4,1.0,10.4,127.0,SE,7.2,5.4,5000.0,RAIN,LIGHT,,Cloudy,749.5877255151263,rain_light.gif
2025-05-06 12:05,9.7,10.5,0.0,2.49,1012.9,95.0,184.0,10.5,1.0,10.5,151.0,SE,5.4,5.4,5000.0,RAIN,LIGHT,,Cloudy,753.1057122674625,rain_light.gif
2025-05-06 12:08,9.7,10.5,0.0,2.49,1012.9,95.0,184.0,10.5,1.0,10.5,151.0,SE,5.4,5.4,9999.0,DRY,,,Cloudy,755.0703858955653,cloudy.gif
2025-05-06 12:10,9.4,10.5,0.0,2.49,1012.7,93.0,241.7,10.5,2.0,10.5,144.0,SE,9.4,8.6,9999.0,DRY,,,Cloudy,756.3190689102382,cloudy.gif
2025-05-06 12:15,9.6,10.6,0.0,2.49,1012.8,94.0,231.4,10.6,2.0,10.6,137.0,SE,11.2,7.2,9999.0,DRY,,,Cloudy,759.2262228426217,cloudy.gif
2025-05-06 12:20,9.4,10.6,0.0,2.49,1012.8,92.0,160.2,10.6,1.0,10.6,145.0,SE,11.2,10.1,9999.0,DRY,,,Cloudy,761.8257527383796,cloudy.gif
2025-05-06 12:25,9.6,10.6,0.0,2.49,1012.7,94.0,174.1,10.6,1.0,10.6,125.0,SE,5.4,5.4,9999.0,DRY,,,Cloudy,764.1163890682318,cloudy.gif
2025-05-06 12:30,9.6,10.6,0.0,2.49,1012.7,94.0,174.9,10.6,1.0,10.6,159.0,S,11.2,8.6,9999.0,DRY,,,Cloudy,766.0970145519665,cloudy.gif
2025-05-06 12:35,9.6,10.7,0.0,2.49,1012.7,93.0,153.1,10.7,1.0,10.7,144.0,SE,11.2,9.4,9999.0,DRY,,,Cloudy,767.7666645740883,cloudy.gif
2025-05-06 12:40,9.4,10.6,0.0,2.49,1012.7,92.0,141.9,10.6,1.0,10.6,143.0,SE,13.0,10.8,9999.0,DRY,,,Cloudy,769.1245275337909,cloudy.gif
2025-05-06 12:45,9.5,10.6,0.0,2.49,1012.7,93.0,213.7,10.6,2.0,10.6,163.0,S,9.4,7.9,9999.0,DRY,,,Cloudy,770.1699451396593,cloudy.gif
2025-05-06 12:50,9.2,10.6,0.0,2.49,1012.8,91.0,177.9,10.6,1.0,10.6,151.0,SE,11.2,10.4,9999.0,DRY,,,Cloudy,770.9024126594504,cloudy.gif
2025-05-06 12:55,9.1,10.5,0.0,2.49,1012.8,91.0,213.1,10.5,2.0,10.5,131.0,SE,13.0,11.2,9999.0,DRY,,,Cloudy,771.3215790965736,cloudy.gif
2025-05-06 13:00,9.5,10.6,0.0,2.49,1012.7,93.0,200.4,10.6,1.0,10.6,143.0,SE,11.2,10.1,9999.0,DRY,,,Cloudy,771.4272473272374,cloudy.gif
2025-05-06 13:05,9.5,10.7,0.0,2.49,1012.8,92.0,224.7,10.7,2.0,10.7,128.0,SE,9.4,7.6,9999.0,DRY,,,Cloudy,771.2193741624768,cloudy.gif
2025-05-06 13:10,9.4,10.6,0.0,2.49,1012.6,92.0,222.8,10.6,2.0,10.6,152.0,SE,7.2,6.1,9999.0,DRY,,,Cloudy,770.6980703703014,cloudy.gif
2025-05-06 13:15,9.4,10.6,0.0,2.49,1012.8,92.0,217.8,10.6,2.0,10.6,179.0,S,9.4,7.6,9999.0,DRY,,,Cloudy,769.8636006225687,cloudy.gif
2025-05-06 13:20,9.6,10.7,1.8,2.79,1012.8,93.0,209.6,10.7,2.0,10.7,149.0,SE,9.4,6.1,9999.0,RAIN,LIGHT,,Cloudy,768.7163834008514,rain_light.gif
2025-05-06 13:25,9.5,10.6,0.0,2.79,1012.7,93.0,214.6,10.6,2.0,10.6,144.0,SE,9.4,6.5,9999.0,RAIN,LIGHT,,Cloudy,767.256990833998,rain_light.gif
2025-05-06 13:30,9.7,10.8,1.19,3.0,1012.6,93.0,218.8,10.8,2.0,10.8,126.0,SE,3.6,3.6,9999.0,RAIN,LIGHT,,Cloudy,765.4861484787422,rain_light.gif
2025-05-06 13:35,9.7,10.8,3.0,3.3,1012.7,93.0,214.3,10.8,2.0,10.8,163.0,S,9.4,7.9,9999.0,RAIN,MODERATE,,Cloudy,763.4047350548235,rain_moderate.gif
2025-05-06 13:40,9.7,10.8,3.61,3.61,1012.6,93.0,217.0,10.8,2.0,10.8,163.0,S,5.4,4.3,9999.0,RAIN,MODERATE,,Cloudy,761.0137821078353,rain_moderate.gif
2025-05-06 13:45,9.8,10.9,1.8,3.61,1012.8,93.0,192.8,10.9,1.0,10.9,179.0,S,3.6,3.2,9999.0,RAIN,LIGHT,,Cloudy,758.3144736345697,rain_light.gif
2025-05-06 13:50,9.7,10.9,0.0,3.61,1012.8,92.0,151.0,10.9,1.0,10.9,161.0,S,3.6,3.6,9999.0,DRY,,,Cloudy,755.3081456367399,cloudy.gif
2025-05-06 13:55,9.8,10.9,0.0,3.61,1012.7,93.0,146.1,10.9,1.0,10.9,134.0,SE,5.4,4.3,9999.0,DRY,,,Cloudy,751.9962856391967,cloudy.gif
2025-05-06 14:00,9.7,10.9,0.0,3.61,1012.9,92.0,159.6,10.9,1.0,10.9,154.0,SE,5.4,3.6,9999.0,DRY,,,Cloudy,748.3805321389112,cloudy.gif
2025-05-06 14:05,9.3,10.9,0.0,3.61,1012.7,90.0,125.9,10.9,1.0,10.9,153.0,SE,7.2,6.5,9999.0,DRY,,,Cloudy,744.4626740201207,cloudy.gif
2025-05-06 14:10,9.4,11.0,0.0,3.61,1012.7,90.0,181.4,11.0,1.0,11.0,139.0,SE,5.4,4.3,9999.0,DRY,,,Cloudy,740.2446499098068,cloudy.gif
2025-05-06 14:15,9.4,11.2,0.0,3.61,1012.8,89.0,262.0,11.2,2.0,11.2,143.0,SE,11.2,9.4,9999.0,DRY,,,Mostly Cloudy,735.7285474865558,mostly_cloudy.gif
2025-05-06 14:20,9.5,11.3,0.0,3.61,1012.7,89.0,303.7,11.3,2.0,11.3,148.0,SE,11.2,9.0,9999.0,DRY,,,Mostly Cloudy,730.9166027555657,mostly_cloudy.gif
2025-05-06 14:25,9.7,11.5,0.0,3.61,1012.8,89.0,305.5,11.5,2.0,11.5,145.0,SE,9.4,8.3,9999.0,DRY,,,Mostly Cloudy,725.8111992649874,mostly_cloudy.gif
2025-05-06 14:30,9.8,11.4,0.0,3.61,1012.6,90.0,305.8,11.4,2.0,11.4,114.0,SE,11.2,9.0,9999.0,DRY,,,Mostly Cloudy,720.4148673000766,mostly_cloudy.gif
2025-05-06 14:35,9.9,11.5,0.0,3.61,1012.6,90.0,238.9,11.5,2.0,11.5,151.0,SE,9.4,6.8,9999.0,DRY,,,Cloudy,714.7302830230411,cloudy.gif
2025-05-06 14:40,9.5,11.3,0.0,3.61,1012.7,89.0,139.0,11.3,1.0,11.3,132.0,SE,11.2,9.4,9999.0,DRY,,,Cloudy,708.7602675969597,cloudy.gif
2025-05-06 14:45,9.4,11.2,0.0,3.61,1012.6,89.0,144.1,11.2,1.0,11.2,144.0,SE,11.2,9.0,9999.0,DRY,,,Cloudy,702.507786262277,cloudy.gif
2025-05-06 14:50,9.7,11.1,0.0,3.61,1012.6,91.0,150.0,11.1,1.0,11.1,131.0,SE,9.4,7.9,9999.0,DRY,,,Cloudy,695.9759474040079,cloudy.gif
2025-05-06 14:55,10.0,11.2,0.0,3.61,1012.5,92.0,134.7,11.2,1.0,11.2,152.0,SE,7.2,5.8,9999.0,DRY,,,Cloudy,689.1680015866847,cloudy.gif
2025-05-06 15:00,9.7,11.1,0.0,3.61,1012.7,91.0,131.3,11.1,1.0,11.1,122.0,SE,9.4,7.9,9999.0,DRY,,,Cloudy,682.0873405730957,cloudy.gif
2025-05-06 15:05,9.7,11.1,0.0,3.61,1012.7,91.0,153.2,11.1,1.0,11.1,119.0,SE,5.4,4.7,9999.0,DRY,,,Cloudy,674.7374963435897,cloudy.gif
2025-05-06 15:10,9.9,11.3,0.0,3.61,1012.8,91.0,166.8,11.3,1.0,11.3,177.0,S,3.6,2.9,9999.0,DRY,,,Cloudy,667.1221400945067,cloudy.gif
2025-05-06 15:15,9.9,11.3,0.0,3.61,1012.6,91.0,142.5,11.3,1.0,11.3,151.0,SE,7.2,5.8,9999.0,DRY,,,Cloudy,659.2450812573322,cloudy.gif
2025-05-06 15:20,10.1,11.3,1.19,3.81,1012.5,92.0,140.9,11.3,1.0,11.3,152.0,SE,5.4,5.4,9999.0,RAIN,LIGHT,,Cloudy,651.1102665108311,rain_light.gif
2025-05-06 15:25,10.0,11.1,0.0,3.81,1012.5,93.0,158.9,11.1,1.0,11.1,124.0,SE,5.4,4.7,9999.0,RAIN,LIGHT,,Cloudy,642.7217788309465,rain_light.gif
2025-05-06 15:30,10.0,11.2,1.8,4.09,1012.6,92.0,141.0,11.2,1.0,11.2,157.0,SE,7.2,6.5,9999.0,RAIN,LIGHT,,Cloudy,634.0838365525933,rain_light.gif
2025-05-06 15:35,9.8,11.2,0.0,4.09,1012.7,91.0,180.7,11.2,1.0,11.2,108.0,E,11.2,9.0,9999.0,RAIN,LIGHT,,Cloudy,625.2007924897315,rain_light.gif
2025-05-06 15:40,9.7,11.1,0.0,4.09,1012.9,91.0,208.6,11.1,2.0,11.1,139.0,SE,13.0,9.4,9999.0,DRY,,,Cloudy,616.0771330983491,cloudy.gif
2025-05-06 15:45,9.3,11.1,0.0,4.09,1012.7,89.0,204.3,11.1,1.0,11.1,107.0,E,13.0,11.2,9999.0,DRY,,,Cloudy,606.7174777083311,cloudy.gif
2025-05-06 15:50,9.9,11.1,0.0,4.09,1012.6,92.0,196.5,11.1,1.0,11.1,125.0,SE,11.2,8.6,9999.0,DRY,,,Cloudy,597.1265778522595,cloudy.gif
2025-05-06 15:55,9.9,11.0,0.0,4.09,1012.8,93.0,197.3,11.0,1.0,11.0,106.0,E,7.2,6.1,9999.0,DRY,,,Cloudy,587.3093166816889,cloudy.gif
2025-05-06 16:00,9.9,11.1,0.0,4.09,1012.9,92.0,138.8,11.1,1.0,11.1,118.0,SE,9.4,7.2,9999.0,DRY,,,Cloudy,577.2707085280834,cloudy.gif
2025-05-06 16:05,9.6,11.0,0.0,4.09,1012.7,91.0,147.7,11.0,1.0,11.0,141.0,SE,11.2,7.2,9999.0,DRY,,,Cloudy,567.015898596604,cloudy.gif
2025-05-06 16:10,9.5,11.1,0.0,4.09,1012.9,90.0,133.8,11.1,1.0,11.1,145.0,SE,7.2,6.8,9999.0,DRY,,,Cloudy,556.5501628583994,cloudy.gif
2025-05-06 16:15,9.4,11.0,0.0,4.09,1012.9,90.0,110.1,11.0,1.0,11.0,140.0,SE,11.2,8.6,9999.0,DRY,,,Cloudy,545.8789081373462,cloudy.gif
2025-05-06 16:20,9.6,11.0,0.0,4.09,1012.8,91.0,93.1,11.0,0.0,11.0,135.0,SE,9.4,6.8,9999.0,DRY,,,Cloudy,535.0076724657348,cloudy.gif
2025-05-06 16:25,9.9,11.1,0.0,4.09,1012.7,92.0,96.8,11.1,0.0,11.1,144.0,SE,5.4,4.7,9999.0,DRY,,,Cloudy,523.9421257241055,cloudy.gif
2025-05-06 16:30,9.9,11.1,0.0,4.09,1012.7,92.0,105.6,11.1,1.0,11.1,137.0,SE,5.4,4.3,9999.0,DRY,,,Cloudy,512.6880706287145,cloudy.gif
2025-05-06 16:35,9.5,11.1,0.0,4.09,1012.7,90.0,125.8,11.1,1.0,11.1,131.0,SE,7.2,6.1,9999.0,DRY,,,Cloudy,501.25144413906787,cloudy.gif
2025-05-06 16:40,9.5,11.1,0.0,4.09,1012.7,90.0,127.3,11.1,1.0,11.1,121.0,SE,5.4,5.0,9999.0,DRY,,,Cloudy,489.6383193267981,cloudy.gif
2025-05-06 16:45,9.3,11.1,0.0,4.09,1012.8,89.0,133.6,11.1,1.0,11.1,153.0,SE,9.4,7.2,9999.0,DRY,,,Cloudy,477.8549078263657,cloudy.gif
