timestamp,imedvode1_dewpoint,imedvode1_heat_index,imedvode1_precipitation_rate,imedvode1_precipitation_today,imedvode1_pressure,imedvode1_relative_humidity,imedvode1_solar_radiation,imedvode1_temperature,imedvode1_uv_index,imedvode1_wind_chill,imedvode1_wind_direction_degrees,windCardinals,imedvode1_wind_gust,imedvode1_wind_speed,condition1,condition2,visibility,condition3,sky,max_solar_radiation,image_name
2025-06-21 15:21,10.5,26.5,0.0,0.0,1021.81,37.0,621.2,26.8,5.0,26.8,135.0,SE,13.0,10.8,DRY,,9999.0,,Sunny,714.0433009200426,sunny.gif
2025-06-21 15:26,10.1,25.9,0.0,0.0,1021.81,37.0,608.9,26.3,5.0,26.3,96.0,E,3.6,2.9,DRY,,9999.0,,Sunny,706.1990114255275,sunny.gif
2025-06-21 15:31,10.5,26.5,0.0,0.0,1021.61,37.0,602.7,26.8,5.0,26.8,139.0,SE,14.8,14.0,DRY,,9999.0,,Sunny,698.1116430712015,sunny.gif
2025-06-21 15:36,10.3,26.3,0.0,0.0,1021.5,37.0,592.3,26.6,5.0,26.6,156.0,SE,5.4,4.3,DRY,,9999.0,,Sunny,689.7852023819244,sunny.gif
2025-06-21 15:41,11.0,26.6,0.0,0.0,1021.3,37.0,583.6,26.9,5.0,26.9,204.0,SW,3.6,3.6,DRY,,9999.0,,Sunny,681.2238201783381,sunny.gif
2025-06-21 15:46,10.5,26.5,0.0,0.0,1021.5,36.0,572.7,26.8,5.0,26.8,91.0,E,5.4,3.6,DRY,,9999.0,,Sunny,672.4317503338557,sunny.gif
2025-06-21 15:51,10.8,26.4,0.0,0.0,1021.61,37.0,561.5,26.7,5.0,26.7,98.0,E,9.4,6.8,DRY,,9999.0,,Mostly Sunny,663.4133685405676,mostly_sunny.gif
2025-06-21 15:56,10.7,26.3,0.0,0.0,1021.2,37.0,551.7,26.6,5.0,26.6,146.0,SE,13.0,9.7,DRY,,9999.0,,Mostly Sunny,654.1731710936156,mostly_sunny.gif
2025-06-21 16:01,10.7,26.2,0.0,0.0,1021.3,37.0,538.1,26.5,5.0,26.5,119.0,SE,14.8,11.2,DRY,,9999.0,,Mostly Sunny,644.7157737048602,mostly_sunny.gif
2025-06-21 16:06,10.7,26.3,0.0,0.0,1021.2,37.0,524.7,26.6,5.0,26.6,175.0,S,9.4,6.1,DRY,,9999.0,,Mostly Sunny,635.0459103516407,mostly_sunny.gif
2025-06-21 16:11,10.6,26.0,0.0,0.0,1021.2,37.0,510.3,26.4,4.0,26.4,353.0,N,1.8,1.1,DRY,,9999.0,,Mostly Sunny,625.1684321774302,mostly_sunny.gif
2025-06-21 16:16,11.0,26.6,0.0,0.0,1021.1,37.0,502.7,26.9,4.0,26.9,147.0,SE,7.2,5.8,DRY,,9999.0,,Mostly Sunny,615.0883064515273,mostly_sunny.gif
2025-06-21 16:21,10.7,26.7,0.0,0.0,1021.3,36.0,489.4,27.0,4.0,27.0,127.0,SE,16.6,14.4,DRY,,9999.0,,Mostly Sunny,604.8106156081102,mostly_sunny.gif
2025-06-21 16:26,10.5,25.9,0.0,0.0,1021.2,37.0,476.6,26.3,4.0,26.3,126.0,SE,14.8,12.2,DRY,,9999.0,,Mostly Sunny,594.3405563751348,mostly_sunny.gif
2025-06-21 16:31,10.7,26.2,0.0,0.0,1021.1,37.0,465.4,26.5,4.0,26.5,123.0,SE,9.4,7.6,DRY,,9999.0,,Mostly Sunny,583.683439017683,mostly_sunny.gif
2025-06-21 16:36,10.7,26.7,0.0,0.0,1021.1,36.0,449.8,27.0,4.0,27.0,100.0,E,13.0,9.7,DRY,,9999.0,,Mostly Sunny,572.8446867121899,mostly_sunny.gif
2025-06-21 16:41,10.5,26.5,0.0,0.0,1020.89,36.0,437.4,26.8,4.0,26.8,100.0,E,9.4,6.8,DRY,,9999.0,,Mostly Sunny,561.8298350777998,mostly_sunny.gif
2025-06-21 16:46,11.2,26.8,0.0,0.0,1020.89,37.0,426.8,27.1,4.0,27.1,120.0,SE,16.6,14.0,DRY,,9999.0,,Mostly Sunny,550.6445318948372,mostly_sunny.gif
2025-06-21 16:51,10.7,26.3,0.0,0.0,1021.0,37.0,413.1,26.6,4.0,26.6,158.0,S,13.0,9.4,DRY,,9999.0,,Mostly Sunny,539.2945370372557,mostly_sunny.gif
2025-06-21 16:56,10.9,26.5,0.0,0.0,1021.0,37.0,398.4,26.8,3.0,26.8,152.0,SE,16.6,13.0,DRY,,9999.0,,Mostly Sunny,527.7857226624978,mostly_sunny.gif
2025-06-21 17:01,10.9,26.5,0.0,0.0,1021.0,37.0,382.8,26.8,3.0,26.8,156.0,SE,9.4,8.6,DRY,,9999.0,,Mostly Sunny,516.1240736947137,mostly_sunny.gif
2025-06-21 17:06,10.8,26.4,0.0,0.0,1020.69,37.0,373.2,26.7,3.0,26.7,150.0,SE,7.2,6.1,DRY,,9999.0,,Mostly Sunny,504.3156886578041,mostly_sunny.gif
2025-06-21 17:11,11.2,26.4,0.0,0.0,1020.69,38.0,359.4,26.7,3.0,26.7,105.0,E,9.4,7.9,DRY,,9999.0,,Mostly Sunny,492.3667809090098,mostly_sunny.gif
2025-06-21 17:16,10.9,26.5,0.0,0.0,1020.89,37.0,343.2,26.8,3.0,26.8,111.0,E,5.4,4.3,DRY,,9999.0,,Mostly Sunny,480.28368034731557,mostly_sunny.gif
2025-06-21 17:21,11.1,26.2,0.0,0.0,1020.89,38.0,328.3,26.5,3.0,26.5,116.0,SE,13.0,10.4,DRY,,9999.0,,Mostly Sunny,468.0728356700644,mostly_sunny.gif
2025-06-21 17:26,10.9,26.5,0.0,0.0,1020.69,37.0,316.3,26.8,3.0,26.8,96.0,E,13.0,9.4,DRY,,9999.0,,Mostly Sunny,455.7408172728649,mostly_sunny.gif
2025-06-21 17:31,10.8,26.4,0.0,0.0,1020.69,37.0,301.7,26.7,2.0,26.7,117.0,SE,5.4,5.4,DRY,,9999.0,,Mostly Sunny,443.29432090481583,mostly_sunny.gif
2025-06-21 17:36,11.1,26.2,0.0,0.0,1020.69,38.0,288.0,26.5,2.0,26.5,180.0,S,11.2,8.6,DRY,,9999.0,,Mostly Sunny,430.74017220306706,mostly_sunny.gif
2025-06-21 17:41,10.7,25.8,0.0,0.0,1020.59,38.0,273.3,26.1,2.0,26.1,149.0,SE,18.4,12.2,DRY,,9999.0,,Mostly Sunny,418.08533226847237,mostly_sunny.gif
2025-06-21 17:46,10.9,26.0,0.0,0.0,1020.69,38.0,260.7,26.3,2.0,26.3,181.0,S,18.4,12.2,DRY,,9999.0,,Partly Cloudy,405.3369044591829,partly_cloudy.gif
2025-06-21 17:51,10.8,25.9,0.0,0.0,1020.69,38.0,248.6,26.2,2.0,26.2,123.0,SE,13.0,11.9,DRY,,9999.0,,Partly Cloudy,392.50214263094705,partly_cloudy.gif
2025-06-21 17:56,11.2,26.3,0.0,0.0,1020.69,38.0,238.2,26.6,2.0,26.6,117.0,SE,9.4,8.3,DRY,,9999.0,,Partly Cloudy,379.5884610826698,partly_cloudy.gif
2025-06-21 18:01,10.9,26.0,0.0,0.0,1020.59,38.0,226.0,26.3,2.0,26.3,141.0,SE,14.8,13.0,DRY,,9999.0,,Partly Cloudy,366.60344653669415,partly_cloudy.gif
2025-06-21 18:06,10.9,26.0,0.0,0.0,1020.59,38.0,214.0,26.3,2.0,26.3,133.0,SE,14.8,12.2,DRY,,9999.0,,Partly Cloudy,353.55487253899497,partly_cloudy.gif
2025-06-21 18:11,10.9,26.0,0.0,0.0,1020.59,38.0,202.5,26.3,1.0,26.3,127.0,SE,16.6,13.0,DRY,,9999.0,,Partly Cloudy,340.4507167592255,partly_cloudy.gif
2025-06-21 18:16,11.0,25.7,0.0,0.0,1020.69,39.0,191.7,26.0,1.0,26.0,111.0,E,9.4,7.2,DRY,,9999.0,,Partly Cloudy,327.29918177903335,partly_cloudy.gif
2025-06-21 18:21,11.0,26.1,0.0,0.0,1020.49,38.0,182.3,26.4,1.0,26.4,113.0,SE,11.2,7.9,DRY,,9999.0,,Partly Cloudy,314.1087200850271,partly_cloudy.gif
2025-06-21 18:26,11.4,26.1,0.0,0.0,1020.59,39.0,172.4,26.4,1.0,26.4,82.0,E,13.0,11.2,DRY,,9999.0,,Partly Cloudy,300.8880641699678,partly_cloudy.gif
2025-06-21 18:31,11.1,25.8,0.0,0.0,1020.79,39.0,117.4,26.1,1.0,26.1,126.0,SE,11.2,7.9,DRY,,9999.0,,Mostly Cloudy,287.6462628512864,mostly_cloudy.gif
2025-06-21 18:36,11.0,25.7,0.0,0.0,1020.69,39.0,152.5,26.0,1.0,26.0,138.0,SE,7.2,6.1,DRY,,9999.0,,Partly Cloudy,274.3927252159818,partly_cloudy.gif
2025-06-21 18:41,10.9,25.6,0.0,0.0,1020.59,39.0,142.8,25.9,1.0,25.9,157.0,SE,13.0,9.4,DRY,,9999.0,,Partly Cloudy,261.13727395198055,partly_cloudy.gif
2025-06-21 18:46,10.9,25.6,0.0,0.0,1020.69,39.0,134.3,25.9,1.0,25.9,135.0,SE,11.2,8.6,DRY,,9999.0,,Partly Cloudy,247.8902103191277,partly_cloudy.gif
2025-06-21 18:51,10.7,25.4,0.0,0.0,1020.59,39.0,125.1,25.7,1.0,25.7,93.0,E,11.2,9.4,DRY,,9999.0,,Partly Cloudy,234.66239362455923,partly_cloudy.gif
2025-06-21 18:56,10.7,25.4,0.0,0.0,1020.69,39.0,116.7,25.7,1.0,25.7,98.0,E,5.4,5.4,DRY,,9999.0,,Partly Cloudy,221.4653389009968,partly_cloudy.gif
2025-06-21 19:01,11.3,25.6,0.0,0.0,1020.79,40.0,107.5,25.9,1.0,25.9,135.0,SE,11.2,7.9,DRY,,9999.0,,Partly Cloudy,208.31133758344976,partly_cloudy.gif
2025-06-21 19:06,10.7,25.2,0.0,0.0,1020.89,39.0,99.9,25.6,0.0,25.6,143.0,SE,13.0,11.2,DRY,,9999.0,,Partly Cloudy,195.21360744008382,partly_cloudy.gif
2025-06-21 19:11,11.0,25.3,0.0,0.0,1020.79,40.0,92.2,25.6,0.0,25.6,141.0,SE,11.2,9.7,DRY,,9999.0,,Partly Cloudy,182.18648000946573,partly_cloudy.gif
2025-06-21 19:16,10.9,25.2,0.0,0.0,1020.79,40.0,85.2,25.5,0.0,25.5,127.0,SE,13.0,11.2,DRY,,9999.0,,Partly Cloudy,169.2456364772447,partly_cloudy.gif
2025-06-21 19:21,10.9,25.0,0.0,0.0,1020.79,40.0,78.4,25.4,0.0,25.4,107.0,E,13.0,10.4,DRY,,9999.0,,Partly Cloudy,156.40840663581514,partly_cloudy.gif
2025-06-21 19:26,10.9,25.0,0.0,0.0,1020.79,40.0,71.3,25.4,0.0,25.4,145.0,SE,13.0,10.4,DRY,,9999.0,,Partly Cloudy,143.69415065464787,partly_cloudy.gif
2025-06-21 19:31,11.0,24.9,0.0,0.0,1020.79,41.0,64.7,25.2,0.0,25.2,144.0,SE,11.2,9.4,DRY,,9999.0,,Partly Cloudy,131.12475048802816,partly_cloudy.gif
2025-06-21 19:36,11.0,24.9,0.0,0.0,1021.0,41.0,58.8,25.2,0.0,25.2,123.0,SE,13.0,7.9,DRY,,9999.0,,Partly Cloudy,118.72524762474401,partly_cloudy.gif
2025-06-21 19:41,10.9,24.6,0.0,0.0,1020.89,41.0,53.0,25.0,0.0,25.0,109.0,E,7.2,7.2,DRY,,9999.0,,Partly Cloudy,106.52467774530535,partly_cloudy.gif
2025-06-21 19:46,10.8,24.5,0.0,0.0,1020.79,41.0,47.4,24.9,0.0,24.9,145.0,SE,9.4,7.2,DRY,,9999.0,,Partly Cloudy,94.59573785325209,partly_cloudy.gif
2025-06-21 19:51,10.3,24.4,0.0,0.0,1021.2,40.0,42.2,24.8,0.0,24.8,127.0,SE,13.0,11.2,DRY,,9999.0,,Partly Cloudy,87.24691904929388,partly_cloudy.gif
2025-06-21 19:56,10.6,24.3,0.0,0.0,1021.0,41.0,37.2,24.7,0.0,24.7,118.0,SE,11.2,9.7,DRY,,9999.0,,Partly Cloudy,79.94178133542806,partly_cloudy.gif
2025-06-21 20:01,10.5,24.2,0.0,0.0,1021.3,41.0,32.9,24.6,0.0,24.6,115.0,SE,9.4,7.2,DRY,,9999.0,,Partly Cloudy,72.68613940737907,partly_cloudy.gif
2025-06-21 20:06,10.7,24.0,0.0,0.0,1021.1,42.0,29.3,24.4,0.0,24.4,114.0,SE,7.2,6.5,DRY,,9999.0,,Partly Cloudy,65.48640710749878,partly_cloudy.gif
2025-06-21 20:11,10.6,23.9,0.0,0.0,1021.2,42.0,25.2,24.3,0.0,24.3,135.0,SE,5.4,5.4,DRY,,9999.0,,Partly Cloudy,58.3497645053657,partly_cloudy.gif
2025-06-21 20:16,10.4,23.7,0.0,0.0,1021.2,42.0,21.8,24.1,0.0,24.1,117.0,SE,11.2,9.7,DRY,,9999.0,,Partly Cloudy,51.28444344082611,partly_cloudy.gif
2025-06-21 20:21,10.6,23.5,0.0,0.0,1021.3,43.0,18.5,23.9,0.0,23.9,139.0,SE,9.4,7.2,DRY,,9999.0,,Partly Cloudy,44.300656673770874,partly_cloudy.gif
2025-06-21 20:26,10.8,23.4,0.0,0.0,1021.3,44.0,15.4,23.8,0.0,23.8,136.0,SE,5.4,4.0,DRY,,9999.0,,Partly Cloudy,37.42534133603701,partly_cloudy.gif
2025-06-21 20:31,10.6,23.1,0.0,0.0,1021.2,44.0,12.6,23.5,0.0,23.5,151.0,SE,5.4,4.7,DRY,,9999.0,,Partly Cloudy,30.66385727958198,partly_cloudy.gif
2025-06-21 20:36,10.8,23.0,0.0,0.0,1021.5,45.0,10.1,23.4,0.0,23.4,137.0,SE,5.4,4.0,DRY,,9999.0,,Partly Cloudy,24.03838281370801,partly_cloudy.gif
2025-06-21 20:41,10.6,22.8,0.0,0.0,1021.4,45.0,7.5,23.2,0.0,23.2,138.0,SE,3.6,3.6,DRY,,9999.0,,Partly Cloudy,17.58291460183621,partly_cloudy.gif
2025-06-21 20:46,10.3,22.7,0.0,0.0,1021.5,44.0,5.6,23.2,0.0,23.2,147.0,SE,7.2,6.1,DRY,,9999.0,,Partly Cloudy,11.341948838594723,partly_cloudy.gif
2025-06-21 20:51,11.3,22.4,0.0,0.0,1021.61,48.0,3.9,22.8,0.0,22.8,162.0,S,1.8,1.4,DRY,,9999.0,,Mostly Sunny,5.369122308018666,mostly_sunny.gif
2025-06-21 20:56,11.9,21.9,0.0,0.0,1021.71,52.0,2.7,22.2,0.0,22.2,207.0,SW,1.8,0.4,DRY,,9999.0,,Twilight,0.0,cloudy.gif
2025-06-21 21:01,12.0,21.4,0.0,0.0,1021.71,54.0,1.8,21.7,0.0,21.7,206.0,SW,0.0,0.0,DRY,,9999.0,,Twilight,0.0,cloudy.gif
2025-06-21 21:06,11.6,21.0,0.0,0.0,1021.71,55.0,1.1,21.0,0.0,21.0,206.0,SW,0.0,0.0,DRY,,9999.0,,Twilight,0.0,cloudy.gif
2025-06-21 21:11,11.5,20.6,0.0,0.0,1021.81,56.0,0.6,20.6,0.0,20.6,206.0,SW,1.8,1.1,DRY,,9999.0,,Twilight,0.0,cloudy.gif
2025-06-21 21:16,11.4,21.0,0.0,0.0,1021.71,54.0,0.3,21.0,0.0,21.0,215.0,SW,1.8,1.8,DRY,,9999.0,,Twilight,0.0,cloudy.gif
2025-06-21 21:21,11.5,20.9,0.0,0.0,1021.91,55.0,0.1,20.9,0.0,20.9,222.0,SW,1.8,1.1,DRY,,9999.0,,Twilight,0.0,cloudy.gif
2025-06-21 21:26,11.3,20.7,0.0,0.0,1021.91,55.0,0.1,20.7,0.0,20.7,236.0,SW,3.6,2.5,DRY,,9999.0,,Twilight,0.0,cloudy.gif
2025-06-21 21:31,11.3,20.3,0.0,0.0,1022.22,56.0,0.0,20.3,0.0,20.3,240.0,SW,0.0,0.0,DRY,,9999.0,,Twilight,0.0,cloudy.gif
2025-06-21 21:36,11.1,20.1,0.0,0.0,1021.81,56.0,0.0,20.1,0.0,20.1,240.0,SW,0.0,0.0,DRY,,9999.0,,Twilight,0.0,cloudy.gif
2025-06-21 21:41,11.2,19.7,0.0,0.0,1022.01,58.0,0.0,19.7,0.0,19.7,240.0,SW,0.0,0.0,DRY,,9999.0,,Night,0.0,night.gif
2025-06-21 21:46,10.9,19.4,0.0,0.0,1022.01,58.0,0.0,19.4,0.0,19.4,240.0,SW,1.8,0.7,DRY,,9999.0,,Night,0.0,night.gif
2025-06-21 21:51,11.1,19.8,0.0,0.0,1022.32,57.0,0.0,19.8,0.0,19.8,240.0,SW,1.8,1.4,DRY,,9999.0,,Night,0.0,night.gif
2025-06-21 21:56,11.8,19.3,0.0,0.0,1022.22,62.0,0.0,19.3,0.0,19.3,304.0,NW,1.8,1.1,DRY,,9999.0,,Night,0.0,night.gif
2025-06-21 22:01,11.2,18.3,0.0,0.0,1022.38,63.0,0.0,18.3,0.0,18.3,303.0,NW,0.0,0.0,DRY,,9999.0,,Night,0.0,night.gif
2025-06-21 22:06,11.3,18.0,0.0,0.0,1022.38,65.0,0.0,18.0,0.0,18.0,307.0,NW,1.8,0.4,DRY,,9999.0,,Night,0.0,night.gif
2025-06-21 22:11,11.4,17.8,0.0,0.0,1022.32,66.0,0.0,17.8,0.0,17.8,307.0,NW,0.0,0.0,DRY,,9999.0,,Night,0.0,night.gif
2025-06-21 22:16,11.6,17.8,0.0,0.0,1022.49,67.0,0.0,17.8,0.0,17.8,307.0,NW,1.8,0.4,DRY,,9999.0,,Night,0.0,night.gif
2025-06-21 22:21,11.4,17.6,0.0,0.0,1022.38,67.0,0.0,17.6,0.0,17.6,306.0,NW,0.0,0.0,DRY,,9999.0,,Night,0.0,night.gif
2025-06-21 22:26,11.0,17.6,0.0,0.0,1022.59,65.0,0.0,17.6,0.0,17.6,305.0,NW,0.0,0.0,DRY,,9999.0,,Night,0.0,night.gif
2025-06-21 22:31,11.1,18.0,0.0,0.0,1022.38,64.0,0.0,18.0,0.0,18.0,250.0,W,1.8,1.8,DRY,,9999.0,,Night,0.0,night.gif
2025-06-21 22:36,11.2,18.1,0.0,0.0,1022.59,64.0,0.0,18.1,0.0,18.1,245.0,SW,1.8,1.8,DRY,,9999.0,,Night,0.0,night.gif
2025-06-21 22:41,11.3,18.0,0.0,0.0,1022.79,65.0,0.0,18.0,0.0,18.0,243.0,SW,1.8,1.1,DRY,,9999.0,,Night,0.0,night.gif
2025-06-21 22:46,11.2,17.9,0.0,0.0,1022.69,65.0,0.0,17.9,0.0,17.9,250.0,W,3.6,2.9,DRY,,9999.0,,Night,0.0,night.gif
2025-06-21 22:51,11.4,17.6,0.0,0.0,1022.79,67.0,0.0,17.6,0.0,17.6,241.0,SW,0.0,0.0,DRY,,9999.0,,Night,0.0,night.gif
2025-06-21 22:56,11.2,17.4,0.0,0.0,1022.49,67.0,0.0,17.4,0.0,17.4,242.0,SW,1.8,1.4,DRY,,9999.0,,Night,0.0,night.gif
2025-06-21 23:01,12.0,17.1,0.0,0.0,1022.79,72.0,0.0,17.1,0.0,17.1,306.0,NW,1.8,1.1,DRY,,9999.0,,Night,0.0,night.gif
2025-06-21 23:06,11.8,16.4,0.0,0.0,1022.79,74.0,0.0,16.4,0.0,16.4,306.0,NW,1.8,0.7,DRY,,9999.0,,Night,0.0,night.gif
2025-06-21 23:11,11.8,16.2,0.0,0.0,1022.79,75.0,0.0,16.2,0.0,16.2,325.0,NW,1.8,1.8,DRY,,9999.0,,Night,0.0,night.gif
2025-06-21 23:16,11.2,15.4,0.0,0.0,1022.89,76.0,0.0,15.4,0.0,15.4,324.0,NW,0.0,0.0,DRY,,9999.0,,Night,0.0,night.gif
2025-06-21 23:21,11.2,16.0,0.0,0.0,1022.89,73.0,0.0,16.0,0.0,16.0,320.0,NW,0.0,0.0,DRY,,9999.0,,Night,0.0,night.gif
2025-06-21 23:26,11.2,16.3,0.0,0.0,1022.79,72.0,0.0,16.3,0.0,16.3,320.0,NW,0.0,0.0,DRY,,9999.0,,Night,0.0,night.gif
2025-06-21 23:31,11.6,16.0,0.0,0.0,1022.79,75.0,0.0,16.0,0.0,16.0,320.0,NW,1.8,1.8,DRY,,9999.0,,Night,0.0,night.gif
2025-06-21 23:36,11.4,15.8,0.0,0.0,1023.2,75.0,0.0,15.8,0.0,15.8,320.0,NW,1.8,1.8,DRY,,9999.0,,Night,0.0,night.gif
2025-06-21 23:41,11.3,15.9,0.0,0.0,1023.1,74.0,0.0,15.9,0.0,15.9,319.0,NW,1.8,1.8,DRY,,9999.0,,Night,0.0,night.gif
2025-06-21 23:46,11.5,15.7,0.0,0.0,1023.3,76.0,0.0,15.7,0.0,15.7,320.0,NW,1.8,1.1,DRY,,9999.0,,Night,0.0,night.gif
2025-06-21 23:51,11.6,15.6,0.0,0.0,1023.3,77.0,0.0,15.6,0.0,15.6,320.0,NW,1.8,1.8,DRY,,9999.0,,Night,0.0,night.gif
2025-06-21 23:56,11.8,15.4,0.0,0.0,1023.4,79.0,0.0,15.4,0.0,15.4,320.0,NW,1.8,1.1,DRY,,9999.0,,Night,0.0,night.gif
2025-06-22 00:01,11.6,15.0,0.0,0.0,1023.4,80.0,0.0,15.0,0.0,15.0,320.0,NW,0.0,0.0,DRY,,9999.0,,Night,0.0,night.gif
2025-06-22 00:06,11.6,15.0,0.0,0.0,1023.3,80.0,0.0,15.0,0.0,15.0,320.0,NW,1.8,1.8,DRY,,9999.0,,Night,0.0,night.gif
2025-06-22 00:11,11.6,14.8,0.0,0.0,1023.5,81.0,0.0,14.8,0.0,14.8,321.0,NW,1.8,0.4,DRY,,9999.0,,Night,0.0,night.gif
2025-06-22 00:16,11.4,14.6,0.0,0.0,1023.4,81.0,0.0,14.6,0.0,14.6,320.0,NW,1.8,0.4,DRY,,9999.0,,Night,0.0,night.gif
2025-06-22 00:21,11.3,14.7,0.0,0.0,1023.5,80.0,0.0,14.7,0.0,14.7,320.0,NW,1.8,1.8,DRY,,9999.0,,Night,0.0,night.gif
2025-06-22 00:26,11.3,14.5,0.0,0.0,1023.4,81.0,0.0,14.5,0.0,14.5,320.0,NW,1.8,0.4,DRY,,9999.0,,Night,0.0,night.gif
2025-06-22 00:31,11.3,14.5,0.0,0.0,1023.5,81.0,0.0,14.5,0.0,14.5,320.0,NW,1.8,1.4,DRY,,9999.0,,Night,0.0,night.gif
2025-06-22 00:36,11.4,14.6,0.0,0.0,1023.4,81.0,0.0,14.6,0.0,14.6,320.0,NW,0.0,0.0,DRY,,9999.0,,Night,0.0,night.gif
2025-06-22 00:41,11.5,14.7,0.0,0.0,1023.3,81.0,0.0,14.7,0.0,14.7,320.0,NW,1.8,1.4,DRY,,9999.0,,Night,0.0,night.gif
2025-06-22 00:46,11.6,14.6,0.0,0.0,1023.4,82.0,0.0,14.6,0.0,14.6,320.0,NW,0.0,0.0,DRY,,9999.0,,Night,0.0,night.gif
2025-06-22 00:51,11.5,14.4,0.0,0.0,1023.2,83.0,0.0,14.4,0.0,14.4,320.0,NW,1.8,0.7,DRY,,9999.0,,Night,0.0,night.gif
2025-06-22 00:56,11.4,14.4,0.0,0.0,1023.4,82.0,0.0,14.4,0.0,14.4,320.0,NW,1.8,1.4,DRY,,9999.0,,Night,0.0,night.gif
2025-06-22 01:01,11.3,14.0,0.0,0.0,1023.2,84.0,0.0,14.0,0.0,14.0,321.0,NW,0.0,0.0,DRY,,9999.0,,Night,0.0,night.gif
2025-06-22 01:06,11.3,14.0,0.0,0.0,1023.3,84.0,0.0,14.0,0.0,14.0,320.0,NW,1.8,1.1,DRY,,9999.0,,Night,0.0,night.gif
2025-06-22 01:11,11.5,14.2,0.0,0.0,1023.2,84.0,0.0,14.2,0.0,14.2,321.0,NW,1.8,1.8,DRY,,9999.0,,Night,0.0,night.gif
2025-06-22 01:16,11.1,13.6,0.0,0.0,1023.2,85.0,0.0,13.6,0.0,13.6,321.0,NW,1.8,1.8,DRY,,9999.0,,Night,0.0,night.gif
2025-06-22 01:21,11.2,13.7,0.0,0.0,1023.3,85.0,0.0,13.7,0.0,13.7,320.0,NW,1.8,1.8,DRY,,9999.0,,Night,0.0,night.gif
2025-06-22 01:26,11.0,13.7,0.0,0.0,1023.3,84.0,0.0,13.7,0.0,13.7,321.0,NW,0.0,0.0,DRY,,9999.0,,Night,0.0,night.gif
2025-06-22 01:31,10.9,13.6,0.0,0.0,1023.2,84.0,0.0,13.6,0.0,13.6,320.0,NW,1.8,0.4,DRY,,9999.0,,Night,0.0,night.gif
2025-06-22 01:36,11.1,13.9,0.0,0.0,1023.2,83.0,0.0,13.9,0.0,13.9,321.0,NW,1.8,1.8,DRY,,9999.0,,Night,0.0,night.gif
2025-06-22 01:41,11.0,13.3,0.0,0.0,1023.3,86.0,0.0,13.3,0.0,13.3,321.0,NW,1.8,1.8,DRY,,9999.0,,Night,0.0,night.gif
2025-06-22 01:46,11.2,13.5,0.0,0.0,1023.2,86.0,0.0,13.5,0.0,13.5,321.0,NW,3.6,2.9,DRY,,9999.0,,Night,0.0,night.gif
2025-06-22 01:51,11.2,13.3,0.0,0.0,1023.2,87.0,0.0,13.3,0.0,13.3,321.0,NW,1.8,1.4,DRY,,9999.0,,Night,0.0,night.gif
2025-06-22 02:01,11.0,13.1,0.0,0.0,1023.5,87.0,0.0,13.1,0.0,13.1,321.0,NW,1.8,1.8,DRY,,9999.0,,Night,0.0,night.gif
2025-06-22 02:06,11.0,13.1,0.0,0.0,1023.3,87.0,0.0,13.1,0.0,13.1,321.0,NW,1.8,1.1,DRY,,9999.0,,Night,0.0,night.gif
2025-06-22 02:11,11.0,13.1,0.0,0.0,1023.3,87.0,0.0,13.1,0.0,13.1,321.0,NW,0.0,0.0,DRY,,9999.0,,Night,0.0,night.gif
2025-06-22 02:16,10.9,13.4,0.0,0.0,1023.3,85.0,0.0,13.4,0.0,13.4,321.0,NW,0.0,0.0,DRY,,9999.0,,Night,0.0,night.gif
2025-06-22 02:21,11.0,13.5,0.0,0.0,1023.4,85.0,0.0,13.5,0.0,13.5,321.0,NW,1.8,1.1,DRY,,9999.0,,Night,0.0,night.gif
2025-06-22 02:26,10.8,13.1,0.0,0.0,1023.4,86.0,0.0,13.1,0.0,13.1,321.0,NW,1.8,1.1,DRY,,9999.0,,Night,0.0,night.gif
2025-06-22 02:31,10.8,12.8,0.0,0.0,1023.5,88.0,0.0,12.8,0.0,12.8,321.0,NW,1.8,1.4,DRY,,9999.0,,Night,0.0,night.gif
2025-06-22 02:36,10.7,12.5,0.0,0.0,1023.5,89.0,0.0,12.5,0.0,12.5,321.0,NW,1.8,1.1,DRY,,9999.0,,Night,0.0,night.gif
2025-06-22 02:46,10.8,12.9,0.0,0.0,1023.4,87.0,0.0,12.9,0.0,12.9,321.0,NW,1.8,1.8,DRY,,9999.0,,Night,0.0,night.gif
2025-06-22 02:51,10.8,12.8,0.0,0.0,1023.4,88.0,0.0,12.8,0.0,12.8,321.0,NW,1.8,1.8,DRY,,9999.0,,Night,0.0,night.gif
2025-06-22 03:01,10.8,12.8,0.0,0.0,1023.5,88.0,0.0,12.8,0.0,12.8,321.0,NW,0.0,0.0,DRY,,9999.0,,Night,0.0,night.gif
2025-06-22 03:06,10.9,12.7,0.0,0.0,1023.4,89.0,0.0,12.7,0.0,12.7,321.0,NW,3.6,2.2,DRY,,9999.0,,Night,0.0,night.gif
2025-06-22 03:11,10.6,12.4,0.0,0.0,1023.4,89.0,0.0,12.4,0.0,12.4,321.0,NW,1.8,0.4,DRY,,9999.0,,Night,0.0,night.gif
2025-06-22 03:16,10.6,12.2,0.0,0.0,1023.3,90.0,0.0,12.2,0.0,12.2,321.0,NW,0.0,0.0,DRY,,9999.0,,Night,0.0,night.gif
2025-06-22 03:21,10.7,12.1,0.0,0.0,1023.2,91.0,0.0,12.1,0.0,12.1,321.0,NW,0.0,0.0,DRY,,9999.0,,Night,0.0,night.gif
2025-06-22 03:26,10.6,12.2,0.0,0.0,1023.2,90.0,0.0,12.2,0.0,12.2,321.0,NW,1.8,1.8,DRY,,9999.0,,Night,0.0,night.gif
2025-06-22 03:31,10.7,12.3,0.0,0.0,1022.99,90.0,0.0,12.3,0.0,12.3,321.0,NW,0.0,0.0,DRY,,9999.0,,Night,0.0,night.gif
2025-06-22 03:36,10.6,12.2,0.0,0.0,1023.1,90.0,0.0,12.2,0.0,12.2,321.0,NW,0.0,0.0,DRY,,9999.0,,Night,0.0,night.gif
2025-06-22 03:41,10.6,12.2,0.0,0.0,1022.99,90.0,0.0,12.2,0.0,12.2,321.0,NW,1.8,0.7,DRY,,9999.0,,Night,0.0,night.gif
2025-06-22 03:46,10.5,11.9,0.0,0.0,1023.1,91.0,0.0,11.9,0.0,11.9,321.0,NW,1.8,1.8,DRY,,9999.0,,Night,0.0,night.gif
2025-06-22 03:51,10.6,12.0,0.0,0.0,1023.1,91.0,0.0,12.0,0.0,12.0,321.0,NW,0.0,0.0,DRY,,9999.0,,Night,0.0,night.gif
2025-06-22 03:56,10.5,11.9,0.0,0.0,1022.99,91.0,0.0,11.9,0.0,11.9,321.0,NW,1.8,1.1,DRY,,9999.0,,Night,0.0,night.gif
2025-06-22 04:01,10.4,11.8,0.0,0.0,1023.2,91.0,0.0,11.8,0.0,11.8,322.0,NW,1.8,1.1,DRY,,9999.0,,Night,0.0,night.gif
2025-06-22 04:06,10.2,11.6,0.0,0.0,1022.99,91.0,0.0,11.6,0.0,11.6,321.0,NW,1.8,0.4,DRY,,9999.0,,Night,0.0,night.gif
2025-06-22 04:11,10.5,11.7,0.0,0.0,1022.99,92.0,0.0,11.7,0.0,11.7,321.0,NW,1.8,1.1,DRY,,9999.0,,Night,0.0,night.gif
2025-06-22 04:16,10.1,11.5,0.0,0.0,1022.99,91.0,0.0,11.5,0.0,11.5,321.0,NW,3.6,2.2,DRY,,9999.0,,Night,0.0,night.gif
2025-06-22 04:21,10.2,11.6,0.0,0.0,1023.2,91.0,0.0,11.6,0.0,11.6,322.0,NW,1.8,1.4,DRY,,9999.0,,Night,0.0,night.gif
2025-06-22 04:26,10.1,11.5,0.0,0.0,1023.2,91.0,0.0,11.5,0.0,11.5,322.0,NW,3.6,2.2,DRY,,9999.0,,Night,0.0,night.gif
2025-06-22 04:31,10.3,11.5,0.0,0.0,1023.2,92.0,0.0,11.5,0.0,11.5,322.0,NW,1.8,1.8,DRY,,9999.0,,Night,0.0,night.gif
2025-06-22 04:36,10.3,11.4,0.0,0.0,1022.99,93.0,0.0,11.4,0.0,11.4,322.0,NW,1.8,0.4,DRY,,9999.0,,Twilight,0.0,cloudy.gif
2025-06-22 04:41,10.1,11.2,0.0,0.0,1022.99,93.0,0.0,11.2,0.0,11.2,322.0,NW,0.0,0.0,DRY,,9999.0,,Twilight,0.0,cloudy.gif
2025-06-22 04:46,10.4,11.5,0.0,0.0,1022.99,93.0,0.1,11.5,0.0,11.5,322.0,NW,1.8,1.1,DRY,,9999.0,,Twilight,0.0,cloudy.gif
2025-06-22 04:51,10.3,11.4,0.0,0.0,1023.1,93.0,0.2,11.4,0.0,11.4,322.0,NW,1.8,1.1,DRY,,9999.0,,Twilight,0.0,cloudy.gif
2025-06-22 04:56,10.0,11.1,0.0,0.0,1022.99,93.0,0.4,11.1,0.0,11.1,322.0,NW,0.0,0.0,DRY,,9999.0,,Twilight,0.0,cloudy.gif
2025-06-22 05:01,10.1,11.2,0.0,0.0,1023.1,93.0,0.8,11.2,0.0,11.2,322.0,NW,0.0,0.0,DRY,,9999.0,,Twilight,0.0,cloudy.gif
2025-06-22 05:06,10.0,11.2,0.0,0.0,1023.1,92.0,1.4,11.2,0.0,11.2,322.0,NW,1.8,0.4,DRY,,9999.0,,Twilight,0.0,cloudy.gif
2025-06-22 05:11,10.1,11.3,0.0,0.0,1023.1,92.0,2.2,11.3,0.0,11.3,321.0,NW,1.8,0.7,DRY,,9999.0,,Twilight,0.0,cloudy.gif
2025-06-22 05:16,10.3,11.4,0.0,0.0,1023.1,93.0,3.4,11.4,0.0,11.4,321.0,NW,0.0,0.0,DRY,,9999.0,,Sunny,3.2495054007410733,sunny.gif
2025-06-22 05:21,10.4,11.5,0.0,0.0,1023.2,93.0,5.0,11.5,0.0,11.5,321.0,NW,0.0,0.0,DRY,,9999.0,,Partly Cloudy,9.108483594296315,partly_cloudy.gif
2025-06-22 05:26,10.5,11.6,0.0,0.0,1023.3,93.0,6.8,11.6,0.0,11.6,322.0,NW,1.8,1.8,DRY,,9999.0,,Partly Cloudy,15.25737371170505,partly_cloudy.gif
2025-06-22 05:31,10.2,11.4,0.0,0.0,1022.99,92.0,9.3,11.4,0.0,11.4,322.0,NW,1.8,1.1,DRY,,9999.0,,Partly Cloudy,21.639521779602557,partly_cloudy.gif
2025-06-22 05:36,10.1,11.3,0.0,0.0,1023.2,92.0,11.9,11.3,0.0,11.3,322.0,NW,0.0,0.0,DRY,,9999.0,,Partly Cloudy,28.206906736443297,partly_cloudy.gif
2025-06-22 05:41,10.5,11.7,0.0,0.0,1023.1,92.0,15.2,11.7,0.0,11.7,322.0,NW,0.0,0.0,DRY,,9999.0,,Partly Cloudy,34.92151044832623,partly_cloudy.gif
2025-06-22 05:46,10.5,11.9,0.0,0.0,1023.2,91.0,18.8,11.9,0.0,11.9,322.0,NW,3.6,2.2,DRY,,9999.0,,Partly Cloudy,41.75665288420928,partly_cloudy.gif
2025-06-22 05:51,10.4,11.8,0.0,0.0,1023.2,91.0,22.3,11.8,0.0,11.8,322.0,NW,1.8,1.8,DRY,,9999.0,,Partly Cloudy,48.69827851785288,partly_cloudy.gif
2025-06-22 05:56,10.4,12.0,0.0,0.0,1023.1,90.0,26.5,12.0,0.0,12.0,322.0,NW,1.8,0.7,DRY,,9999.0,,Partly Cloudy,55.73930571912195,partly_cloudy.gif
2025-06-22 06:01,10.5,12.1,0.0,0.0,1023.2,90.0,30.4,12.1,0.0,12.1,322.0,NW,1.8,1.4,DRY,,9999.0,,Partly Cloudy,62.85067056422286,partly_cloudy.gif
2025-06-22 06:06,10.8,12.4,0.0,0.0,1023.1,90.0,34.8,12.4,0.0,12.4,322.0,NW,1.8,0.4,DRY,,9999.0,,Partly Cloudy,70.02800646865445,partly_cloudy.gif
2025-06-22 06:11,10.9,12.7,0.0,0.0,1023.3,89.0,38.8,12.7,0.0,12.7,322.0,NW,0.0,0.0,DRY,,9999.0,,Partly Cloudy,77.26379323836915,partly_cloudy.gif
2025-06-22 06:16,11.5,13.5,0.0,0.0,1023.4,88.0,42.9,13.5,0.0,13.5,322.0,NW,0.0,0.0,DRY,,9999.0,,Partly Cloudy,84.5513570601092,partly_cloudy.gif
2025-06-22 06:21,11.3,14.1,0.0,0.0,1023.2,83.0,45.9,14.1,0.0,14.1,322.0,NW,0.0,0.0,DRY,,9999.0,,Partly Cloudy,91.88467937690764,partly_cloudy.gif
2025-06-22 06:26,11.3,14.0,0.0,0.0,1022.99,84.0,48.6,14.0,0.0,14.0,322.0,NW,0.0,0.0,DRY,,9999.0,,Partly Cloudy,102.0882414377874,partly_cloudy.gif
2025-06-22 06:31,11.5,14.5,0.0,0.0,1023.2,82.0,54.3,14.5,0.0,14.5,322.0,NW,0.0,0.0,DRY,,9999.0,,Partly Cloudy,114.20716193150632,partly_cloudy.gif
2025-06-22 06:36,12.0,15.6,0.0,0.0,1023.2,79.0,61.7,15.6,0.0,15.6,322.0,NW,0.0,0.0,DRY,,9999.0,,Partly Cloudy,126.53691564347423,partly_cloudy.gif
2025-06-22 06:41,11.7,15.9,0.0,0.0,1022.99,76.0,70.8,15.9,0.0,15.9,322.0,NW,0.0,0.0,DRY,,9999.0,,Partly Cloudy,139.0467355393613,partly_cloudy.gif
2025-06-22 06:46,12.1,16.7,0.0,0.0,1023.2,74.0,78.9,16.7,0.0,16.7,322.0,NW,0.0,0.0,DRY,,9999.0,,Partly Cloudy,151.71021883428358,partly_cloudy.gif
2025-06-22 06:51,11.8,15.8,0.0,0.0,1023.2,77.0,86.6,15.8,0.0,15.8,323.0,NW,1.8,1.8,DRY,,9999.0,,Partly Cloudy,164.50440346166738,partly_cloudy.gif
2025-06-22 06:56,11.9,15.7,0.0,0.0,1023.3,78.0,93.9,15.7,0.0,15.7,323.0,NW,1.8,1.8,DRY,,9999.0,,Partly Cloudy,177.40906459650088,partly_cloudy.gif
2025-06-22 07:01,11.8,15.8,0.0,0.0,1023.4,77.0,102.6,15.8,1.0,15.8,323.0,NW,1.8,0.4,DRY,,9999.0,,Partly Cloudy,190.4061742702236,partly_cloudy.gif
2025-06-22 07:06,11.9,16.1,0.0,0.0,1023.3,76.0,110.2,16.1,1.0,16.1,328.0,NW,0.0,0.0,DRY,,9999.0,,Partly Cloudy,203.47948280839282,partly_cloudy.gif
2025-06-22 07:11,11.6,16.4,0.0,0.0,1023.4,73.0,119.7,16.4,1.0,16.4,328.0,NW,0.0,0.0,DRY,,9999.0,,Mostly Sunny,216.6141920004043,mostly_sunny.gif
2025-06-22 07:16,11.8,17.1,0.0,0.0,1023.4,71.0,128.3,17.1,1.0,17.1,328.0,NW,3.6,2.2,DRY,,9999.0,,Mostly Sunny,229.79669793571054,mostly_sunny.gif
2025-06-22 07:21,12.1,17.2,0.0,0.0,1023.3,72.0,138.2,17.2,1.0,17.2,335.0,NW,3.6,2.5,DRY,,9999.0,,Mostly Sunny,243.01438717323035,mostly_sunny.gif
2025-06-22 07:26,11.8,17.1,0.0,0.0,1023.3,71.0,149.1,17.1,1.0,17.1,335.0,NW,1.8,0.4,DRY,,9999.0,,Partly Cloudy,256.25547408700436,partly_cloudy.gif
2025-06-22 07:31,11.7,17.2,0.0,0.0,1023.4,70.0,158.7,17.2,1.0,17.2,335.0,NW,3.6,1.4,DRY,,9999.0,,Partly Cloudy,269.5088702373008,partly_cloudy.gif
2025-06-22 07:36,11.9,17.6,0.0,0.0,1023.5,69.0,168.8,17.6,1.0,17.6,336.0,NW,3.6,3.6,DRY,,9999.0,,Partly Cloudy,282.76407885175934,partly_cloudy.gif
2025-06-22 07:41,12.2,18.4,0.0,0.0,1023.5,67.0,178.9,18.4,1.0,18.4,336.0,NW,1.8,0.4,DRY,,9999.0,,Partly Cloudy,296.0111091293759,partly_cloudy.gif
2025-06-22 07:46,12.0,18.2,0.0,0.0,1023.6,67.0,180.7,18.2,1.0,18.2,336.0,NW,3.6,2.2,DRY,,9999.0,,Partly Cloudy,309.240406300615,partly_cloudy.gif
2025-06-22 07:51,12.0,18.2,0.0,0.0,1023.6,67.0,200.4,18.2,1.0,18.2,336.0,NW,1.8,1.1,DRY,,9999.0,,Partly Cloudy,322.4427943029775,partly_cloudy.gif
2025-06-22 07:56,12.0,18.9,0.0,0.0,1023.5,64.0,217.2,18.9,2.0,18.9,336.0,NW,1.8,1.8,DRY,,9999.0,,Partly Cloudy,335.6094286064837,partly_cloudy.gif
2025-06-22 08:01,12.1,19.1,0.0,0.0,1023.6,64.0,227.7,19.1,2.0,19.1,336.0,NW,1.8,0.4,DRY,,9999.0,,Mostly Sunny,348.73175726953053,mostly_sunny.gif
2025-06-22 08:06,12.1,19.6,0.0,0.0,1023.6,62.0,242.4,19.6,2.0,19.6,336.0,NW,3.6,1.8,DRY,,9999.0,,Mostly Sunny,361.80148869013885,mostly_sunny.gif
2025-06-22 08:11,12.2,19.7,0.0,0.0,1023.6,62.0,252.1,19.7,2.0,19.7,336.0,NW,1.8,1.4,DRY,,9999.0,,Mostly Sunny,374.81056484892196,mostly_sunny.gif
2025-06-22 08:16,11.7,19.7,0.0,0.0,1023.71,60.0,263.5,19.7,2.0,19.7,336.0,NW,1.8,1.8,DRY,,9999.0,,Mostly Sunny,387.7511390633026,mostly_sunny.gif
2025-06-22 08:21,12.0,20.0,0.0,0.0,1023.71,60.0,276.4,20.0,2.0,20.0,339.0,N,1.8,1.8,DRY,,9999.0,,Mostly Sunny,400.61555747898143,mostly_sunny.gif
2025-06-22 08:26,12.0,20.3,0.0,0.0,1023.81,59.0,285.5,20.3,2.0,20.3,337.0,NW,3.6,3.6,DRY,,9999.0,,Mostly Sunny,413.396343663033,mostly_sunny.gif
2025-06-22 08:31,12.5,20.8,0.0,0.0,1023.71,59.0,297.4,20.8,2.0,20.8,335.0,NW,1.8,1.8,DRY,,9999.0,,Mostly Sunny,426.0861857811278,mostly_sunny.gif
2025-06-22 08:36,11.9,20.1,0.0,0.0,1023.6,59.0,309.6,20.1,3.0,20.1,337.0,NW,1.8,0.4,DRY,,9999.0,,Mostly Sunny,438.6779259454349,mostly_sunny.gif
2025-06-22 08:41,12.0,20.7,0.0,0.0,1023.71,56.0,322.0,21.1,3.0,21.1,337.0,NW,3.6,3.2,DRY,,9999.0,,Mostly Sunny,451.1645513783994,mostly_sunny.gif
2025-06-22 08:46,11.8,20.6,0.0,0.0,1023.6,57.0,335.4,20.6,3.0,20.6,105.0,E,1.8,1.8,DRY,,9999.0,,Mostly Sunny,463.5391871163145,mostly_sunny.gif
2025-06-22 08:51,11.9,20.7,0.0,0.0,1023.6,57.0,345.5,20.7,3.0,20.7,141.0,SE,1.8,1.1,DRY,,9999.0,,Mostly Sunny,475.7950900067455,mostly_sunny.gif
2025-06-22 08:56,11.8,20.8,0.0,0.0,1023.71,55.0,358.3,21.2,3.0,21.2,88.0,E,3.6,2.2,DRY,,9999.0,,Mostly Sunny,487.92564381198747,mostly_sunny.gif
2025-06-22 09:01,12.2,20.9,0.0,0.0,1023.5,56.0,370.9,21.3,3.0,21.3,85.0,E,0.0,0.0,DRY,,9999.0,,Mostly Sunny,499.92435524483375,mostly_sunny.gif
2025-06-22 09:06,11.8,21.1,0.0,0.0,1023.5,54.0,380.1,21.5,3.0,21.5,90.0,E,1.8,0.7,DRY,,9999.0,,Mostly Sunny,511.7848508054427,mostly_sunny.gif
2025-06-22 09:11,12.0,21.6,0.0,0.0,1023.5,53.0,388.9,22.0,3.0,22.0,145.0,SE,1.8,1.8,DRY,,9999.0,,Mostly Sunny,523.5008742997214,mostly_sunny.gif
2025-06-22 09:16,12.5,22.2,0.0,0.0,1023.4,53.0,409.0,22.5,3.0,22.5,211.0,SW,5.4,3.2,DRY,,9999.0,,Mostly Sunny,535.0662849379041,mostly_sunny.gif
2025-06-22 09:21,12.2,21.5,0.0,0.0,1023.5,54.0,420.6,21.9,4.0,21.9,167.0,S,1.8,1.4,DRY,,9999.0,,Mostly Sunny,546.4750559362835,mostly_sunny.gif
2025-06-22 09:26,12.5,22.2,0.0,0.0,1023.2,53.0,436.7,22.5,4.0,22.5,140.0,SE,7.2,4.7,DRY,,9999.0,,Mostly Sunny,557.7212735423083,mostly_sunny.gif
2025-06-22 09:31,11.2,22.0,0.0,0.0,1023.3,49.0,452.1,22.4,4.0,22.4,116.0,SE,5.4,5.0,DRY,,9999.0,,Mostly Sunny,568.7991364305162,mostly_sunny.gif
2025-06-22 09:36,11.5,22.3,0.0,0.0,1023.2,49.0,465.1,22.7,4.0,22.7,103.0,E,1.8,1.8,DRY,,9999.0,,Mostly Sunny,579.7029554084481,mostly_sunny.gif
2025-06-22 09:41,11.2,23.1,0.0,0.0,1023.2,46.0,476.4,23.5,4.0,23.5,98.0,E,0.0,0.0,DRY,,9999.0,,Mostly Sunny,590.4271533957522,mostly_sunny.gif
2025-06-22 09:46,11.3,22.8,0.0,0.0,1023.1,47.0,489.8,23.2,4.0,23.2,70.0,E,1.8,1.8,DRY,,9999.0,,Mostly Sunny,600.9662656295412,mostly_sunny.gif
2025-06-22 09:51,11.0,22.5,0.0,0.0,1022.89,47.0,502.8,22.9,4.0,22.9,63.0,NE,3.6,1.1,DRY,,9999.0,,Mostly Sunny,611.3149400686259,mostly_sunny.gif
2025-06-22 09:56,11.0,23.6,0.0,0.0,1022.79,44.0,513.3,24.0,5.0,24.0,63.0,NE,0.0,0.0,DRY,,9999.0,,Mostly Sunny,621.4679379646852,mostly_sunny.gif
2025-06-22 10:01,10.3,23.2,0.0,0.0,1022.99,43.0,527.0,23.6,5.0,23.6,87.0,E,3.6,2.2,DRY,,9999.0,,Mostly Sunny,631.4201345724429,mostly_sunny.gif
2025-06-22 10:06,10.5,23.3,0.0,0.0,1022.89,43.0,537.8,23.8,5.0,23.8,45.0,NE,3.6,2.2,DRY,,9999.0,,Mostly Sunny,641.1665199825063,mostly_sunny.gif
2025-06-22 10:11,10.6,23.1,0.0,0.0,1022.89,44.0,550.7,23.5,5.0,23.5,22.0,N,5.4,2.9,DRY,,9999.0,,Mostly Sunny,650.70220004989,mostly_sunny.gif
2025-06-22 10:16,10.6,23.1,0.0,0.0,1022.79,44.0,561.2,23.5,5.0,23.5,0.0,N,3.6,2.2,DRY,,9999.0,,Sunny,660.0223974084803,sunny.gif
2025-06-22 10:21,11.0,23.9,0.0,0.0,1022.69,43.0,572.5,24.3,5.0,24.3,105.0,E,5.4,4.3,DRY,,9999.0,,Sunny,669.1224525489247,sunny.gif
2025-06-22 10:26,9.1,23.4,0.0,0.0,1022.49,39.0,582.1,23.9,5.0,23.9,129.0,SE,9.4,8.3,DRY,,9999.0,,Sunny,677.9978249536838,sunny.gif
2025-06-22 10:31,9.2,23.5,0.0,0.0,1022.79,39.0,592.3,24.0,5.0,24.0,168.0,S,3.6,2.5,DRY,,9999.0,,Sunny,686.6440942705582,sunny.gif
2025-06-22 10:36,9.8,24.1,0.0,0.0,1022.69,39.0,601.2,24.6,5.0,24.6,158.0,S,13.0,10.8,DRY,,9999.0,,Sunny,695.0569615195266,sunny.gif
2025-06-22 10:41,10.0,23.9,0.0,0.0,1022.59,40.0,610.3,24.4,5.0,24.4,236.0,SW,3.6,2.9,DRY,,9999.0,,Sunny,703.2322503212622,sunny.gif
2025-06-22 10:46,11.0,23.9,0.0,0.0,1022.69,43.0,619.6,24.3,6.0,24.3,157.0,SE,11.2,8.6,DRY,,9999.0,,Sunny,711.1659081370062,sunny.gif
2025-06-22 10:51,10.6,24.3,0.0,0.0,1022.49,41.0,629.3,24.7,6.0,24.7,123.0,SE,11.2,10.1,DRY,,9999.0,,Sunny,718.8540075172191,sunny.gif
2025-06-22 10:56,10.4,24.1,0.0,0.0,1022.49,41.0,635.7,24.5,6.0,24.5,266.0,W,5.4,5.4,DRY,,9999.0,,Sunny,726.2927473462079,sunny.gif
2025-06-22 11:01,11.0,24.0,0.0,0.0,1022.59,43.0,645.6,24.4,6.0,24.4,67.0,NE,3.6,1.8,DRY,,9999.0,,Sunny,733.4784540827895,sunny.gif
2025-06-22 11:06,10.6,24.3,0.0,0.0,1022.22,41.0,652.9,24.7,6.0,24.7,83.0,E,1.8,1.4,DRY,,9999.0,,Sunny,740.4075829855742,sunny.gif
2025-06-22 11:11,10.9,24.6,0.0,0.0,1022.32,41.0,661.7,25.0,6.0,25.0,121.0,SE,7.2,6.5,DRY,,9999.0,,Sunny,747.0767193237392,sunny.gif
2025-06-22 11:16,10.3,24.8,0.0,0.0,1022.32,39.0,667.5,25.2,6.0,25.2,103.0,E,13.0,11.9,DRY,,9999.0,,Sunny,753.4825795633824,sunny.gif
2025-06-22 11:21,10.5,24.6,0.0,0.0,1022.38,40.0,671.6,25.0,6.0,25.0,216.0,SW,0.0,0.0,DRY,,9999.0,,Sunny,759.6220125297813,sunny.gif
2025-06-22 11:26,10.6,25.1,0.0,0.0,1022.22,39.0,678.5,25.5,6.0,25.5,168.0,S,9.4,7.6,DRY,,9999.0,,Sunny,765.4920005400819,sunny.gif
2025-06-22 11:31,11.1,24.9,0.0,0.0,1022.22,41.0,683.0,25.3,6.0,25.3,197.0,S,5.4,5.0,DRY,,9999.0,,Sunny,771.0896605016939,sunny.gif
2025-06-22 11:36,9.3,24.9,0.0,0.0,1021.91,36.0,691.5,25.4,6.0,25.4,112.0,E,7.2,6.5,DRY,,9999.0,,Sunny,776.4122449771496,sunny.gif
2025-06-22 11:41,10.4,25.9,0.0,0.0,1022.11,37.0,694.3,26.2,6.0,26.2,204.0,SW,1.8,1.4,DRY,,9999.0,,Sunny,781.4571432081243,sunny.gif
2025-06-22 11:46,9.7,25.5,0.0,0.0,1021.81,36.0,700.2,25.9,6.0,25.9,129.0,SE,9.4,8.3,DRY,,9999.0,,Sunny,786.2218821006895,sunny.gif
2025-06-22 11:51,9.6,25.4,0.0,0.0,1022.01,36.0,705.8,25.8,6.0,25.8,121.0,SE,3.6,2.2,DRY,,9999.0,,Sunny,790.7041271651779,sunny.gif
2025-06-22 11:56,9.5,25.3,0.0,0.0,1021.91,36.0,708.9,25.7,6.0,25.7,135.0,SE,14.8,11.9,DRY,,9999.0,,Sunny,794.9016834127997,sunny.gif
2025-06-22 12:01,8.6,25.1,0.0,0.0,1022.11,34.0,713.4,25.6,6.0,25.6,66.0,NE,3.6,2.2,DRY,,9999.0,,Sunny,798.812496203252,sunny.gif
2025-06-22 12:06,10.0,25.8,0.0,0.0,1022.11,36.0,716.3,26.2,6.0,26.2,146.0,SE,5.4,5.0,DRY,,9999.0,,Sunny,802.4346520447189,sunny.gif
2025-06-22 12:11,9.5,25.3,0.0,0.0,1022.11,36.0,721.1,25.7,7.0,25.7,161.0,S,13.0,11.9,DRY,,9999.0,,Sunny,805.766379343404,sunny.gif
2025-06-22 12:16,9.7,25.5,0.0,0.0,1022.11,36.0,722.5,25.9,7.0,25.9,134.0,SE,11.2,8.6,DRY,,9999.0,,Sunny,808.806049100329,sunny.gif
2025-06-22 12:21,10.6,26.0,0.0,0.0,1021.91,37.0,724.2,26.4,7.0,26.4,140.0,SE,3.6,1.4,DRY,,9999.0,,Sunny,811.5521755566218,sunny.gif
2025-06-22 12:26,10.1,26.8,0.0,0.0,1022.01,34.0,728.0,27.3,7.0,27.3,113.0,SE,5.4,2.2,DRY,,9999.0,,Sunny,814.0034167832143,sunny.gif
2025-06-22 12:31,10.2,26.5,0.0,0.0,1021.91,35.0,730.9,26.9,7.0,26.9,122.0,SE,11.2,9.0,DRY,,9999.0,,Sunny,816.1585752168451,sunny.gif
2025-06-22 12:36,10.1,25.9,0.0,0.0,1021.61,36.0,731.7,26.3,7.0,26.3,67.0,NE,14.8,13.3,DRY,,9999.0,,Sunny,818.0165981388095,sunny.gif
2025-06-22 12:41,10.3,26.6,0.0,0.0,1021.71,35.0,734.2,27.0,7.0,27.0,150.0,SE,3.6,3.6,DRY,,9999.0,,Sunny,819.5765780981724,sunny.gif
2025-06-22 12:46,10.8,26.4,0.0,0.0,1021.5,37.0,737.3,26.7,7.0,26.7,71.0,E,7.2,5.4,DRY,,9999.0,,Sunny,820.8377532765453,sunny.gif
2025-06-22 12:51,10.7,26.2,0.0,0.0,1021.5,37.0,736.7,26.5,7.0,26.5,102.0,E,13.0,10.1,DRY,,9999.0,,Sunny,821.7995077956036,sunny.gif
2025-06-22 12:56,10.3,26.1,0.0,0.0,1021.5,36.0,738.4,26.5,7.0,26.5,339.0,N,5.4,4.0,DRY,,9999.0,,Sunny,822.461371966082,sunny.gif
2025-06-22 13:01,10.7,26.7,0.0,0.0,1021.5,36.0,739.4,27.0,7.0,27.0,109.0,E,1.8,1.8,DRY,,9999.0,,Sunny,822.8230224775295,sunny.gif
2025-06-22 13:06,11.0,26.9,0.0,0.0,1021.2,36.0,739.0,27.4,7.0,27.4,145.0,SE,11.2,7.6,DRY,,9999.0,,Sunny,822.8842825296488,sunny.gif
2025-06-22 13:11,11.2,26.8,0.0,0.0,1021.2,37.0,739.6,27.1,7.0,27.1,108.0,E,11.2,8.6,DRY,,9999.0,,Sunny,822.6451219037373,sunny.gif
2025-06-22 13:16,11.4,26.9,0.0,0.0,1021.3,37.0,740.5,27.3,7.0,27.3,49.0,NE,7.2,3.6,DRY,,9999.0,,Sunny,822.1056569752826,sunny.gif
2025-06-22 13:21,11.2,27.1,0.0,0.0,1021.3,36.0,740.3,27.6,7.0,27.6,47.0,NE,5.4,4.3,DRY,,9999.0,,Sunny,821.2661506667263,sunny.gif
2025-06-22 13:26,11.2,27.4,0.0,0.0,1021.3,35.0,738.0,28.1,7.0,28.1,130.0,SE,11.2,10.4,DRY,,9999.0,,Sunny,820.1270123412446,sunny.gif
2025-06-22 13:31,11.7,27.2,0.0,0.0,1021.2,37.0,737.2,27.7,7.0,27.7,111.0,E,3.6,1.8,DRY,,9999.0,,Sunny,818.6887976371129,sunny.gif
2025-06-22 13:36,11.7,27.2,0.0,0.0,1020.89,37.0,734.0,27.7,7.0,27.7,105.0,E,13.0,9.4,DRY,,9999.0,,Sunny,816.9522082433139,sunny.gif
2025-06-22 13:41,11.1,27.0,0.0,0.0,1020.79,36.0,733.5,27.5,7.0,27.5,54.0,NE,9.4,6.1,DRY,,9999.0,,Sunny,814.9180916164535,sunny.gif
2025-06-22 13:46,11.4,26.9,0.0,0.0,1021.1,37.0,729.7,27.3,7.0,27.3,81.0,E,5.4,5.4,DRY,,9999.0,,Sunny,812.5874406396155,sunny.gif
2025-06-22 13:51,11.5,27.3,0.0,0.0,1020.89,36.0,727.9,27.9,7.0,27.9,133.0,SE,9.4,7.2,DRY,,9999.0,,Sunny,809.961393223442,sunny.gif
2025-06-22 13:56,12.5,28.0,0.0,0.0,1020.79,37.0,724.8,28.6,7.0,28.6,194.0,S,5.4,4.0,DRY,,9999.0,,Sunny,807.0412318504249,sunny.gif
2025-06-22 14:01,12.3,28.1,0.0,0.0,1020.69,36.0,721.1,28.8,7.0,28.8,94.0,E,14.8,12.2,DRY,,9999.0,,Sunny,803.8283830625936,sunny.gif
2025-06-22 14:06,12.1,27.9,0.0,0.0,1020.69,36.0,715.2,28.6,6.0,28.6,132.0,SE,7.2,5.4,DRY,,9999.0,,Sunny,800.3244168941553,sunny.gif
2025-06-22 14:11,12.1,27.6,0.0,0.0,1020.39,37.0,711.7,28.1,6.0,28.1,69.0,E,5.4,3.6,DRY,,9999.0,,Sunny,796.5310462491142,sunny.gif
2025-06-22 14:16,12.4,28.2,0.0,0.0,1020.29,36.0,707.3,28.9,6.0,28.9,100.0,E,3.6,3.6,DRY,,9999.0,,Sunny,792.4501262259788,sunny.gif
2025-06-22 14:21,12.5,28.7,0.0,0.0,1020.29,35.0,703.4,29.5,6.0,29.5,115.0,SE,9.4,6.8,DRY,,9999.0,,Sunny,788.0836533898375,sunny.gif
2025-06-22 14:26,12.2,27.7,0.0,0.0,1020.29,37.0,700.4,28.2,6.0,28.2,120.0,SE,11.2,9.4,DRY,,9999.0,,Sunny,783.4337649933883,sunny.gif
2025-06-22 14:31,12.4,27.9,0.0,0.0,1020.12,37.0,694.3,28.5,6.0,28.5,142.0,SE,11.2,10.4,DRY,,9999.0,,Sunny,778.5027381490881,sunny.gif
2025-06-22 14:36,12.7,28.1,0.0,0.0,1020.29,37.0,688.5,28.8,6.0,28.8,158.0,S,3.6,1.4,DRY,,9999.0,,Sunny,773.2929889525351,sunny.gif
2025-06-22 14:41,12.2,27.7,0.0,0.0,1020.01,37.0,680.4,28.2,6.0,28.2,14.0,N,3.6,1.1,DRY,,9999.0,,Sunny,767.8070715608023,sunny.gif
2025-06-22 14:46,12.4,28.2,0.0,0.0,1019.91,36.0,674.5,28.9,6.0,28.9,117.0,SE,7.2,5.0,DRY,,9999.0,,Sunny,762.0476772255565,sunny.gif
2025-06-22 14:51,12.5,28.0,0.0,0.0,1019.91,37.0,668.8,28.6,6.0,28.6,175.0,S,11.2,9.0,DRY,,9999.0,,Sunny,756.0176332854256,sunny.gif
2025-06-22 14:56,12.3,27.7,0.0,0.0,1019.91,37.0,663.2,28.3,6.0,28.3,166.0,S,9.4,7.2,DRY,,9999.0,,Sunny,749.7199021175352,sunny.gif
2025-06-22 15:01,12.5,28.4,0.0,0.0,1019.81,36.0,656.0,29.1,6.0,29.1,136.0,SE,1.8,1.8,DRY,,9999.0,,Sunny,743.1575800533816,sunny.gif
2025-06-22 15:06,12.5,28.7,0.0,0.0,1019.61,35.0,647.3,29.5,6.0,29.5,96.0,E,5.4,2.2,DRY,,9999.0,,Sunny,736.3338962598104,sunny.gif
2025-06-22 15:11,13.0,28.9,0.0,0.0,1019.71,36.0,639.3,29.6,6.0,29.6,126.0,SE,1.8,1.8,DRY,,9999.0,,Sunny,729.2522115890501,sunny.gif
2025-06-22 15:16,12.8,28.2,0.0,0.0,1019.51,37.0,631.8,28.9,6.0,28.9,116.0,SE,9.4,6.8,DRY,,9999.0,,Sunny,721.9160174024489,sunny.gif
