timestamp,imedvode1_dewpoint,imedvode1_heat_index,imedvode1_precipitation_rate,imedvode1_precipitation_today,imedvode1_pressure,imedvode1_relative_humidity,imedvode1_solar_radiation,imedvode1_temperature,imedvode1_uv_index,imedvode1_wind_chill,imedvode1_wind_direction_degrees,windCardinals,imedvode1_wind_gust,imedvode1_wind_speed,condition1,condition2,visibility,condition3,sky,max_solar_radiation,image_name
2025-06-21 23:31,11.6,16.0,0.0,0.0,1023.2,75.0,0.1,16.0,1.0,16.0,319.0,NW,1.8,1.8,DRY,,9999.0,,Night,0.0,night.gif
2025-06-21 23:36,11.4,15.8,0.0,0.0,1023.2,75.0,0.1,15.8,1.0,15.8,319.0,NW,1.8,1.8,DRY,,9999.0,,Night,0.0,night.gif
2025-06-21 23:41,11.3,15.9,0.0,0.0,1023.1,74.0,0.1,15.9,1.0,15.9,319.0,NW,1.8,1.8,DRY,,9999.0,,Night,0.0,night.gif
2025-06-21 23:46,11.5,15.7,0.0,0.0,1023.3,76.0,0.1,15.7,1.0,15.7,320.0,NW,1.8,1.1,DRY,,9999.0,,Night,0.0,night.gif
2025-06-21 23:51,11.6,15.6,0.0,0.0,1023.3,77.0,0.1,15.6,1.0,15.6,320.0,NW,1.8,1.8,DRY,,9999.0,,Night,0.0,night.gif
2025-06-21 23:56,11.8,15.4,0.0,0.0,1023.4,79.0,0.1,15.4,1.0,15.4,320.0,NW,1.8,1.1,DRY,,9999.0,,Night,0.0,night.gif
2025-06-22 00:01,11.6,15.0,0.0,0.0,1023.4,80.0,0.1,15.0,1.0,15.0,320.0,NW,0.0,0.0,DRY,,9999.0,,Night,0.0,night.gif
2025-06-22 00:06,11.6,15.0,0.0,0.0,1023.3,80.0,0.1,15.0,1.0,15.0,320.0,NW,1.8,1.8,DRY,,9999.0,,Night,0.0,night.gif
2025-06-22 00:11,11.6,14.8,0.0,0.0,1023.5,81.0,0.1,14.8,1.0,14.8,321.0,NW,1.8,0.4,DRY,,9999.0,,Night,0.0,night.gif
2025-06-22 00:16,11.4,14.6,0.0,0.0,1023.4,81.0,0.1,14.6,1.0,14.6,320.0,NW,1.8,0.4,DRY,,9999.0,,Night,0.0,night.gif
2025-06-22 00:21,11.3,14.7,0.0,0.0,1023.5,80.0,0.1,14.7,1.0,14.7,320.0,NW,1.8,1.8,DRY,,9999.0,,Night,0.0,night.gif
2025-06-22 00:26,11.3,14.5,0.0,0.0,1023.4,81.0,0.1,14.5,1.0,14.5,320.0,NW,1.8,0.4,DRY,,9999.0,,Night,0.0,night.gif
2025-06-22 00:31,11.3,14.5,0.0,0.0,1023.5,81.0,0.1,14.5,1.0,14.5,320.0,NW,1.8,1.4,DRY,,9999.0,,Night,0.0,night.gif
2025-06-22 00:36,11.4,14.6,0.0,0.0,1023.4,81.0,0.1,14.6,1.0,14.6,320.0,NW,0.0,0.0,DRY,,9999.0,,Night,0.0,night.gif
2025-06-22 00:41,11.5,14.7,0.0,0.0,1023.3,81.0,0.1,14.7,1.0,14.7,320.0,NW,1.8,1.4,DRY,,9999.0,,Night,0.0,night.gif
2025-06-22 00:46,11.6,14.6,0.0,0.0,1023.4,82.0,0.1,14.6,1.0,14.6,320.0,NW,0.0,0.0,DRY,,9999.0,,Night,0.0,night.gif
2025-06-22 00:51,11.5,14.4,0.0,0.0,1023.2,83.0,0.1,14.4,1.0,14.4,320.0,NW,1.8,0.7,DRY,,9999.0,,Night,0.0,night.gif
2025-06-22 00:56,11.4,14.4,0.0,0.0,1023.4,82.0,0.1,14.4,1.0,14.4,320.0,NW,1.8,1.4,DRY,,9999.0,,Night,0.0,night.gif
2025-06-22 01:01,11.3,14.0,0.0,0.0,1023.2,84.0,0.1,14.0,1.0,14.0,321.0,NW,0.0,0.0,DRY,,9999.0,,Night,0.0,night.gif
2025-06-22 01:06,11.3,14.0,0.0,0.0,1023.3,84.0,0.1,14.0,1.0,14.0,320.0,NW,1.8,1.1,DRY,,9999.0,,Night,0.0,night.gif
2025-06-22 01:11,11.5,14.2,0.0,0.0,1023.2,84.0,0.1,14.2,1.0,14.2,321.0,NW,1.8,1.8,DRY,,9999.0,,Night,0.0,night.gif
2025-06-22 01:16,11.1,13.6,0.0,0.0,1023.2,85.0,0.1,13.6,1.0,13.6,321.0,NW,1.8,1.8,DRY,,9999.0,,Night,0.0,night.gif
2025-06-22 01:21,11.2,13.7,0.0,0.0,1023.3,85.0,0.1,13.7,1.0,13.7,320.0,NW,1.8,1.8,DRY,,9999.0,,Night,0.0,night.gif
2025-06-22 01:26,11.0,13.7,0.0,0.0,1023.3,84.0,0.1,13.7,1.0,13.7,321.0,NW,0.0,0.0,DRY,,9999.0,,Night,0.0,night.gif
2025-06-22 01:31,10.9,13.6,0.0,0.0,1023.2,84.0,0.1,13.6,1.0,13.6,320.0,NW,1.8,0.4,DRY,,9999.0,,Night,0.0,night.gif
2025-06-22 01:36,11.1,13.9,0.0,0.0,1023.2,83.0,0.1,13.9,1.0,13.9,321.0,NW,1.8,1.8,DRY,,9999.0,,Night,0.0,night.gif
2025-06-22 01:41,11.0,13.3,0.0,0.0,1023.3,86.0,0.1,13.3,1.0,13.3,321.0,NW,1.8,1.8,DRY,,9999.0,,Night,0.0,night.gif
2025-06-22 01:46,11.2,13.5,0.0,0.0,1023.2,86.0,0.1,13.5,1.0,13.5,321.0,NW,3.6,2.9,DRY,,9999.0,,Night,0.0,night.gif
2025-06-22 01:51,11.2,13.3,0.0,0.0,1023.2,87.0,0.1,13.3,1.0,13.3,321.0,NW,1.8,1.4,DRY,,9999.0,,Night,0.0,night.gif
2025-06-22 02:01,11.0,13.1,0.0,0.0,1023.5,87.0,0.1,13.1,1.0,13.1,321.0,NW,1.8,1.8,DRY,,9999.0,,Night,0.0,night.gif
2025-06-22 02:06,11.0,13.1,0.0,0.0,1023.3,87.0,0.1,13.1,1.0,13.1,321.0,NW,1.8,1.1,DRY,,9999.0,,Night,0.0,night.gif
2025-06-22 02:11,11.0,13.1,0.0,0.0,1023.3,87.0,0.1,13.1,1.0,13.1,321.0,NW,0.0,0.0,DRY,,9999.0,,Night,0.0,night.gif
2025-06-22 02:16,10.9,13.4,0.0,0.0,1023.3,85.0,0.1,13.4,1.0,13.4,321.0,NW,0.0,0.0,DRY,,9999.0,,Night,0.0,night.gif
2025-06-22 02:21,11.0,13.5,0.0,0.0,1023.4,85.0,0.1,13.5,1.0,13.5,321.0,NW,1.8,1.1,DRY,,9999.0,,Night,0.0,night.gif
2025-06-22 02:26,10.8,13.1,0.0,0.0,1023.4,86.0,0.1,13.1,1.0,13.1,321.0,NW,1.8,1.1,DRY,,9999.0,,Night,0.0,night.gif
2025-06-22 02:31,10.8,12.8,0.0,0.0,1023.5,88.0,0.1,12.8,1.0,12.8,321.0,NW,1.8,1.4,DRY,,9999.0,,Night,0.0,night.gif
2025-06-22 02:36,10.7,12.5,0.0,0.0,1023.5,89.0,0.1,12.5,1.0,12.5,321.0,NW,1.8,1.1,DRY,,9999.0,,Night,0.0,night.gif
2025-06-22 02:46,10.8,12.9,0.0,0.0,1023.4,87.0,0.1,12.9,1.0,12.9,321.0,NW,1.8,1.8,DRY,,9999.0,,Night,0.0,night.gif
2025-06-22 02:51,10.8,12.8,0.0,0.0,1023.4,88.0,0.1,12.8,1.0,12.8,321.0,NW,1.8,1.8,DRY,,9999.0,,Night,0.0,night.gif
2025-06-22 03:01,10.8,12.8,0.0,0.0,1023.5,88.0,0.1,12.8,1.0,12.8,321.0,NW,0.0,0.0,DRY,,9999.0,,Night,0.0,night.gif
2025-06-22 03:06,10.9,12.7,0.0,0.0,1023.4,89.0,0.1,12.7,1.0,12.7,321.0,NW,3.6,2.2,DRY,,9999.0,,Night,0.0,night.gif
2025-06-22 03:11,10.6,12.4,0.0,0.0,1023.4,89.0,0.1,12.4,1.0,12.4,321.0,NW,1.8,0.4,DRY,,9999.0,,Night,0.0,night.gif
2025-06-22 03:16,10.6,12.2,0.0,0.0,1023.3,90.0,0.1,12.2,1.0,12.2,321.0,NW,0.0,0.0,DRY,,9999.0,,Night,0.0,night.gif
2025-06-22 03:21,10.7,12.1,0.0,0.0,1023.2,91.0,0.1,12.1,1.0,12.1,321.0,NW,0.0,0.0,DRY,,9999.0,,Night,0.0,night.gif
2025-06-22 03:26,10.6,12.2,0.0,0.0,1023.2,90.0,0.1,12.2,1.0,12.2,321.0,NW,1.8,1.8,DRY,,9999.0,,Night,0.0,night.gif
2025-06-22 03:31,10.7,12.3,0.0,0.0,1022.99,90.0,0.1,12.3,1.0,12.3,321.0,NW,0.0,0.0,DRY,,9999.0,,Night,0.0,night.gif
2025-06-22 03:36,10.6,12.2,0.0,0.0,1023.1,90.0,0.1,12.2,1.0,12.2,321.0,NW,0.0,0.0,DRY,,9999.0,,Night,0.0,night.gif
2025-06-22 03:41,10.6,12.2,0.0,0.0,1022.99,90.0,0.1,12.2,1.0,12.2,321.0,NW,1.8,0.7,DRY,,9999.0,,Night,0.0,night.gif
2025-06-22 03:46,10.5,11.9,0.0,0.0,1023.1,91.0,0.1,11.9,1.0,11.9,321.0,NW,1.8,1.8,DRY,,9999.0,,Night,0.0,night.gif
2025-06-22 03:51,10.6,12.0,0.0,0.0,1023.1,91.0,0.1,12.0,1.0,12.0,321.0,NW,0.0,0.0,DRY,,9999.0,,Night,0.0,night.gif
2025-06-22 03:56,10.5,11.9,0.0,0.0,1022.99,91.0,0.1,11.9,1.0,11.9,321.0,NW,1.8,1.1,DRY,,9999.0,,Night,0.0,night.gif
2025-06-22 04:01,10.4,11.8,0.0,0.0,1023.2,91.0,0.1,11.8,1.0,11.8,322.0,NW,1.8,1.1,DRY,,9999.0,,Night,0.0,night.gif
2025-06-22 04:06,10.2,11.6,0.0,0.0,1022.99,91.0,0.1,11.6,1.0,11.6,321.0,NW,1.8,0.4,DRY,,9999.0,,Night,0.0,night.gif
2025-06-22 04:11,10.5,11.7,0.0,0.0,1022.99,92.0,0.1,11.7,1.0,11.7,321.0,NW,1.8,1.1,DRY,,9999.0,,Night,0.0,night.gif
2025-06-22 04:16,10.1,11.5,0.0,0.0,1022.99,91.0,0.1,11.5,1.0,11.5,321.0,NW,3.6,2.2,DRY,,9999.0,,Night,0.0,night.gif
2025-06-22 04:21,10.2,11.6,0.0,0.0,1023.2,91.0,0.1,11.6,1.0,11.6,322.0,NW,1.8,1.4,DRY,,9999.0,,Night,0.0,night.gif
2025-06-22 04:26,10.1,11.5,0.0,0.0,1023.2,91.0,0.1,11.5,1.0,11.5,322.0,NW,3.6,2.2,DRY,,9999.0,,Night,0.0,night.gif
2025-06-22 04:31,10.3,11.5,0.0,0.0,1023.2,92.0,0.1,11.5,1.0,11.5,322.0,NW,1.8,1.8,DRY,,9999.0,,Night,0.0,night.gif
2025-06-22 04:36,10.3,11.4,0.0,0.0,1022.99,93.0,0.1,11.4,1.0,11.4,322.0,NW,1.8,0.4,DRY,,9999.0,,Twilight,0.0,cloudy.gif
2025-06-22 04:41,10.1,11.2,0.0,0.0,1022.99,93.0,0.1,11.2,1.0,11.2,322.0,NW,0.0,0.0,DRY,,9999.0,,Twilight,0.0,cloudy.gif
2025-06-22 04:46,10.4,11.5,0.0,0.0,1022.99,93.0,0.1,11.5,1.0,11.5,322.0,NW,1.8,1.1,DRY,,9999.0,,Twilight,0.0,cloudy.gif
2025-06-22 04:51,10.3,11.4,0.0,0.0,1023.1,93.0,0.2,11.4,1.0,11.4,322.0,NW,1.8,1.1,DRY,,9999.0,,Twilight,0.0,cloudy.gif
2025-06-22 04:56,10.0,11.1,0.0,0.0,1022.99,93.0,0.4,11.1,1.0,11.1,322.0,NW,0.0,0.0,DRY,,9999.0,,Twilight,0.0,cloudy.gif
2025-06-22 05:01,10.1,11.2,0.0,0.0,1023.1,93.0,0.8,11.2,1.0,11.2,322.0,NW,0.0,0.0,DRY,,9999.0,,Twilight,0.0,cloudy.gif
2025-06-22 05:06,10.0,11.2,0.0,0.0,1023.1,92.0,1.4,11.2,1.0,11.2,322.0,NW,1.8,0.4,DRY,,9999.0,,Twilight,0.0,cloudy.gif
2025-06-22 05:11,10.1,11.3,0.0,0.0,1023.1,92.0,2.2,11.3,1.0,11.3,321.0,NW,1.8,0.7,DRY,,9999.0,,Twilight,0.0,cloudy.gif
2025-06-22 05:16,10.3,11.4,0.0,0.0,1023.1,93.0,3.4,11.4,1.0,11.4,321.0,NW,0.0,0.0,DRY,,9999.0,,Sunny,3.2495054007410733,sunny.gif
2025-06-22 05:21,10.4,11.5,0.0,0.0,1023.2,93.0,5.0,11.5,1.0,11.5,321.0,NW,0.0,0.0,DRY,,9999.0,,Partly Cloudy,9.108483594296315,partly_cloudy.gif
2025-06-22 05:26,10.5,11.6,0.0,0.0,1023.3,93.0,6.8,11.6,1.0,11.6,322.0,NW,1.8,1.8,DRY,,9999.0,,Partly Cloudy,15.25737371170505,partly_cloudy.gif
2025-06-22 05:31,10.2,11.4,0.0,0.0,1022.99,92.0,9.3,11.4,1.0,11.4,322.0,NW,1.8,1.1,DRY,,9999.0,,Partly Cloudy,21.639521779602557,partly_cloudy.gif
2025-06-22 05:36,10.1,11.3,0.0,0.0,1023.2,92.0,11.9,11.3,1.0,11.3,322.0,NW,0.0,0.0,DRY,,9999.0,,Partly Cloudy,28.206906736443297,partly_cloudy.gif
2025-06-22 05:41,10.5,11.7,0.0,0.0,1023.1,92.0,15.2,11.7,1.0,11.7,322.0,NW,0.0,0.0,DRY,,9999.0,,Partly Cloudy,34.92151044832623,partly_cloudy.gif
2025-06-22 05:46,10.5,11.9,0.0,0.0,1023.2,91.0,18.8,11.9,1.0,11.9,322.0,NW,3.6,2.2,DRY,,9999.0,,Partly Cloudy,41.75665288420928,partly_cloudy.gif
2025-06-22 05:51,10.4,11.8,0.0,0.0,1023.2,91.0,22.3,11.8,1.0,11.8,322.0,NW,1.8,1.8,DRY,,9999.0,,Partly Cloudy,48.69827851785288,partly_cloudy.gif
2025-06-22 05:56,10.4,12.0,0.0,0.0,1023.1,90.0,26.5,12.0,1.0,12.0,322.0,NW,1.8,0.7,DRY,,9999.0,,Partly Cloudy,55.73930571912195,partly_cloudy.gif
2025-06-22 06:01,10.5,12.1,0.0,0.0,1023.2,90.0,30.4,12.1,1.0,12.1,322.0,NW,1.8,1.4,DRY,,9999.0,,Partly Cloudy,62.85067056422286,partly_cloudy.gif
2025-06-22 06:06,10.8,12.4,0.0,0.0,1023.1,90.0,34.8,12.4,1.0,12.4,322.0,NW,1.8,0.4,DRY,,9999.0,,Partly Cloudy,70.02800646865445,partly_cloudy.gif
2025-06-22 06:11,10.9,12.7,0.0,0.0,1023.3,89.0,38.8,12.7,1.0,12.7,322.0,NW,0.0,0.0,DRY,,9999.0,,Partly Cloudy,77.26379323836915,partly_cloudy.gif
2025-06-22 06:16,11.5,13.5,0.0,0.0,1023.4,88.0,42.9,13.5,1.0,13.5,322.0,NW,0.0,0.0,DRY,,9999.0,,Partly Cloudy,84.5513570601092,partly_cloudy.gif
2025-06-22 06:21,11.3,14.1,0.0,0.0,1023.2,83.0,45.9,14.1,1.0,14.1,322.0,NW,0.0,0.0,DRY,,9999.0,,Partly Cloudy,91.88467937690764,partly_cloudy.gif
2025-06-22 06:26,11.3,14.0,0.0,0.0,1022.99,84.0,48.6,14.0,1.0,14.0,322.0,NW,0.0,0.0,DRY,,9999.0,,Partly Cloudy,102.0882414377874,partly_cloudy.gif
2025-06-22 06:31,11.5,14.5,0.0,0.0,1023.2,82.0,54.3,14.5,1.0,14.5,322.0,NW,0.0,0.0,DRY,,9999.0,,Partly Cloudy,114.20716193150632,partly_cloudy.gif
2025-06-22 06:36,12.0,15.6,0.0,0.0,1023.2,79.0,61.7,15.6,1.0,15.6,322.0,NW,0.0,0.0,DRY,,9999.0,,Partly Cloudy,126.53691564347423,partly_cloudy.gif
2025-06-22 06:41,11.7,15.9,0.0,0.0,1022.99,76.0,70.8,15.9,1.0,15.9,322.0,NW,0.0,0.0,DRY,,9999.0,,Partly Cloudy,139.0467355393613,partly_cloudy.gif
2025-06-22 06:46,12.1,16.7,0.0,0.0,1023.2,74.0,78.9,16.7,1.0,16.7,322.0,NW,0.0,0.0,DRY,,9999.0,,Partly Cloudy,151.71021883428358,partly_cloudy.gif
2025-06-22 06:51,11.8,15.8,0.0,0.0,1023.2,77.0,86.6,15.8,1.0,15.8,323.0,NW,1.8,1.8,DRY,,9999.0,,Partly Cloudy,164.50440346166738,partly_cloudy.gif
2025-06-22 06:56,11.9,15.7,0.0,0.0,1023.3,78.0,93.9,15.7,1.0,15.7,323.0,NW,1.8,1.8,DRY,,9999.0,,Partly Cloudy,177.40906459650088,partly_cloudy.gif
2025-06-22 07:01,11.8,15.8,0.0,0.0,1023.4,77.0,102.6,15.8,1.0,15.8,323.0,NW,1.8,0.4,DRY,,9999.0,,Partly Cloudy,190.4061742702236,partly_cloudy.gif
2025-06-22 07:06,11.9,16.1,0.0,0.0,1023.3,76.0,110.2,16.1,1.0,16.1,328.0,NW,0.0,0.0,DRY,,9999.0,,Partly Cloudy,203.47948280839282,partly_cloudy.gif
2025-06-22 07:11,11.6,16.4,0.0,0.0,1023.4,73.0,119.7,16.4,1.0,16.4,328.0,NW,0.0,0.0,DRY,,9999.0,,Mostly Sunny,216.6141920004043,mostly_sunny.gif
2025-06-22 07:16,11.8,17.1,0.0,0.0,1023.4,71.0,128.3,17.1,1.0,17.1,328.0,NW,3.6,2.2,DRY,,9999.0,,Mostly Sunny,229.79669793571054,mostly_sunny.gif
2025-06-22 07:21,12.1,17.2,0.0,0.0,1023.3,72.0,138.2,17.2,1.0,17.2,335.0,NW,3.6,2.5,DRY,,9999.0,,Mostly Sunny,243.01438717323035,mostly_sunny.gif
2025-06-22 07:26,11.8,17.1,0.0,0.0,1023.3,71.0,149.1,17.1,1.0,17.1,335.0,NW,1.8,0.4,DRY,,9999.0,,Partly Cloudy,256.25547408700436,partly_cloudy.gif
2025-06-22 07:31,11.7,17.2,0.0,0.0,1023.4,70.0,158.7,17.2,1.0,17.2,335.0,NW,3.6,1.4,DRY,,9999.0,,Partly Cloudy,269.5088702373008,partly_cloudy.gif
2025-06-22 07:36,11.9,17.6,0.0,0.0,1023.5,69.0,168.8,17.6,1.0,17.6,336.0,NW,3.6,3.6,DRY,,9999.0,,Partly Cloudy,282.76407885175934,partly_cloudy.gif
2025-06-22 07:41,12.2,18.4,0.0,0.0,1023.5,67.0,178.9,18.4,1.0,18.4,336.0,NW,1.8,0.4,DRY,,9999.0,,Partly Cloudy,296.0111091293759,partly_cloudy.gif
2025-06-22 07:46,12.0,18.2,0.0,0.0,1023.6,67.0,180.7,18.2,1.0,18.2,336.0,NW,3.6,2.2,DRY,,9999.0,,Partly Cloudy,309.240406300615,partly_cloudy.gif
2025-06-22 07:51,12.0,18.2,0.0,0.0,1023.6,67.0,200.4,18.2,1.0,18.2,336.0,NW,1.8,1.1,DRY,,9999.0,,Partly Cloudy,322.4427943029775,partly_cloudy.gif
2025-06-22 07:56,12.0,18.9,0.0,0.0,1023.5,64.0,217.2,18.9,2.0,18.9,336.0,NW,1.8,1.8,DRY,,9999.0,,Partly Cloudy,335.6094286064837,partly_cloudy.gif
2025-06-22 08:01,12.1,19.1,0.0,0.0,1023.6,64.0,227.7,19.1,2.0,19.1,336.0,NW,1.8,0.4,DRY,,9999.0,,Mostly Sunny,348.73175726953053,mostly_sunny.gif
2025-06-22 08:06,12.1,19.6,0.0,0.0,1023.6,62.0,242.4,19.6,2.0,19.6,336.0,NW,3.6,1.8,DRY,,9999.0,,Mostly Sunny,361.80148869013885,mostly_sunny.gif
2025-06-22 08:11,12.2,19.7,0.0,0.0,1023.6,62.0,252.1,19.7,2.0,19.7,336.0,NW,1.8,1.4,DRY,,9999.0,,Mostly Sunny,374.81056484892196,mostly_sunny.gif
2025-06-22 08:16,11.7,19.7,0.0,0.0,1023.71,60.0,263.5,19.7,2.0,19.7,336.0,NW,1.8,1.8,DRY,,9999.0,,Mostly Sunny,387.7511390633026,mostly_sunny.gif
2025-06-22 08:21,12.0,20.0,0.0,0.0,1023.71,60.0,276.4,20.0,2.0,20.0,339.0,N,1.8,1.8,DRY,,9999.0,,Mostly Sunny,400.61555747898143,mostly_sunny.gif
2025-06-22 08:26,12.0,20.3,0.0,0.0,1023.81,59.0,285.5,20.3,2.0,20.3,337.0,NW,3.6,3.6,DRY,,9999.0,,Mostly Sunny,413.396343663033,mostly_sunny.gif
2025-06-22 08:31,12.5,20.8,0.0,0.0,1023.71,59.0,297.4,20.8,2.0,20.8,335.0,NW,1.8,1.8,DRY,,9999.0,,Mostly Sunny,426.0861857811278,mostly_sunny.gif
2025-06-22 08:36,11.9,20.1,0.0,0.0,1023.6,59.0,309.6,20.1,3.0,20.1,337.0,NW,1.8,0.4,DRY,,9999.0,,Mostly Sunny,438.6779259454349,mostly_sunny.gif
2025-06-22 08:41,12.0,20.7,0.0,0.0,1023.71,56.0,322.0,21.1,3.0,21.1,337.0,NW,3.6,3.2,DRY,,9999.0,,Mostly Sunny,451.1645513783994,mostly_sunny.gif
2025-06-22 08:46,11.8,20.6,0.0,0.0,1023.6,57.0,335.4,20.6,3.0,20.6,105.0,E,1.8,1.8,DRY,,9999.0,,Mostly Sunny,463.5391871163145,mostly_sunny.gif
2025-06-22 08:51,11.9,20.7,0.0,0.0,1023.6,57.0,345.5,20.7,3.0,20.7,141.0,SE,1.8,1.1,DRY,,9999.0,,Mostly Sunny,475.7950900067455,mostly_sunny.gif
2025-06-22 08:56,11.8,20.8,0.0,0.0,1023.71,55.0,358.3,21.2,3.0,21.2,88.0,E,3.6,2.2,DRY,,9999.0,,Mostly Sunny,487.92564381198747,mostly_sunny.gif
2025-06-22 09:01,12.2,20.9,0.0,0.0,1023.5,56.0,370.9,21.3,3.0,21.3,85.0,E,0.0,0.0,DRY,,9999.0,,Mostly Sunny,499.92435524483375,mostly_sunny.gif
2025-06-22 09:06,11.8,21.1,0.0,0.0,1023.5,54.0,380.1,21.5,3.0,21.5,90.0,E,1.8,0.7,DRY,,9999.0,,Mostly Sunny,511.7848508054427,mostly_sunny.gif
2025-06-22 09:11,12.0,21.6,0.0,0.0,1023.5,53.0,388.9,22.0,3.0,22.0,145.0,SE,1.8,1.8,DRY,,9999.0,,Mostly Sunny,523.5008742997214,mostly_sunny.gif
2025-06-22 09:16,12.5,22.2,0.0,0.0,1023.4,53.0,409.0,22.5,3.0,22.5,211.0,SW,5.4,3.2,DRY,,9999.0,,Mostly Sunny,535.0662849379041,mostly_sunny.gif
2025-06-22 09:21,12.2,21.5,0.0,0.0,1023.5,54.0,420.6,21.9,4.0,21.9,167.0,S,1.8,1.4,DRY,,9999.0,,Mostly Sunny,546.4750559362835,mostly_sunny.gif
2025-06-22 09:26,12.5,22.2,0.0,0.0,1023.2,53.0,436.7,22.5,4.0,22.5,140.0,SE,7.2,4.7,DRY,,9999.0,,Mostly Sunny,557.7212735423083,mostly_sunny.gif
2025-06-22 09:31,11.2,22.0,0.0,0.0,1023.3,49.0,452.1,22.4,4.0,22.4,116.0,SE,5.4,5.0,DRY,,9999.0,,Mostly Sunny,568.7991364305162,mostly_sunny.gif
2025-06-22 09:36,11.5,22.3,0.0,0.0,1023.2,49.0,465.1,22.7,4.0,22.7,103.0,E,1.8,1.8,DRY,,9999.0,,Mostly Sunny,579.7029554084481,mostly_sunny.gif
2025-06-22 09:41,11.2,23.1,0.0,0.0,1023.2,46.0,476.4,23.5,4.0,23.5,98.0,E,0.0,0.0,DRY,,9999.0,,Mostly Sunny,590.4271533957522,mostly_sunny.gif
2025-06-22 09:46,11.3,22.8,0.0,0.0,1023.1,47.0,489.8,23.2,4.0,23.2,70.0,E,1.8,1.8,DRY,,9999.0,,Mostly Sunny,600.9662656295412,mostly_sunny.gif
2025-06-22 09:51,11.0,22.5,0.0,0.0,1022.89,47.0,502.8,22.9,4.0,22.9,63.0,NE,3.6,1.1,DRY,,9999.0,,Mostly Sunny,611.3149400686259,mostly_sunny.gif
2025-06-22 09:56,11.0,23.6,0.0,0.0,1022.79,44.0,513.3,24.0,5.0,24.0,63.0,NE,0.0,0.0,DRY,,9999.0,,Mostly Sunny,621.4679379646852,mostly_sunny.gif
2025-06-22 10:01,10.3,23.2,0.0,0.0,1022.99,43.0,527.0,23.6,5.0,23.6,87.0,E,3.6,2.2,DRY,,9999.0,,Mostly Sunny,631.4201345724429,mostly_sunny.gif
2025-06-22 10:06,10.5,23.3,0.0,0.0,1022.89,43.0,537.8,23.8,5.0,23.8,45.0,NE,3.6,2.2,DRY,,9999.0,,Mostly Sunny,641.1665199825063,mostly_sunny.gif
2025-06-22 10:11,10.6,23.1,0.0,0.0,1022.89,44.0,550.7,23.5,5.0,23.5,22.0,N,5.4,2.9,DRY,,9999.0,,Mostly Sunny,650.70220004989,mostly_sunny.gif
2025-06-22 10:16,10.6,23.1,0.0,0.0,1022.79,44.0,561.2,23.5,5.0,23.5,0.0,N,3.6,2.2,DRY,,9999.0,,Sunny,660.0223974084803,sunny.gif
2025-06-22 10:21,11.0,23.9,0.0,0.0,1022.69,43.0,572.5,24.3,5.0,24.3,105.0,E,5.4,4.3,DRY,,9999.0,,Sunny,669.1224525489247,sunny.gif
2025-06-22 10:26,9.1,23.4,0.0,0.0,1022.49,39.0,582.1,23.9,5.0,23.9,129.0,SE,9.4,8.3,DRY,,9999.0,,Sunny,677.9978249536838,sunny.gif
2025-06-22 10:31,9.2,23.5,0.0,0.0,1022.79,39.0,592.3,24.0,5.0,24.0,168.0,S,3.6,2.5,DRY,,9999.0,,Sunny,686.6440942705582,sunny.gif
2025-06-22 10:36,9.8,24.1,0.0,0.0,1022.69,39.0,601.2,24.6,5.0,24.6,158.0,S,13.0,10.8,DRY,,9999.0,,Sunny,695.0569615195266,sunny.gif
2025-06-22 10:41,10.0,23.9,0.0,0.0,1022.59,40.0,610.3,24.4,5.0,24.4,236.0,SW,3.6,2.9,DRY,,9999.0,,Sunny,703.2322503212622,sunny.gif
2025-06-22 10:46,11.0,23.9,0.0,0.0,1022.69,43.0,619.6,24.3,6.0,24.3,157.0,SE,11.2,8.6,DRY,,9999.0,,Sunny,711.1659081370062,sunny.gif
2025-06-22 10:51,10.6,24.3,0.0,0.0,1022.49,41.0,629.3,24.7,6.0,24.7,123.0,SE,11.2,10.1,DRY,,9999.0,,Sunny,718.8540075172191,sunny.gif
2025-06-22 10:56,10.4,24.1,0.0,0.0,1022.49,41.0,635.7,24.5,6.0,24.5,266.0,W,5.4,5.4,DRY,,9999.0,,Sunny,726.2927473462079,sunny.gif
2025-06-22 11:01,11.0,24.0,0.0,0.0,1022.59,43.0,645.6,24.4,6.0,24.4,67.0,NE,3.6,1.8,DRY,,9999.0,,Sunny,733.4784540827895,sunny.gif
2025-06-22 11:06,10.6,24.3,0.0,0.0,1022.22,41.0,652.9,24.7,6.0,24.7,83.0,E,1.8,1.4,DRY,,9999.0,,Sunny,740.4075829855742,sunny.gif
2025-06-22 11:11,10.9,24.6,0.0,0.0,1022.32,41.0,661.7,25.0,6.0,25.0,121.0,SE,7.2,6.5,DRY,,9999.0,,Sunny,747.0767193237392,sunny.gif
2025-06-22 11:16,10.3,24.8,0.0,0.0,1022.32,39.0,667.5,25.2,6.0,25.2,103.0,E,13.0,11.9,DRY,,9999.0,,Sunny,753.4825795633824,sunny.gif
2025-06-22 11:21,10.5,24.6,0.0,0.0,1022.38,40.0,671.6,25.0,6.0,25.0,216.0,SW,0.0,0.0,DRY,,9999.0,,Sunny,759.6220125297813,sunny.gif
2025-06-22 11:26,10.6,25.1,0.0,0.0,1022.22,39.0,678.5,25.5,6.0,25.5,168.0,S,9.4,7.6,DRY,,9999.0,,Sunny,765.4920005400819,sunny.gif
2025-06-22 11:31,11.1,24.9,0.0,0.0,1022.22,41.0,683.0,25.3,6.0,25.3,197.0,S,5.4,5.0,DRY,,9999.0,,Sunny,771.0896605016939,sunny.gif
2025-06-22 11:36,9.3,24.9,0.0,0.0,1021.91,36.0,691.5,25.4,6.0,25.4,112.0,E,7.2,6.5,DRY,,9999.0,,Sunny,776.4122449771496,sunny.gif
2025-06-22 11:41,10.4,25.9,0.0,0.0,1022.11,37.0,694.3,26.2,6.0,26.2,204.0,SW,1.8,1.4,DRY,,9999.0,,Sunny,781.4571432081243,sunny.gif
2025-06-22 11:46,9.7,25.5,0.0,0.0,1021.81,36.0,700.2,25.9,6.0,25.9,129.0,SE,9.4,8.3,DRY,,9999.0,,Sunny,786.2218821006895,sunny.gif
2025-06-22 11:51,9.6,25.4,0.0,0.0,1022.01,36.0,705.8,25.8,6.0,25.8,121.0,SE,3.6,2.2,DRY,,9999.0,,Sunny,790.7041271651779,sunny.gif
2025-06-22 11:56,9.5,25.3,0.0,0.0,1021.91,36.0,708.9,25.7,6.0,25.7,135.0,SE,14.8,11.9,DRY,,9999.0,,Sunny,794.9016834127997,sunny.gif
2025-06-22 12:01,8.6,25.1,0.0,0.0,1022.11,34.0,713.4,25.6,6.0,25.6,66.0,NE,3.6,2.2,DRY,,9999.0,,Sunny,798.812496203252,sunny.gif
2025-06-22 12:06,10.0,25.8,0.0,0.0,1022.11,36.0,716.3,26.2,6.0,26.2,146.0,SE,5.4,5.0,DRY,,9999.0,,Sunny,802.4346520447189,sunny.gif
2025-06-22 12:11,9.5,25.3,0.0,0.0,1022.11,36.0,721.1,25.7,7.0,25.7,161.0,S,13.0,11.9,DRY,,9999.0,,Sunny,805.766379343404,sunny.gif
2025-06-22 12:16,9.7,25.5,0.0,0.0,1022.11,36.0,722.5,25.9,7.0,25.9,134.0,SE,11.2,8.6,DRY,,9999.0,,Sunny,808.806049100329,sunny.gif
2025-06-22 12:21,10.6,26.0,0.0,0.0,1021.91,37.0,724.2,26.4,7.0,26.4,140.0,SE,3.6,1.4,DRY,,9999.0,,Sunny,811.5521755566218,sunny.gif
2025-06-22 12:26,10.1,26.8,0.0,0.0,1022.01,34.0,728.0,27.3,7.0,27.3,113.0,SE,5.4,2.2,DRY,,9999.0,,Sunny,814.0034167832143,sunny.gif
2025-06-22 12:31,10.2,26.5,0.0,0.0,1021.91,35.0,730.9,26.9,7.0,26.9,122.0,SE,11.2,9.0,DRY,,9999.0,,Sunny,816.1585752168451,sunny.gif
2025-06-22 12:36,10.1,25.9,0.0,0.0,1021.61,36.0,731.7,26.3,7.0,26.3,67.0,NE,14.8,13.3,DRY,,9999.0,,Sunny,818.0165981388095,sunny.gif
2025-06-22 12:41,10.3,26.6,0.0,0.0,1021.71,35.0,734.2,27.0,7.0,27.0,150.0,SE,3.6,3.6,DRY,,9999.0,,Sunny,819.5765780981724,sunny.gif
2025-06-22 12:46,10.8,26.4,0.0,0.0,1021.5,37.0,737.3,26.7,7.0,26.7,71.0,E,7.2,5.4,DRY,,9999.0,,Sunny,820.8377532765453,sunny.gif
2025-06-22 12:51,10.7,26.2,0.0,0.0,1021.5,37.0,736.7,26.5,7.0,26.5,102.0,E,13.0,10.1,DRY,,9999.0,,Sunny,821.7995077956036,sunny.gif
2025-06-22 12:56,10.3,26.1,0.0,0.0,1021.5,36.0,738.4,26.5,7.0,26.5,339.0,N,5.4,4.0,DRY,,9999.0,,Sunny,822.461371966082,sunny.gif
2025-06-22 13:01,10.7,26.7,0.0,0.0,1021.5,36.0,739.4,27.0,7.0,27.0,109.0,E,1.8,1.8,DRY,,9999.0,,Sunny,822.8230224775295,sunny.gif
2025-06-22 13:06,11.0,26.9,0.0,0.0,1021.2,36.0,739.0,27.4,7.0,27.4,145.0,SE,11.2,7.6,DRY,,9999.0,,Sunny,822.8842825296488,sunny.gif
2025-06-22 13:11,11.2,26.8,0.0,0.0,1021.2,37.0,739.6,27.1,7.0,27.1,108.0,E,11.2,8.6,DRY,,9999.0,,Sunny,822.6451219037373,sunny.gif
2025-06-22 13:16,11.4,26.9,0.0,0.0,1021.3,37.0,740.5,27.3,7.0,27.3,49.0,NE,7.2,3.6,DRY,,9999.0,,Sunny,822.1056569752826,sunny.gif
2025-06-22 13:21,11.2,27.1,0.0,0.0,1021.3,36.0,740.3,27.6,7.0,27.6,47.0,NE,5.4,4.3,DRY,,9999.0,,Sunny,821.2661506667263,sunny.gif
2025-06-22 13:26,11.2,27.4,0.0,0.0,1021.3,35.0,738.0,28.1,7.0,28.1,130.0,SE,11.2,10.4,DRY,,9999.0,,Sunny,820.1270123412446,sunny.gif
2025-06-22 13:31,11.7,27.2,0.0,0.0,1021.2,37.0,737.2,27.7,7.0,27.7,111.0,E,3.6,1.8,DRY,,9999.0,,Sunny,818.6887976371129,sunny.gif
2025-06-22 13:36,11.7,27.2,0.0,0.0,1020.89,37.0,734.0,27.7,7.0,27.7,105.0,E,13.0,9.4,DRY,,9999.0,,Sunny,816.9522082433139,sunny.gif
2025-06-22 13:41,11.1,27.0,0.0,0.0,1020.79,36.0,733.5,27.5,7.0,27.5,54.0,NE,9.4,6.1,DRY,,9999.0,,Sunny,814.9180916164535,sunny.gif
2025-06-22 13:46,11.4,26.9,0.0,0.0,1021.1,37.0,729.7,27.3,7.0,27.3,81.0,E,5.4,5.4,DRY,,9999.0,,Sunny,812.5874406396155,sunny.gif
2025-06-22 13:51,11.5,27.3,0.0,0.0,1020.89,36.0,727.9,27.9,7.0,27.9,133.0,SE,9.4,7.2,DRY,,9999.0,,Sunny,809.961393223442,sunny.gif
2025-06-22 13:56,12.5,28.0,0.0,0.0,1020.79,37.0,724.8,28.6,7.0,28.6,194.0,S,5.4,4.0,DRY,,9999.0,,Sunny,807.0412318504249,sunny.gif
2025-06-22 14:01,12.3,28.1,0.0,0.0,1020.69,36.0,721.1,28.8,7.0,28.8,94.0,E,14.8,12.2,DRY,,9999.0,,Sunny,803.8283830625936,sunny.gif
2025-06-22 14:06,12.1,27.9,0.0,0.0,1020.69,36.0,715.2,28.6,6.0,28.6,132.0,SE,7.2,5.4,DRY,,9999.0,,Sunny,800.3244168941553,sunny.gif
2025-06-22 14:11,12.1,27.6,0.0,0.0,1020.39,37.0,711.7,28.1,6.0,28.1,69.0,E,5.4,3.6,DRY,,9999.0,,Sunny,796.5310462491142,sunny.gif
2025-06-22 14:16,12.4,28.2,0.0,0.0,1020.29,36.0,707.3,28.9,6.0,28.9,100.0,E,3.6,3.6,DRY,,9999.0,,Sunny,792.4501262259788,sunny.gif
2025-06-22 14:21,12.5,28.7,0.0,0.0,1020.29,35.0,703.4,29.5,6.0,29.5,115.0,SE,9.4,6.8,DRY,,9999.0,,Sunny,788.0836533898375,sunny.gif
2025-06-22 14:26,12.2,27.7,0.0,0.0,1020.29,37.0,700.4,28.2,6.0,28.2,120.0,SE,11.2,9.4,DRY,,9999.0,,Sunny,783.4337649933883,sunny.gif
2025-06-22 14:31,12.4,27.9,0.0,0.0,1020.12,37.0,694.3,28.5,6.0,28.5,142.0,SE,11.2,10.4,DRY,,9999.0,,Sunny,778.5027381490881,sunny.gif
2025-06-22 14:36,12.7,28.1,0.0,0.0,1020.29,37.0,688.5,28.8,6.0,28.8,158.0,S,3.6,1.4,DRY,,9999.0,,Sunny,773.2929889525351,sunny.gif
2025-06-22 14:41,12.2,27.7,0.0,0.0,1020.01,37.0,680.4,28.2,6.0,28.2,14.0,N,3.6,1.1,DRY,,9999.0,,Sunny,767.8070715608023,sunny.gif
2025-06-22 14:46,12.4,28.2,0.0,0.0,1019.91,36.0,674.5,28.9,6.0,28.9,117.0,SE,7.2,5.0,DRY,,9999.0,,Sunny,762.0476772255565,sunny.gif
2025-06-22 14:51,12.5,28.0,0.0,0.0,1019.91,37.0,668.8,28.6,6.0,28.6,175.0,S,11.2,9.0,DRY,,9999.0,,Sunny,756.0176332854256,sunny.gif
2025-06-22 14:56,12.3,27.7,0.0,0.0,1019.91,37.0,663.2,28.3,6.0,28.3,166.0,S,9.4,7.2,DRY,,9999.0,,Sunny,749.7199021175352,sunny.gif
2025-06-22 15:01,12.5,28.4,0.0,0.0,1019.81,36.0,656.0,29.1,6.0,29.1,136.0,SE,1.8,1.8,DRY,,9999.0,,Sunny,743.1575800533816,sunny.gif
2025-06-22 15:06,12.5,28.7,0.0,0.0,1019.61,35.0,647.3,29.5,6.0,29.5,96.0,E,5.4,2.2,DRY,,9999.0,,Sunny,736.3338962598104,sunny.gif
2025-06-22 15:11,13.0,28.9,0.0,0.0,1019.71,36.0,639.3,29.6,6.0,29.6,126.0,SE,1.8,1.8,DRY,,9999.0,,Sunny,729.2522115890501,sunny.gif
2025-06-22 15:16,12.8,28.2,0.0,0.0,1019.51,37.0,631.8,28.9,6.0,28.9,116.0,SE,9.4,6.8,DRY,,9999.0,,Sunny,721.9160174024489,sunny.gif
2025-06-22 15:21,12.8,28.6,0.0,0.0,1019.61,36.0,623.2,29.4,6.0,29.4,133.0,SE,14.8,12.2,DRY,,9999.0,,Sunny,714.3289343691177,sunny.gif
2025-06-22 15:26,12.9,28.4,0.0,0.0,1019.61,37.0,612.5,29.0,5.0,29.0,25.0,NE,3.6,2.2,DRY,,9999.0,,Sunny,706.4947112471293,sunny.gif
2025-06-22 15:31,12.8,28.6,0.0,0.0,1019.51,36.0,604.9,29.4,5.0,29.4,160.0,S,11.2,10.4,DRY,,9999.0,,Sunny,698.4172236483521,sunny.gif
2025-06-22 15:36,12.5,28.7,0.0,0.0,1019.2,35.0,596.0,29.5,5.0,29.5,143.0,SE,5.4,4.7,DRY,,9999.0,,Sunny,690.1004727959561,sunny.gif
2025-06-22 15:41,12.5,28.4,0.0,0.0,1019.3,36.0,585.6,29.1,5.0,29.1,95.0,E,5.4,3.6,DRY,,9999.0,,Sunny,681.5485842764467,sunny.gif
2025-06-22 15:46,12.5,28.4,0.0,0.0,1019.2,36.0,574.8,29.1,5.0,29.1,281.0,W,3.6,3.6,DRY,,9999.0,,Sunny,672.7658067966285,sunny.gif
2025-06-22 15:51,12.6,28.8,0.0,0.0,1019.3,35.0,562.2,29.6,5.0,29.6,63.0,NE,3.6,2.2,DRY,,9999.0,,Mostly Sunny,663.7565109494593,mostly_sunny.gif
2025-06-22 15:56,12.9,28.8,0.0,0.0,1019.0,36.0,551.3,29.5,5.0,29.5,61.0,NE,1.8,1.4,DRY,,9999.0,,Mostly Sunny,654.5251879980709,mostly_sunny.gif
2025-06-22 16:01,12.9,29.2,0.0,0.0,1019.0,35.0,539.7,30.0,5.0,30.0,103.0,E,3.6,3.6,DRY,,9999.0,,Mostly Sunny,645.076448688453,mostly_sunny.gif
2025-06-22 16:06,12.6,28.8,0.0,0.0,1018.9,35.0,529.4,29.6,5.0,29.6,45.0,NE,3.6,3.2,DRY,,9999.0,,Mostly Sunny,635.4150220972354,mostly_sunny.gif
2025-06-22 16:11,13.0,28.9,0.0,0.0,1019.0,36.0,516.7,29.6,5.0,29.6,46.0,NE,7.2,6.5,DRY,,9999.0,,Mostly Sunny,625.5457545305132,mostly_sunny.gif
2025-06-22 16:16,12.9,29.2,0.0,0.0,1019.0,35.0,507.4,30.0,4.0,30.0,93.0,E,11.2,9.4,DRY,,9999.0,,Mostly Sunny,615.4736084816117,mostly_sunny.gif
2025-06-22 16:21,12.7,28.9,0.0,0.0,1018.8,35.0,494.1,29.8,4.0,29.8,114.0,SE,9.4,7.2,DRY,,9999.0,,Mostly Sunny,605.2036616672498,mostly_sunny.gif
2025-06-22 16:26,12.7,28.9,0.0,0.0,1018.69,35.0,480.9,29.8,4.0,29.8,84.0,E,7.2,7.2,DRY,,9999.0,,Mostly Sunny,594.741106153336,mostly_sunny.gif
2025-06-22 16:31,12.9,29.2,0.0,0.0,1018.49,35.0,468.0,30.0,4.0,30.0,164.0,S,3.6,2.5,DRY,,9999.0,,Mostly Sunny,584.0912475940806,mostly_sunny.gif
2025-06-22 16:36,12.9,29.6,0.0,0.0,1018.59,34.0,456.7,30.5,4.0,30.5,131.0,SE,14.8,12.6,DRY,,9999.0,,Mostly Sunny,573.2595046014585,mostly_sunny.gif
2025-06-22 16:41,13.0,29.3,0.0,0.0,1018.29,35.0,445.2,30.1,4.0,30.1,175.0,S,11.2,7.9,DRY,,9999.0,,Mostly Sunny,562.2514082708595,mostly_sunny.gif
2025-06-22 16:46,12.9,29.2,0.0,0.0,1018.39,35.0,432.2,30.0,4.0,30.0,181.0,S,3.6,3.6,DRY,,9999.0,,Mostly Sunny,551.0726018925027,mostly_sunny.gif
2025-06-22 16:51,13.0,29.3,0.0,0.0,1018.29,35.0,418.8,30.1,4.0,30.1,175.0,S,11.2,8.3,DRY,,9999.0,,Mostly Sunny,539.7288408760386,mostly_sunny.gif
2025-06-22 16:56,13.3,29.3,0.0,0.0,1018.19,36.0,404.6,30.0,3.0,30.0,167.0,S,3.6,3.6,DRY,,9999.0,,Mostly Sunny,528.22599293068,mostly_sunny.gif
2025-06-22 17:01,12.9,29.2,0.0,0.0,1018.08,35.0,391.4,30.0,3.0,30.0,124.0,SE,1.8,0.4,DRY,,9999.0,,Mostly Sunny,516.5700385375243,mostly_sunny.gif
2025-06-22 17:06,12.6,29.2,0.0,0.0,1018.19,34.0,378.6,30.1,3.0,30.1,69.0,E,1.8,0.4,DRY,,9999.0,,Mostly Sunny,504.7670717693541,mostly_sunny.gif
2025-06-22 17:11,12.8,29.5,0.0,0.0,1018.08,34.0,364.9,30.4,3.0,30.4,92.0,E,5.4,4.7,DRY,,9999.0,,Mostly Sunny,492.8233015092429,mostly_sunny.gif
2025-06-22 17:16,12.7,29.4,0.0,0.0,1018.08,34.0,349.7,30.3,3.0,30.3,40.0,NE,3.6,2.5,DRY,,9999.0,,Mostly Sunny,480.7450531409492,mostly_sunny.gif
2025-06-22 17:21,12.5,29.5,0.0,0.0,1017.91,33.0,336.5,30.5,3.0,30.5,125.0,SE,5.4,4.7,DRY,,9999.0,,Mostly Sunny,468.5387707848213,mostly_sunny.gif
2025-06-22 17:26,12.6,29.6,0.0,0.0,1017.81,33.0,322.0,30.6,3.0,30.6,123.0,SE,1.8,1.1,DRY,,9999.0,,Mostly Sunny,456.2110201734623,mostly_sunny.gif
2025-06-22 17:31,12.6,29.7,0.0,0.0,1017.91,33.0,308.1,30.7,3.0,30.7,240.0,SW,1.8,0.4,DRY,,9999.0,,Mostly Sunny,443.7684922781987,mostly_sunny.gif
2025-06-22 17:36,12.9,29.6,0.0,0.0,1017.81,34.0,294.3,30.5,2.0,30.5,236.0,SW,1.8,1.8,DRY,,9999.0,,Mostly Sunny,431.2180078104139,mostly_sunny.gif
2025-06-22 17:41,13.2,29.9,0.0,0.0,1018.02,34.0,280.8,30.8,2.0,30.8,109.0,E,3.6,2.2,DRY,,9999.0,,Mostly Sunny,418.56652275756886,mostly_sunny.gif
2025-06-22 17:46,13.3,29.7,0.0,0.0,1017.81,35.0,267.0,30.5,2.0,30.5,144.0,SE,5.4,2.9,DRY,,9999.0,,Mostly Sunny,405.82113513063445,mostly_sunny.gif
2025-06-22 17:51,12.9,29.2,0.0,0.0,1017.71,35.0,253.3,30.0,2.0,30.0,145.0,SE,7.2,7.2,DRY,,9999.0,,Partly Cloudy,392.98909314925976,partly_cloudy.gif
2025-06-22 17:56,12.5,29.1,0.0,0.0,1017.71,34.0,242.5,30.0,2.0,30.0,123.0,SE,11.2,9.4,DRY,,9999.0,,Partly Cloudy,380.07780512254067,partly_cloudy.gif
2025-06-22 18:01,12.6,29.2,0.0,0.0,1017.71,34.0,228.7,30.1,2.0,30.1,119.0,SE,9.4,7.2,DRY,,9999.0,,Partly Cloudy,367.09485135170854,partly_cloudy.gif
2025-06-22 18:06,12.4,29.0,0.0,0.0,1017.71,34.0,211.3,29.9,2.0,29.9,45.0,NE,1.8,1.1,DRY,,9999.0,,Partly Cloudy,354.0479984380576,partly_cloudy.gif
2025-06-22 18:11,12.4,29.0,0.0,0.0,1017.81,34.0,206.0,29.9,2.0,29.9,182.0,S,7.2,5.0,DRY,,9999.0,,Partly Cloudy,340.9452164724282,partly_cloudy.gif
2025-06-22 18:16,12.4,29.0,0.0,0.0,1017.61,34.0,196.2,29.9,1.0,29.9,80.0,E,9.4,8.6,DRY,,9999.0,,Partly Cloudy,327.79469969013235,partly_cloudy.gif
2025-06-22 18:21,12.3,28.9,0.0,0.0,1017.71,34.0,185.1,29.8,1.0,29.8,97.0,E,7.2,5.8,DRY,,9999.0,,Partly Cloudy,314.6048913032535,partly_cloudy.gif
2025-06-22 18:26,12.5,29.1,0.0,0.0,1017.51,34.0,174.3,30.0,1.0,30.0,135.0,SE,3.6,2.5,DRY,,9999.0,,Partly Cloudy,301.38451340616643,partly_cloudy.gif
2025-06-22 18:31,12.5,29.1,0.0,0.0,1017.61,34.0,118.5,30.0,1.0,30.0,100.0,E,5.4,4.7,DRY,,9999.0,,Mostly Cloudy,288.1426030558526,mostly_cloudy.gif
2025-06-22 18:36,12.1,29.1,0.0,0.0,1017.51,33.0,154.1,30.1,1.0,30.1,164.0,S,9.4,7.9,DRY,,9999.0,,Partly Cloudy,274.8885559239829,partly_cloudy.gif
2025-06-22 18:41,11.9,28.9,0.0,0.0,1017.51,33.0,144.1,29.9,1.0,29.9,137.0,SE,7.2,5.8,DRY,,9999.0,,Partly Cloudy,261.6321792676269,partly_cloudy.gif
2025-06-22 18:46,12.3,28.9,0.0,0.0,1017.61,34.0,135.3,29.8,1.0,29.8,139.0,SE,7.2,5.0,DRY,,9999.0,,Partly Cloudy,248.38375645211792,partly_cloudy.gif
2025-06-22 18:51,12.3,28.9,0.0,0.0,1017.41,34.0,126.8,29.8,1.0,29.8,106.0,E,5.4,4.7,DRY,,9999.0,,Partly Cloudy,235.15412586721226,partly_cloudy.gif
2025-06-22 18:56,12.7,28.9,0.0,0.0,1017.51,35.0,118.1,29.8,1.0,29.8,133.0,SE,11.2,9.4,DRY,,9999.0,,Partly Cloudy,221.9547779024776,partly_cloudy.gif
2025-06-22 19:01,12.5,28.7,0.0,0.0,1017.61,35.0,109.6,29.5,1.0,29.5,113.0,SE,9.4,7.2,DRY,,9999.0,,Partly Cloudy,208.79797473398,partly_cloudy.gif
2025-06-22 19:06,12.6,28.9,0.0,0.0,1017.51,35.0,101.2,29.7,0.0,29.7,151.0,SE,3.6,3.2,DRY,,9999.0,,Partly Cloudy,195.696899121215,partly_cloudy.gif
2025-06-22 19:11,12.6,28.9,0.0,0.0,1017.71,35.0,94.0,29.7,0.0,29.7,173.0,S,7.2,6.5,DRY,,9999.0,,Partly Cloudy,182.66584038730366,partly_cloudy.gif
2025-06-22 19:16,12.5,28.7,0.0,0.0,1017.61,35.0,86.2,29.5,0.0,29.5,158.0,S,1.8,0.7,DRY,,9999.0,,Partly Cloudy,169.72042841029923,partly_cloudy.gif
2025-06-22 19:21,12.6,28.9,0.0,0.0,1017.81,35.0,79.7,29.7,0.0,29.7,155.0,SE,5.4,4.7,DRY,,9999.0,,Partly Cloudy,156.8779301220896,partly_cloudy.gif
2025-06-22 19:26,12.9,28.8,0.0,0.0,1017.61,36.0,71.4,29.5,0.0,29.5,160.0,S,1.8,1.8,DRY,,9999.0,,Partly Cloudy,144.15762804209737,partly_cloudy.gif
2025-06-22 19:31,13.6,28.8,0.0,0.0,1017.91,38.0,65.1,29.4,0.0,29.4,165.0,S,0.0,0.0,DRY,,9999.0,,Partly Cloudy,131.58130739136308,partly_cloudy.gif
2025-06-22 19:36,13.8,28.6,0.0,0.0,1017.71,39.0,59.2,29.1,0.0,29.1,208.0,SW,1.8,1.1,DRY,,9999.0,,Partly Cloudy,119.17388810182588,partly_cloudy.gif
2025-06-22 19:41,14.6,28.5,0.0,0.0,1017.71,42.0,53.6,28.7,0.0,28.7,238.0,SW,5.4,5.4,DRY,,9999.0,,Partly Cloudy,106.96425174073374,partly_cloudy.gif
2025-06-22 19:46,14.2,27.8,0.0,0.0,1017.81,43.0,48.4,27.9,0.0,27.9,250.0,W,0.0,0.0,DRY,,9999.0,,Partly Cloudy,94.98633254757293,partly_cloudy.gif
2025-06-22 19:51,14.0,27.9,0.0,0.0,1017.81,42.0,43.2,28.1,0.0,28.1,219.0,SW,1.8,1.4,DRY,,9999.0,,Partly Cloudy,87.51167181982349,partly_cloudy.gif
2025-06-22 19:56,14.0,27.9,0.0,0.0,1018.08,42.0,38.9,28.1,0.0,28.1,238.0,SW,3.6,2.5,DRY,,9999.0,,Partly Cloudy,80.20400915982577,partly_cloudy.gif
2025-06-22 20:01,12.8,27.6,0.0,0.0,1018.02,39.0,34.9,28.0,0.0,28.0,211.0,SW,1.8,1.8,DRY,,9999.0,,Partly Cloudy,72.94560065310166,partly_cloudy.gif
2025-06-22 20:06,14.6,27.7,0.0,0.0,1018.08,45.0,31.3,27.6,0.0,27.6,212.0,SW,1.8,1.8,DRY,,9999.0,,Partly Cloudy,65.74283764157536,partly_cloudy.gif
2025-06-22 20:11,14.4,27.4,0.0,0.0,1018.08,45.0,27.6,27.3,0.0,27.3,211.0,SW,0.0,0.0,DRY,,9999.0,,Partly Cloudy,58.6028711924133,partly_cloudy.gif
2025-06-22 20:16,14.3,27.1,0.0,0.0,1018.02,46.0,24.1,26.9,0.0,26.9,212.0,SW,1.8,1.4,DRY,,9999.0,,Partly Cloudy,51.53388925524357,partly_cloudy.gif
2025-06-22 20:21,14.6,27.1,0.0,0.0,1018.08,47.0,20.6,26.9,0.0,26.9,227.0,SW,3.6,2.2,DRY,,9999.0,,Partly Cloudy,44.54563474577384,partly_cloudy.gif
2025-06-22 20:26,14.4,26.2,0.0,0.0,1018.19,48.0,17.1,26.2,0.0,26.2,246.0,SW,3.6,3.6,DRY,,9999.0,,Partly Cloudy,37.665530602384656,partly_cloudy.gif
2025-06-22 20:31,14.4,25.8,0.0,0.0,1018.19,49.0,13.7,25.9,0.0,25.9,237.0,SW,3.6,2.9,DRY,,9999.0,,Partly Cloudy,30.8987006410253,partly_cloudy.gif
2025-06-22 20:36,13.2,25.8,0.0,0.0,1018.19,45.0,11.0,26.0,0.0,26.0,223.0,SW,0.0,0.0,DRY,,9999.0,,Partly Cloudy,24.266895010223188,partly_cloudy.gif
2025-06-22 20:41,14.6,25.3,0.0,0.0,1018.29,51.0,8.5,25.4,0.0,25.4,206.0,SW,1.8,1.4,DRY,,9999.0,,Partly Cloudy,17.803736107353885,partly_cloudy.gif
2025-06-22 20:46,14.7,24.8,0.0,0.0,1018.08,53.0,6.2,24.9,0.0,24.9,194.0,S,0.0,0.0,DRY,,9999.0,,Partly Cloudy,11.553401213942578,partly_cloudy.gif
2025-06-22 20:51,14.8,24.3,0.0,0.0,1018.08,55.0,4.4,24.4,0.0,24.4,162.0,S,1.8,1.1,DRY,,9999.0,,Sunny,5.569264434371357,sunny.gif
2025-06-22 20:56,14.7,23.9,0.0,0.0,1018.29,56.0,3.0,24.0,0.0,24.0,214.0,SW,3.6,2.2,DRY,,9999.0,,Twilight,0.0,cloudy.gif
2025-06-22 21:01,14.2,23.6,0.0,0.0,1018.19,55.0,1.9,23.8,0.0,23.8,216.0,SW,1.8,0.7,DRY,,9999.0,,Twilight,0.0,cloudy.gif
2025-06-22 21:06,14.5,23.4,0.0,0.0,1018.29,57.0,1.2,23.5,0.0,23.5,216.0,SW,1.8,0.4,DRY,,9999.0,,Twilight,0.0,cloudy.gif
2025-06-22 21:11,14.1,23.1,0.0,0.0,1018.39,56.0,0.6,23.3,0.0,23.3,216.0,SW,1.8,1.1,DRY,,9999.0,,Twilight,0.0,cloudy.gif
2025-06-22 21:16,14.7,24.2,0.0,0.0,1018.49,55.0,0.3,24.3,0.0,24.3,92.0,E,0.0,0.0,DRY,,9999.0,,Twilight,0.0,cloudy.gif
2025-06-22 21:21,15.0,23.3,0.0,0.0,1018.49,59.0,0.1,23.4,0.0,23.4,204.0,SW,1.8,1.1,DRY,,9999.0,,Twilight,0.0,cloudy.gif
2025-06-22 21:26,15.1,23.2,0.0,0.0,1018.59,60.0,0.1,23.3,0.0,23.3,158.0,S,5.4,4.0,DRY,,9999.0,,Twilight,0.0,cloudy.gif
2025-06-22 21:31,15.0,22.7,0.0,0.0,1018.59,62.0,0.0,22.7,0.0,22.7,205.0,SW,0.0,0.0,DRY,,9999.0,,Twilight,0.0,cloudy.gif
2025-06-22 21:36,14.9,22.4,0.0,0.0,1018.59,62.0,0.0,22.5,0.0,22.5,153.0,SE,0.0,0.0,DRY,,9999.0,,Twilight,0.0,cloudy.gif
2025-06-22 21:41,14.7,22.5,0.0,0.0,1018.69,61.0,0.0,22.6,0.0,22.6,156.0,SE,1.8,1.4,DRY,,9999.0,,Night,0.0,night.gif
2025-06-22 21:46,15.0,22.3,0.0,0.0,1018.69,63.0,0.0,22.4,0.0,22.4,156.0,SE,0.0,0.0,DRY,,9999.0,,Night,0.0,night.gif
2025-06-22 21:51,14.7,21.7,0.0,0.0,1018.9,64.0,0.0,21.8,0.0,21.8,156.0,SE,1.8,0.4,DRY,,9999.0,,Night,0.0,night.gif
2025-06-22 21:56,14.9,21.4,0.0,0.0,1018.9,66.0,0.0,21.5,0.0,21.5,156.0,SE,0.0,0.0,DRY,,9999.0,,Night,0.0,night.gif
2025-06-22 22:01,14.8,21.5,0.0,0.0,1019.0,65.0,0.0,21.6,0.0,21.6,208.0,SW,0.0,0.0,DRY,,9999.0,,Night,0.0,night.gif
2025-06-22 22:06,15.0,21.6,0.0,0.0,1019.1,66.0,0.0,21.6,0.0,21.6,171.0,S,1.8,0.4,DRY,,9999.0,,Night,0.0,night.gif
2025-06-22 22:11,14.9,21.7,0.0,0.0,1019.1,65.0,0.0,21.8,0.0,21.8,206.0,SW,1.8,0.4,DRY,,9999.0,,Night,0.0,night.gif
2025-06-22 22:16,15.0,21.6,0.0,0.0,1018.9,66.0,0.0,21.6,0.0,21.6,206.0,SW,1.8,1.1,DRY,,9999.0,,Night,0.0,night.gif
2025-06-22 22:21,15.1,21.5,0.0,0.0,1019.0,67.0,0.0,21.5,0.0,21.5,222.0,SW,0.0,0.0,DRY,,9999.0,,Night,0.0,night.gif
2025-06-22 22:26,15.1,21.5,0.0,0.0,1019.0,67.0,0.0,21.5,0.0,21.5,237.0,SW,1.8,1.1,DRY,,9999.0,,Night,0.0,night.gif
2025-06-22 22:31,15.1,21.5,0.0,0.0,1019.1,67.0,0.0,21.5,0.0,21.5,234.0,SW,0.0,0.0,DRY,,9999.0,,Night,0.0,night.gif
2025-06-22 22:36,15.1,21.2,0.0,0.0,1019.1,68.0,0.0,21.2,0.0,21.2,233.0,SW,0.0,0.0,DRY,,9999.0,,Night,0.0,night.gif
2025-06-22 22:41,15.0,20.4,0.0,0.0,1019.2,71.0,0.0,20.4,0.0,20.4,23.0,NE,1.8,1.8,DRY,,9999.0,,Night,0.0,night.gif
2025-06-22 22:46,14.7,20.1,0.0,0.0,1019.3,71.0,0.0,20.1,0.0,20.1,22.0,N,1.8,0.7,DRY,,9999.0,,Night,0.0,night.gif
2025-06-22 22:51,14.7,19.7,0.0,0.0,1019.1,73.0,0.0,19.7,0.0,19.7,22.0,N,0.0,0.0,DRY,,9999.0,,Night,0.0,night.gif
2025-06-22 22:56,14.9,19.6,0.0,0.0,1019.2,74.0,0.0,19.6,0.0,19.6,335.0,NW,1.8,1.4,DRY,,9999.0,,Night,0.0,night.gif
2025-06-22 23:01,14.8,20.0,0.0,0.0,1019.2,72.0,0.0,20.0,0.0,20.0,235.0,SW,1.8,1.4,DRY,,9999.0,,Night,0.0,night.gif
2025-06-22 23:06,15.2,20.2,0.0,0.0,1019.3,73.0,0.0,20.2,0.0,20.2,235.0,SW,0.0,0.0,DRY,,9999.0,,Night,0.0,night.gif
2025-06-22 23:11,15.2,19.9,0.0,0.0,1019.1,74.0,0.0,19.9,0.0,19.9,248.0,W,1.8,1.8,DRY,,9999.0,,Night,0.0,night.gif
2025-06-22 23:16,15.1,19.4,0.0,0.0,1019.3,76.0,0.0,19.4,0.0,19.4,301.0,NW,0.0,0.0,DRY,,9999.0,,Night,0.0,night.gif
2025-06-22 23:21,15.0,19.3,0.0,0.0,1019.4,76.0,0.0,19.3,0.0,19.3,301.0,NW,0.0,0.0,DRY,,9999.0,,Night,0.0,night.gif
2025-06-22 23:26,15.0,19.3,0.0,0.0,1019.2,76.0,0.0,19.3,0.0,19.3,300.0,NW,0.0,0.0,DRY,,9999.0,,Night,0.0,night.gif
