timestamp,imedvode1_dewpoint,imedvode1_heat_index,imedvode1_precipitation_rate,imedvode1_precipitation_today,imedvode1_pressure,imedvode1_relative_humidity,imedvode1_solar_radiation,imedvode1_temperature,imedvode1_uv_index,imedvode1_wind_chill,imedvode1_wind_direction_degrees,windCardinals,imedvode1_wind_gust,imedvode1_wind_speed,visibility,condition1,condition2,condition3,sky,max_solar_radiation,image_name
2025-04-22 16:23,10.3,20.8,0.0,0.0,1017.61,51.0,136.9,20.8,2.0,20.8,166.0,S,13.0,9.7,5000.0,DRY,,,Cloudy,488.9896578464574,cloudy.gif
2025-04-22 16:28,10.7,20.9,0.0,0.0,1017.71,52.0,144.4,20.9,2.0,20.9,149.0,SE,7.2,6.5,5000.0,DRY,,,Cloudy,477.6853294466834,cloudy.gif
2025-04-22 16:33,10.9,20.5,0.0,0.0,1017.61,54.0,170.1,20.5,2.0,20.5,150.0,SE,5.4,5.0,5000.0,DRY,,,Mostly Cloudy,466.1919585591648,mostly_cloudy.gif
2025-04-22 16:38,11.0,20.9,0.0,0.0,1017.61,53.0,184.4,20.9,2.0,20.9,146.0,SE,7.2,5.8,5000.0,DRY,,,Mostly Cloudy,454.51581210510165,mostly_cloudy.gif
2025-04-22 16:43,10.1,20.9,0.0,0.0,1017.51,50.0,299.5,20.9,2.0,20.9,176.0,S,5.4,5.0,5000.0,DRY,,,Mostly Sunny,442.66331868926414,mostly_sunny.gif
2025-04-22 16:48,10.8,20.8,0.0,0.0,1017.51,51.0,215.3,21.3,2.0,21.3,155.0,SE,5.4,4.7,5000.0,DRY,,,Partly Cloudy,430.6410745568331,partly_cloudy.gif
2025-04-22 16:53,10.9,20.6,0.0,0.0,1017.41,52.0,221.5,21.1,2.0,21.1,145.0,SE,9.4,6.8,5000.0,DRY,,,Partly Cloudy,418.4558508380026,partly_cloudy.gif
2025-04-22 16:58,11.0,20.9,0.0,0.0,1017.61,53.0,268.2,20.9,2.0,20.9,144.0,SE,9.4,7.2,5000.0,DRY,,,Mostly Sunny,406.114602339454,mostly_sunny.gif
2025-04-22 17:03,10.7,20.9,0.0,0.0,1017.51,52.0,243.2,20.9,2.0,20.9,144.0,SE,7.2,6.8,5000.0,DRY,,,Partly Cloudy,393.624478143469,partly_cloudy.gif
2025-04-22 17:08,11.6,20.7,0.0,0.0,1017.31,56.0,227.7,20.7,2.0,20.7,114.0,SE,7.2,4.7,5000.0,DRY,,,Partly Cloudy,380.99283442117934,partly_cloudy.gif
2025-04-22 17:13,10.9,20.8,0.0,0.0,1017.2,53.0,207.4,20.8,2.0,20.8,101.0,E,5.4,5.0,5000.0,DRY,,,Partly Cloudy,368.2272498568837,partly_cloudy.gif
2025-04-22 17:18,10.9,20.8,0.0,0.0,1017.1,53.0,198.6,20.8,1.0,20.8,137.0,SE,7.2,6.1,5000.0,DRY,,,Partly Cloudy,355.3355442754781,partly_cloudy.gif
2025-04-22 17:23,10.4,20.9,0.0,0.0,1017.1,51.0,181.4,20.9,1.0,20.9,102.0,E,1.8,1.4,5000.0,DRY,,,Partly Cloudy,342.3258011021923,partly_cloudy.gif
2025-04-22 17:28,11.7,21.0,0.0,0.0,1017.2,54.0,198.0,21.4,1.0,21.4,152.0,SE,0.0,0.0,5000.0,DRY,,,Partly Cloudy,329.20639454112757,partly_cloudy.gif
2025-04-22 17:33,10.5,21.0,0.0,0.0,1017.0,51.0,242.1,21.0,2.0,21.0,106.0,E,7.2,6.5,5000.0,DRY,,,Mostly Sunny,315.98602249024685,mostly_sunny.gif
2025-04-22 17:38,11.2,20.7,0.0,0.0,1016.9,53.0,213.0,21.1,2.0,21.1,137.0,SE,5.4,4.7,5000.0,DRY,,,Mostly Sunny,302.67374653626325,mostly_sunny.gif
2025-04-22 17:43,11.8,20.9,0.0,0.0,1016.9,56.0,183.8,20.9,1.0,20.9,64.0,NE,1.8,1.1,5000.0,DRY,,,Partly Cloudy,289.2790407306402,partly_cloudy.gif
2025-04-22 17:48,11.3,20.9,0.0,0.0,1017.0,54.0,184.7,20.9,1.0,20.9,134.0,SE,5.4,4.7,5000.0,DRY,,,Mostly Sunny,275.81185126524775,mostly_sunny.gif
2025-04-22 17:53,10.1,20.9,0.0,0.0,1017.0,50.0,150.6,20.9,1.0,20.9,124.0,SE,5.4,5.4,5000.0,DRY,,,Partly Cloudy,262.2826698679193,partly_cloudy.gif
2025-04-22 17:58,11.5,20.9,0.0,0.0,1017.0,55.0,114.4,20.9,1.0,20.9,137.0,SE,7.2,6.1,5000.0,DRY,,,Partly Cloudy,248.70262447045775,partly_cloudy.gif
2025-04-22 18:03,10.6,20.8,0.0,0.0,1017.0,52.0,90.1,20.8,0.0,20.8,119.0,SE,5.4,4.0,5000.0,DRY,,,Partly Cloudy,235.0835919044631,partly_cloudy.gif
2025-04-22 18:08,10.6,20.8,0.0,0.0,1017.1,52.0,86.8,20.8,0.0,20.8,139.0,SE,11.2,9.4,5000.0,DRY,,,Partly Cloudy,221.43833878810028,partly_cloudy.gif
2025-04-22 18:13,10.6,20.8,0.0,0.0,1017.0,52.0,87.0,20.8,0.0,20.8,147.0,SE,9.4,7.9,5000.0,DRY,,,Partly Cloudy,207.78069891663958,partly_cloudy.gif
2025-04-22 18:18,10.4,20.9,0.0,0.0,1017.1,51.0,86.8,20.9,0.0,20.9,165.0,S,13.0,11.2,5000.0,DRY,,,Partly Cloudy,194.1257982267775,partly_cloudy.gif
2025-04-22 18:23,10.6,20.8,0.0,0.0,1017.0,52.0,88.1,20.8,0.0,20.8,158.0,S,7.2,6.1,5000.0,DRY,,,Partly Cloudy,180.49034242228103,partly_cloudy.gif
2025-04-22 18:28,11.2,20.8,0.0,0.0,1017.0,54.0,84.7,20.8,0.0,20.8,119.0,SE,5.4,4.7,5000.0,DRY,,,Partly Cloudy,166.89298793969,partly_cloudy.gif
2025-04-22 18:33,10.6,20.8,0.0,0.0,1017.31,52.0,78.8,20.8,0.0,20.8,118.0,SE,9.4,7.9,5000.0,DRY,,,Partly Cloudy,153.35482484975222,partly_cloudy.gif
2025-04-22 18:38,10.8,20.7,0.0,0.0,1017.31,53.0,75.6,20.7,0.0,20.7,164.0,S,9.4,9.4,5000.0,DRY,,,Partly Cloudy,139.90001184787485,partly_cloudy.gif
2025-04-22 18:43,10.4,20.6,0.0,0.0,1017.1,52.0,71.5,20.6,0.0,20.6,136.0,SE,9.4,7.6,5000.0,DRY,,,Mostly Sunny,126.55662008173498,mostly_sunny.gif
2025-04-22 18:48,11.0,20.6,0.0,0.0,1017.2,54.0,65.1,20.6,0.0,20.6,141.0,SE,5.4,4.0,5000.0,DRY,,,Mostly Sunny,113.35776714661048,mostly_sunny.gif
2025-04-22 18:53,10.7,20.6,0.0,0.0,1017.31,53.0,58.3,20.6,0.0,20.6,140.0,SE,5.4,3.6,5000.0,DRY,,,Mostly Sunny,100.34315866541314,mostly_sunny.gif
2025-04-22 18:58,10.3,20.5,0.0,0.0,1017.2,52.0,53.0,20.5,0.0,20.5,103.0,E,9.4,7.6,5000.0,DRY,,,Mostly Sunny,90.21681266300922,mostly_sunny.gif
2025-04-22 19:03,10.5,20.4,0.0,0.0,1017.41,53.0,47.5,20.4,0.0,20.4,150.0,SE,7.2,6.1,5000.0,DRY,,,Mostly Sunny,82.26094230571736,mostly_sunny.gif
2025-04-22 19:08,10.8,20.4,0.0,0.0,1017.31,54.0,42.8,20.4,0.0,20.4,130.0,SE,3.6,3.6,5000.0,DRY,,,Mostly Sunny,74.32135084222115,mostly_sunny.gif
2025-04-22 19:13,10.9,20.5,0.0,0.0,1017.51,54.0,38.4,20.5,0.0,20.5,155.0,SE,3.6,3.6,5000.0,DRY,,,Mostly Sunny,66.40570211648637,mostly_sunny.gif
2025-04-22 19:18,10.7,20.3,0.0,0.0,1017.41,54.0,35.3,20.3,0.0,20.3,133.0,SE,7.2,5.4,5000.0,DRY,,,Mostly Sunny,58.522876329349536,mostly_sunny.gif
2025-04-22 19:23,11.2,20.2,0.0,0.0,1017.41,56.0,28.9,20.2,0.0,20.2,133.0,SE,3.6,3.6,5000.0,DRY,,,Mostly Sunny,50.683474709790794,mostly_sunny.gif
2025-04-22 19:28,10.5,20.1,0.0,0.0,1017.61,54.0,23.0,20.1,0.0,20.1,129.0,SE,3.6,3.6,5000.0,DRY,,,Partly Cloudy,42.90374054939867,partly_cloudy.gif
2025-04-22 19:33,10.7,20.0,0.0,0.0,1017.61,55.0,15.6,20.0,0.0,20.0,123.0,SE,3.6,3.2,5000.0,DRY,,,Partly Cloudy,35.214410896840576,partly_cloudy.gif
2025-04-22 19:38,10.5,19.8,0.0,0.0,1017.71,55.0,11.4,19.8,0.0,19.8,131.0,SE,3.6,2.5,5000.0,DRY,,,Partly Cloudy,27.629650016718006,partly_cloudy.gif
2025-04-22 19:43,11.2,19.7,0.0,0.0,1017.81,58.0,8.4,19.7,0.0,19.7,133.0,SE,1.8,1.4,5000.0,DRY,,,Partly Cloudy,20.18925873312861,partly_cloudy.gif
2025-04-22 19:48,11.9,18.6,0.0,0.0,1017.81,65.0,5.9,18.6,0.0,18.6,133.0,SE,0.0,0.0,5000.0,DRY,,,Partly Cloudy,12.95351387202542,partly_cloudy.gif
2025-04-22 19:53,11.2,18.1,0.0,0.0,1017.91,64.0,3.9,18.1,0.0,18.1,133.0,SE,0.0,0.0,5000.0,DRY,,,Mostly Sunny,6.002039980870797,mostly_sunny.gif
2025-04-22 19:58,10.9,17.8,0.0,0.0,1018.02,64.0,2.4,17.8,0.0,17.8,134.0,SE,1.8,0.7,5000.0,DRY,,,Twilight,0.0,cloudy.gif
2025-04-22 20:03,11.3,18.0,0.0,0.0,1018.02,65.0,1.4,18.0,0.0,18.0,133.0,SE,0.0,0.0,5000.0,DRY,,,Twilight,0.0,cloudy.gif
2025-04-22 20:08,11.1,18.0,0.0,0.0,1018.02,64.0,0.8,18.0,0.0,18.0,147.0,SE,1.8,0.4,5000.0,DRY,,,Twilight,0.0,cloudy.gif
2025-04-22 20:13,11.5,17.7,0.0,0.0,1018.19,67.0,0.4,17.7,0.0,17.7,216.0,SW,0.0,0.0,5000.0,DRY,,,Twilight,0.0,cloudy.gif
2025-04-22 20:18,11.3,17.7,0.0,0.0,1018.19,66.0,0.1,17.7,0.0,17.7,221.0,SW,3.6,2.2,5000.0,DRY,,,Twilight,0.0,cloudy.gif
2025-04-22 20:23,11.3,17.5,0.0,0.0,1018.29,67.0,0.1,17.5,0.0,17.5,230.0,SW,1.8,1.8,5000.0,DRY,,,Twilight,0.0,cloudy.gif
2025-04-22 20:28,11.2,17.4,0.0,0.0,1018.39,67.0,0.0,17.4,0.0,17.4,226.0,SW,1.8,1.8,5000.0,DRY,,,Twilight,0.0,cloudy.gif
2025-04-22 20:33,11.3,17.3,0.0,0.0,1018.49,68.0,0.0,17.3,0.0,17.3,242.0,SW,3.6,2.2,5000.0,DRY,,,Night,0.0,night.gif
2025-04-22 20:38,11.4,16.9,0.0,0.0,1018.49,70.0,0.0,16.9,0.0,16.9,240.0,SW,5.4,4.7,5000.0,DRY,,,Night,0.0,night.gif
2025-04-22 20:43,11.4,16.7,0.0,0.0,1018.8,71.0,0.0,16.7,0.0,16.7,221.0,SW,3.6,3.6,5000.0,DRY,,,Night,0.0,night.gif
2025-04-22 20:48,11.5,16.6,0.0,0.0,1018.69,72.0,0.0,16.6,0.0,16.6,248.0,W,3.6,3.6,5000.0,DRY,,,Night,0.0,night.gif
2025-04-22 20:53,11.5,16.3,0.0,0.0,1018.8,73.0,0.0,16.3,0.0,16.3,248.0,W,3.6,2.2,5000.0,DRY,,,Night,0.0,night.gif
2025-04-22 20:58,11.4,16.0,0.0,0.0,1018.8,74.0,0.0,16.0,0.0,16.0,247.0,SW,3.6,2.2,5000.0,DRY,,,Night,0.0,night.gif
2025-04-22 21:03,11.4,15.8,0.0,0.0,1018.9,75.0,0.0,15.8,0.0,15.8,237.0,SW,0.0,0.0,5000.0,DRY,,,Night,0.0,night.gif
2025-04-22 21:08,11.3,15.5,0.0,0.0,1019.0,76.0,0.0,15.5,0.0,15.5,247.0,SW,0.0,0.0,5000.0,DRY,,,Night,0.0,night.gif
2025-04-22 21:13,11.0,15.2,0.0,0.0,1019.1,76.0,0.0,15.2,0.0,15.2,248.0,W,0.0,0.0,5000.0,DRY,,,Night,0.0,night.gif
2025-04-22 21:18,11.1,15.5,0.0,0.0,1019.1,75.0,0.0,15.5,0.0,15.5,216.0,SW,3.6,2.2,5000.0,DRY,,,Night,0.0,night.gif
2025-04-22 21:23,11.4,15.4,0.0,0.0,1019.1,77.0,0.0,15.4,0.0,15.4,73.0,E,0.0,0.0,5000.0,DRY,,,Night,0.0,night.gif
2025-04-22 21:28,10.9,14.7,0.0,0.0,1018.8,78.0,0.0,14.7,0.0,14.7,49.0,NE,0.0,0.0,5000.0,DRY,,,Night,0.0,night.gif
2025-04-22 21:33,10.8,14.6,0.0,0.0,1018.9,78.0,0.0,14.6,0.0,14.6,49.0,NE,1.8,0.4,5000.0,DRY,,,Night,0.0,night.gif
2025-04-22 21:38,11.0,14.6,0.0,0.0,1019.1,79.0,0.0,14.6,0.0,14.6,49.0,NE,0.0,0.0,5000.0,DRY,,,Night,0.0,night.gif
2025-04-22 21:43,10.9,14.1,0.0,0.0,1019.3,81.0,0.0,14.1,0.0,14.1,49.0,NE,1.8,0.4,5000.0,DRY,,,Night,0.0,night.gif
2025-04-22 21:48,10.7,13.9,0.0,0.0,1019.2,81.0,0.0,13.9,0.0,13.9,359.0,N,3.6,2.9,5000.0,DRY,,,Night,0.0,night.gif
2025-04-22 21:53,10.8,13.8,0.0,0.0,1019.3,82.0,0.0,13.8,0.0,13.8,346.0,N,1.8,1.4,5000.0,DRY,,,Night,0.0,night.gif
2025-04-22 21:58,10.9,13.7,0.0,0.0,1019.2,83.0,0.0,13.7,0.0,13.7,346.0,N,0.0,0.0,5000.0,DRY,,,Night,0.0,night.gif
2025-04-22 22:03,10.6,13.4,0.0,0.0,1019.1,83.0,0.0,13.4,0.0,13.4,346.0,N,0.0,0.0,5000.0,DRY,,,Night,0.0,night.gif
2025-04-22 22:08,10.5,13.2,0.0,0.0,1019.2,84.0,0.0,13.2,0.0,13.2,345.0,N,1.8,1.8,5000.0,DRY,,,Night,0.0,night.gif
2025-04-22 22:13,10.4,13.2,0.0,0.0,1019.4,83.0,0.0,13.2,0.0,13.2,345.0,N,1.8,0.4,5000.0,DRY,,,Night,0.0,night.gif
2025-04-22 22:18,10.6,13.1,0.0,0.0,1019.3,85.0,0.0,13.1,0.0,13.1,346.0,N,1.8,1.1,5000.0,DRY,,,Night,0.0,night.gif
2025-04-22 22:23,10.4,13.1,0.0,0.0,1019.3,84.0,0.0,13.1,0.0,13.1,346.0,N,1.8,0.7,5000.0,DRY,,,Night,0.0,night.gif
2025-04-22 22:28,10.5,13.2,0.0,0.0,1019.51,84.0,0.0,13.2,0.0,13.2,346.0,N,0.0,0.0,5000.0,DRY,,,Night,0.0,night.gif
2025-04-22 22:33,10.4,12.9,0.0,0.0,1019.51,85.0,0.0,12.9,0.0,12.9,345.0,N,1.8,1.4,5000.0,DRY,,,Night,0.0,night.gif
2025-04-22 22:38,10.4,12.7,0.0,0.0,1019.61,86.0,0.0,12.7,0.0,12.7,346.0,N,0.0,0.0,5000.0,DRY,,,Night,0.0,night.gif
2025-04-22 22:43,10.4,12.9,0.0,0.0,1019.61,85.0,0.0,12.9,0.0,12.9,346.0,N,1.8,0.4,5000.0,DRY,,,Night,0.0,night.gif
2025-04-22 22:48,10.5,12.6,0.0,0.0,1019.71,87.0,0.0,12.6,0.0,12.6,346.0,N,1.8,1.8,5000.0,DRY,,,Night,0.0,night.gif
2025-04-22 22:53,10.3,12.3,0.0,0.0,1019.51,88.0,0.0,12.3,0.0,12.3,346.0,N,3.6,2.9,5000.0,DRY,,,Night,0.0,night.gif
2025-04-22 22:58,10.7,12.5,0.0,0.0,1019.71,89.0,0.0,12.5,0.0,12.5,346.0,N,0.0,0.0,5000.0,DRY,,,Night,0.0,night.gif
2025-04-22 23:03,10.6,12.7,0.0,0.0,1019.61,87.0,0.0,12.7,0.0,12.7,346.0,N,0.0,0.0,5000.0,DRY,,,Night,0.0,night.gif
2025-04-22 23:08,10.6,12.9,0.0,0.0,1019.71,86.0,0.0,12.9,0.0,12.9,346.0,N,1.8,1.4,5000.0,DRY,,,Night,0.0,night.gif
2025-04-22 23:13,10.8,12.9,0.0,0.0,1019.71,87.0,0.0,12.9,0.0,12.9,346.0,N,1.8,0.4,5000.0,DRY,,,Night,0.0,night.gif
2025-04-22 23:18,10.7,13.0,0.0,0.0,1019.81,86.0,0.0,13.0,0.0,13.0,346.0,N,0.0,0.0,5000.0,DRY,,,Night,0.0,night.gif
2025-04-22 23:23,10.8,12.9,0.0,0.0,1019.81,87.0,0.0,12.9,0.0,12.9,346.0,N,0.0,0.0,5000.0,DRY,,,Night,0.0,night.gif
2025-04-22 23:28,10.9,12.7,0.0,0.0,1019.91,89.0,0.0,12.7,0.0,12.7,346.0,N,1.8,1.1,5000.0,DRY,,,Night,0.0,night.gif
2025-04-22 23:33,10.9,12.7,0.0,0.0,1019.91,89.0,0.0,12.7,0.0,12.7,347.0,N,1.8,0.4,5000.0,DRY,,,Night,0.0,night.gif
2025-04-22 23:36,10.9,12.7,0.0,0.0,1019.91,89.0,0.0,12.7,0.0,12.7,347.0,N,1.8,0.4,5000.0,DRY,,,Night,0.0,night.gif
2025-04-22 23:38,10.8,12.9,0.0,0.0,1019.91,87.0,0.0,12.9,0.0,12.9,347.0,N,3.6,2.2,5000.0,DRY,,,Night,0.0,night.gif
2025-04-22 23:43,11.0,13.0,0.0,0.0,1019.81,88.0,0.0,13.0,0.0,13.0,346.0,N,1.8,1.8,5000.0,DRY,,,Night,0.0,night.gif
2025-04-22 23:48,11.2,12.8,0.0,0.0,1019.91,90.0,0.0,12.8,0.0,12.8,347.0,N,1.8,0.7,5000.0,DRY,,,Night,0.0,night.gif
2025-04-22 23:53,11.3,12.9,0.0,0.0,1020.12,90.0,0.0,12.9,0.0,12.9,347.0,N,3.6,2.5,5000.0,DRY,,,Night,0.0,night.gif
2025-04-22 23:58,11.1,12.9,0.0,0.0,1020.12,89.0,0.0,12.9,0.0,12.9,347.0,N,1.8,1.8,5000.0,DRY,,,Night,0.0,night.gif
2025-04-23 00:03,11.2,13.0,0.0,0.0,1020.01,89.0,0.0,13.0,0.0,13.0,347.0,N,0.0,0.0,5000.0,DRY,,,Night,0.0,night.gif
2025-04-23 00:08,11.1,13.1,0.0,0.0,1020.01,88.0,0.0,13.1,0.0,13.1,347.0,N,0.0,0.0,5000.0,DRY,,,Night,0.0,night.gif
2025-04-23 00:13,11.1,13.6,0.0,0.0,1020.12,85.0,0.0,13.6,0.0,13.6,228.0,SW,1.8,0.7,5000.0,DRY,,,Night,0.0,night.gif
2025-04-23 00:18,11.0,13.8,0.0,0.0,1020.22,83.0,0.0,13.8,0.0,13.8,288.0,W,0.0,0.0,5000.0,DRY,,,Night,0.0,night.gif
2025-04-23 00:23,11.1,13.9,0.0,0.0,1020.39,83.0,0.0,13.9,0.0,13.9,275.0,W,1.8,0.4,5000.0,DRY,,,Night,0.0,night.gif
2025-04-23 00:28,11.2,14.0,0.0,0.0,1020.29,83.0,0.0,14.0,0.0,14.0,238.0,SW,1.8,0.4,5000.0,DRY,,,Night,0.0,night.gif
2025-04-23 00:33,11.1,13.8,0.0,0.0,1020.22,84.0,0.0,13.8,0.0,13.8,248.0,W,1.8,1.1,5000.0,DRY,,,Night,0.0,night.gif
2025-04-23 00:36,11.1,13.8,0.0,0.0,1020.22,84.0,0.0,13.8,0.0,13.8,248.0,W,1.8,1.1,9999.0,DRY,,,Night,0.0,night.gif
2025-04-23 00:38,11.2,13.5,0.0,0.0,1020.22,86.0,0.0,13.5,0.0,13.5,251.0,W,1.8,1.4,9999.0,DRY,,,Night,0.0,night.gif
2025-04-23 00:43,10.9,13.6,0.0,0.0,1020.39,84.0,0.0,13.6,0.0,13.6,239.0,SW,5.4,4.7,9999.0,DRY,,,Night,0.0,night.gif
2025-04-23 00:48,11.0,13.7,0.0,0.0,1020.29,84.0,0.0,13.7,0.0,13.7,249.0,W,3.6,2.9,9999.0,DRY,,,Night,0.0,night.gif
2025-04-23 00:53,10.9,13.7,0.0,0.0,1020.01,83.0,0.0,13.7,0.0,13.7,240.0,SW,3.6,3.6,9999.0,DRY,,,Night,0.0,night.gif
2025-04-23 00:58,10.9,13.7,0.0,0.0,1020.22,83.0,0.0,13.7,0.0,13.7,285.0,W,1.8,0.4,9999.0,DRY,,,Night,0.0,night.gif
2025-04-23 01:03,10.8,14.0,0.0,0.0,1020.22,81.0,0.0,14.0,0.0,14.0,294.0,NW,0.0,0.0,9999.0,DRY,,,Night,0.0,night.gif
2025-04-23 01:08,10.8,13.8,0.0,0.0,1020.12,82.0,0.0,13.8,0.0,13.8,232.0,SW,5.4,4.7,9999.0,DRY,,,Night,0.0,night.gif
2025-04-23 01:13,10.7,13.5,0.0,0.0,1020.12,83.0,0.0,13.5,0.0,13.5,249.0,W,3.6,2.2,9999.0,DRY,,,Night,0.0,night.gif
2025-04-23 01:18,10.6,13.3,0.0,0.0,1019.81,84.0,0.0,13.3,0.0,13.3,247.0,SW,1.8,0.7,9999.0,DRY,,,Night,0.0,night.gif
2025-04-23 01:23,10.6,13.1,0.0,0.0,1019.81,85.0,0.0,13.1,0.0,13.1,232.0,SW,3.6,2.2,9999.0,DRY,,,Night,0.0,night.gif
2025-04-23 01:28,10.6,13.1,0.0,0.0,1019.81,85.0,0.0,13.1,0.0,13.1,235.0,SW,1.8,1.1,9999.0,DRY,,,Night,0.0,night.gif
2025-04-23 01:33,10.5,13.0,0.0,0.0,1019.71,85.0,0.0,13.0,0.0,13.0,239.0,SW,1.8,0.7,9999.0,DRY,,,Night,0.0,night.gif
2025-04-23 01:38,10.4,12.9,0.0,0.0,1019.61,85.0,0.0,12.9,0.0,12.9,252.0,W,1.8,1.1,9999.0,DRY,,,Night,0.0,night.gif
2025-04-23 01:43,10.6,12.9,0.0,0.0,1019.61,86.0,0.0,12.9,0.0,12.9,232.0,SW,3.6,2.9,9999.0,DRY,,,Night,0.0,night.gif
2025-04-23 01:48,10.6,12.6,0.0,0.0,1019.61,88.0,0.0,12.6,0.0,12.6,223.0,SW,1.8,1.8,9999.0,DRY,,,Night,0.0,night.gif
2025-04-23 01:53,10.4,12.4,0.0,0.0,1019.4,88.0,0.0,12.4,0.0,12.4,229.0,SW,3.6,3.2,9999.0,DRY,,,Night,0.0,night.gif
2025-04-23 01:58,10.3,12.3,0.0,0.0,1019.51,88.0,0.0,12.3,0.0,12.3,234.0,SW,0.0,0.0,9999.0,DRY,,,Night,0.0,night.gif
2025-04-23 02:03,10.1,12.6,0.0,0.0,1019.4,85.0,0.0,12.6,0.0,12.6,235.0,SW,1.8,1.8,9999.0,DRY,,,Night,0.0,night.gif
2025-04-23 02:08,10.2,13.0,0.0,0.0,1019.3,83.0,0.0,13.0,0.0,13.0,253.0,W,3.6,2.5,9999.0,DRY,,,Night,0.0,night.gif
2025-04-23 02:13,10.4,12.9,0.0,0.0,1019.3,85.0,0.0,12.9,0.0,12.9,23.0,NE,5.4,5.4,9999.0,DRY,,,Night,0.0,night.gif
2025-04-23 02:18,10.0,12.1,0.0,0.0,1019.3,87.0,0.0,12.1,0.0,12.1,248.0,W,1.8,1.4,9999.0,DRY,,,Night,0.0,night.gif
2025-04-23 02:23,10.1,12.2,0.0,0.0,1019.4,87.0,0.0,12.2,0.0,12.2,311.0,NW,1.8,1.8,9999.0,DRY,,,Night,0.0,night.gif
2025-04-23 02:28,9.9,12.0,0.0,0.0,1019.4,87.0,0.0,12.0,0.0,12.0,3.0,N,1.8,1.4,9999.0,DRY,,,Night,0.0,night.gif
2025-04-23 02:33,9.9,11.7,0.0,0.0,1019.3,89.0,0.0,11.7,0.0,11.7,3.0,N,1.8,0.7,9999.0,DRY,,,Night,0.0,night.gif
2025-04-23 02:38,9.7,11.5,0.0,0.0,1019.4,89.0,0.0,11.5,0.0,11.5,2.0,N,0.0,0.0,9999.0,DRY,,,Night,0.0,night.gif
2025-04-23 02:43,9.8,11.4,0.0,0.0,1019.4,90.0,0.0,11.4,0.0,11.4,2.0,N,0.0,0.0,9999.0,DRY,,,Night,0.0,night.gif
2025-04-23 02:48,9.8,11.4,0.0,0.0,1019.51,90.0,0.0,11.4,0.0,11.4,2.0,N,0.0,0.0,9999.0,DRY,,,Night,0.0,night.gif
2025-04-23 02:58,9.8,11.6,0.0,0.0,1019.4,89.0,0.0,11.6,0.0,11.6,3.0,N,1.8,1.4,9999.0,DRY,,,Night,0.0,night.gif
2025-04-23 03:03,9.8,11.8,0.0,0.0,1019.4,88.0,0.0,11.8,0.0,11.8,3.0,N,0.0,0.0,9999.0,DRY,,,Night,0.0,night.gif
2025-04-23 03:08,9.9,11.7,0.0,0.0,1019.3,89.0,0.0,11.7,0.0,11.7,3.0,N,0.0,0.0,9999.0,DRY,,,Night,0.0,night.gif
2025-04-23 03:13,9.8,11.8,0.0,0.0,1019.51,88.0,0.0,11.8,0.0,11.8,3.0,N,0.0,0.0,9999.0,DRY,,,Night,0.0,night.gif
2025-04-23 03:18,9.7,11.5,0.0,0.0,1019.3,89.0,0.0,11.5,0.0,11.5,3.0,N,1.8,0.4,9999.0,DRY,,,Night,0.0,night.gif
2025-04-23 03:23,9.7,11.1,0.0,0.0,1019.2,91.0,0.0,11.1,0.0,11.1,3.0,N,3.6,3.2,9999.0,DRY,,,Night,0.0,night.gif
2025-04-23 03:28,9.2,10.6,0.0,0.0,1019.3,91.0,0.0,10.6,0.0,10.6,337.0,NW,3.6,3.6,9999.0,DRY,,,Night,0.0,night.gif
2025-04-23 03:33,9.3,10.4,0.0,0.0,1019.3,93.0,0.0,10.4,0.0,10.4,335.0,NW,1.8,1.8,9999.0,DRY,,,Night,0.0,night.gif
2025-04-23 03:38,9.4,10.5,0.0,0.0,1019.4,93.0,0.0,10.5,0.0,10.5,335.0,NW,0.0,0.0,9999.0,DRY,,,Night,0.0,night.gif
2025-04-23 03:43,9.5,10.6,0.0,0.0,1019.2,93.0,0.0,10.6,0.0,10.6,297.0,NW,1.8,1.4,9999.0,DRY,,,Night,0.0,night.gif
2025-04-23 03:48,9.6,10.8,0.0,0.0,1019.3,92.0,0.0,10.8,0.0,10.8,297.0,NW,0.0,0.0,9999.0,DRY,,,Night,0.0,night.gif
2025-04-23 03:53,9.3,10.5,0.0,0.0,1019.1,92.0,0.0,10.5,0.0,10.5,297.0,NW,0.0,0.0,9999.0,DRY,,,Night,0.0,night.gif
2025-04-23 03:58,9.3,10.4,0.0,0.0,1019.3,93.0,0.0,10.4,0.0,10.4,333.0,NW,1.8,1.8,9999.0,DRY,,,Night,0.0,night.gif
2025-04-23 04:03,8.8,9.9,0.0,0.0,1019.3,93.0,0.0,9.9,0.0,9.9,333.0,NW,0.0,0.0,9999.0,DRY,,,Night,0.0,night.gif
2025-04-23 04:08,9.0,10.0,0.0,0.0,1019.4,94.0,0.0,10.0,0.0,10.0,333.0,NW,1.8,0.7,9999.0,DRY,,,Night,0.0,night.gif
2025-04-23 04:13,8.8,9.8,0.0,0.0,1019.3,94.0,0.0,9.8,0.0,9.8,333.0,NW,1.8,1.8,9999.0,DRY,,,Night,0.0,night.gif
2025-04-23 04:18,9.1,9.9,0.0,0.0,1019.2,95.0,0.0,9.9,0.0,9.9,178.0,S,1.8,1.8,9999.0,DRY,,,Night,0.0,night.gif
2025-04-23 04:23,8.9,9.9,0.0,0.0,1019.2,94.0,0.0,9.9,0.0,9.9,134.0,SE,0.0,0.0,9999.0,DRY,,,Night,0.0,night.gif
2025-04-23 04:28,8.9,9.9,0.0,0.0,1019.3,94.0,0.0,9.9,0.0,9.9,134.0,SE,0.0,0.0,9999.0,DRY,,,Night,0.0,night.gif
2025-04-23 04:33,8.8,9.8,0.0,0.0,1019.3,94.0,0.0,9.8,0.0,9.8,63.0,NE,3.6,2.9,9999.0,DRY,,,Night,0.0,night.gif
2025-04-23 04:38,8.6,9.6,0.0,0.0,1019.3,94.0,0.0,9.6,0.0,9.6,327.0,NW,3.6,3.6,9999.0,DRY,,,Night,0.0,night.gif
2025-04-23 04:43,8.6,9.6,0.0,0.0,1019.2,94.0,0.0,9.6,0.0,9.6,328.0,NW,0.0,0.0,9999.0,DRY,,,Night,0.0,night.gif
2025-04-23 04:48,8.6,9.4,0.0,0.0,1019.4,95.0,0.0,9.4,0.0,9.4,327.0,NW,1.8,1.8,9999.0,DRY,,,Night,0.0,night.gif
2025-04-23 04:53,8.7,9.5,0.0,0.0,1019.3,95.0,0.0,9.5,0.0,9.5,319.0,NW,0.0,0.0,9999.0,DRY,,,Night,0.0,night.gif
2025-04-23 04:58,9.2,9.7,0.0,0.0,1019.3,96.0,0.0,9.7,0.0,9.7,300.0,NW,1.8,1.8,9999.0,DRY,,,Night,0.0,night.gif
2025-04-23 05:03,9.2,10.0,0.0,0.0,1019.4,95.0,0.0,10.0,0.0,10.0,250.0,W,0.0,0.0,9999.0,DRY,,,Night,0.0,night.gif
2025-04-23 05:08,9.1,9.9,0.0,0.0,1019.2,95.0,0.0,9.9,0.0,9.9,250.0,W,0.0,0.0,9999.0,DRY,,,Night,0.0,night.gif
2025-04-23 05:18,9.1,9.9,0.0,0.0,1019.4,95.0,0.0,9.9,0.0,9.9,250.0,W,0.0,0.0,9999.0,DRY,,,Night,0.0,night.gif
2025-04-23 05:23,9.0,9.8,0.0,0.0,1019.3,95.0,0.0,9.8,0.0,9.8,28.0,NE,1.8,0.7,9999.0,DRY,,,Night,0.0,night.gif
2025-04-23 05:28,9.0,9.8,0.0,0.0,1019.3,95.0,0.0,9.8,0.0,9.8,28.0,NE,1.8,1.8,9999.0,DRY,,,Night,0.0,night.gif
2025-04-23 05:33,9.1,9.9,0.0,0.0,1019.4,95.0,0.0,9.9,0.0,9.9,26.0,NE,0.0,0.0,9999.0,DRY,,,Twilight,0.0,cloudy.gif
2025-04-23 05:38,9.2,10.0,0.0,0.0,1019.51,95.0,0.0,10.0,0.0,10.0,26.0,NE,0.0,0.0,9999.0,DRY,,,Twilight,0.0,cloudy.gif
2025-04-23 05:43,9.2,10.0,0.0,0.0,1019.4,95.0,0.1,10.0,0.0,10.0,26.0,NE,0.0,0.0,9999.0,DRY,,,Twilight,0.0,cloudy.gif
2025-04-23 05:48,9.5,10.3,0.0,0.0,1019.3,95.0,0.2,10.3,0.0,10.3,321.0,NW,1.8,0.4,9999.0,DRY,,,Twilight,0.0,cloudy.gif
2025-04-23 05:53,9.6,10.4,0.0,0.0,1019.3,95.0,0.3,10.4,0.0,10.4,145.0,SE,0.0,0.0,9999.0,DRY,,,Twilight,0.0,cloudy.gif
2025-04-23 05:58,9.7,10.8,0.0,0.0,1019.4,93.0,0.6,10.8,0.0,10.8,146.0,SE,0.0,0.0,9999.0,DRY,,,Twilight,0.0,cloudy.gif
2025-04-23 06:03,9.6,10.7,0.0,0.0,1019.4,93.0,0.9,10.7,0.0,10.7,143.0,SE,1.8,1.8,9999.0,DRY,,,Twilight,0.0,cloudy.gif
2025-04-23 06:08,9.6,10.7,1.19,0.2,1019.3,93.0,1.2,10.7,0.0,10.7,145.0,SE,0.0,0.0,9999.0,RAIN,LIGHT,,Mostly Cloudy,6.017828452430301,rain_light.gif
2025-04-23 06:13,9.8,10.8,0.0,0.2,1019.51,94.0,2.1,10.8,0.0,10.8,145.0,SE,0.0,0.0,9999.0,RAIN,LIGHT,,Mostly Cloudy,12.976376092413233,rain_light.gif
2025-04-23 06:18,9.7,10.7,1.8,0.51,1019.2,94.0,3.9,10.7,0.0,10.7,150.0,SE,1.8,1.1,9999.0,RAIN,LIGHT,,Mostly Cloudy,20.2196531114209,rain_light.gif
2025-04-23 06:23,9.7,10.7,0.0,0.51,1019.51,94.0,6.2,10.7,0.0,10.7,150.0,SE,0.0,0.0,9999.0,RAIN,LIGHT,,Mostly Cloudy,27.667918401720577,rain_light.gif
2025-04-23 06:28,9.7,10.7,0.0,0.51,1019.4,94.0,9.8,10.7,0.0,10.7,152.0,SE,1.8,1.8,9999.0,DRY,,,Mostly Cloudy,35.260843641391915,mostly_cloudy.gif
2025-04-23 06:33,9.8,10.8,0.0,0.51,1019.51,94.0,15.0,10.8,0.0,10.8,44.0,NE,1.8,1.8,9999.0,DRY,,,Mostly Cloudy,42.958652408172554,mostly_cloudy.gif
2025-04-23 06:38,10.0,10.8,0.0,0.51,1019.3,95.0,20.7,10.8,0.0,10.8,42.0,NE,1.8,1.4,9999.0,DRY,,,Partly Cloudy,50.74725323381952,partly_cloudy.gif
2025-04-23 06:43,10.1,10.9,0.0,0.51,1019.51,95.0,31.1,10.9,0.0,10.9,27.0,NE,0.0,0.0,9999.0,DRY,,,Partly Cloudy,58.59572382281795,partly_cloudy.gif
2025-04-23 06:48,10.2,11.0,0.0,0.51,1019.3,95.0,45.2,11.0,0.0,11.0,27.0,NE,1.8,1.1,9999.0,DRY,,,Mostly Sunny,66.48793201101688,mostly_sunny.gif
2025-04-23 06:53,10.2,11.0,0.0,0.51,1019.3,95.0,53.9,11.0,0.0,11.0,27.0,NE,1.8,0.4,9999.0,DRY,,,Mostly Sunny,74.41328039881192,mostly_sunny.gif
2025-04-23 06:58,10.3,11.1,0.0,0.51,1019.4,95.0,59.2,11.1,0.0,11.1,27.0,NE,0.0,0.0,9999.0,DRY,,,Mostly Sunny,82.36289144099393,mostly_sunny.gif
2025-04-23 07:03,10.2,11.2,0.0,0.51,1019.3,94.0,58.8,11.2,0.0,11.2,27.0,NE,1.8,1.4,9999.0,DRY,,,Mostly Sunny,90.32910457459663,mostly_sunny.gif
2025-04-23 07:08,10.3,11.3,0.0,0.51,1019.51,94.0,64.1,11.3,0.0,11.3,339.0,N,3.6,2.2,9999.0,DRY,,,Mostly Sunny,100.54236604318989,mostly_sunny.gif
2025-04-23 07:13,10.5,11.5,0.0,0.51,1019.3,94.0,71.2,11.5,0.0,11.5,331.0,NW,3.6,3.2,9999.0,DRY,,,Mostly Sunny,113.57825192379825,mostly_sunny.gif
2025-04-23 07:18,10.8,11.9,0.0,0.51,1019.2,93.0,74.6,11.9,0.0,11.9,334.0,NW,1.8,1.1,9999.0,DRY,,,Mostly Sunny,126.79887440261027,mostly_sunny.gif
2025-04-23 07:23,10.9,12.1,0.0,0.51,1019.3,92.0,69.0,12.1,0.0,12.1,256.0,W,1.8,0.7,9999.0,DRY,,,Partly Cloudy,140.16454950941934,partly_cloudy.gif
2025-04-23 07:28,10.6,12.0,0.0,0.51,1019.3,91.0,81.2,12.0,0.0,12.0,248.0,W,3.6,2.2,9999.0,DRY,,,Partly Cloudy,153.6421785306792,partly_cloudy.gif
2025-04-23 07:33,10.6,12.0,0.0,0.51,1019.3,91.0,76.3,12.0,0.0,12.0,244.0,SW,0.0,0.0,9999.0,DRY,,,Partly Cloudy,167.2037067557509,partly_cloudy.gif
2025-04-23 07:38,10.6,12.2,0.0,0.51,1019.61,90.0,75.3,12.2,0.0,12.2,247.0,SW,0.0,0.0,9999.0,DRY,,,Partly Cloudy,180.82498981011224,partly_cloudy.gif
2025-04-23 07:43,10.5,12.5,0.0,0.51,1019.2,88.0,74.6,12.5,0.0,12.5,248.0,W,0.0,0.0,9999.0,DRY,,,Partly Cloudy,194.48495013361241,partly_cloudy.gif
2025-04-23 07:48,10.8,12.6,0.0,0.51,1019.51,89.0,79.8,12.6,0.0,12.6,248.0,W,0.0,0.0,9999.0,DRY,,,Partly Cloudy,208.16494226004497,partly_cloudy.gif
2025-04-23 07:53,10.9,12.7,0.0,0.51,1019.71,89.0,85.0,12.7,0.0,12.7,247.0,SW,0.0,0.0,9999.0,DRY,,,Partly Cloudy,221.8482701207236,partly_cloudy.gif
2025-04-23 07:58,10.7,12.8,0.0,0.51,1019.61,87.0,96.8,12.8,0.0,12.8,247.0,SW,0.0,0.0,9999.0,DRY,,,Partly Cloudy,235.5198162881362,partly_cloudy.gif
2025-04-23 08:03,11.0,13.0,0.0,0.51,1019.61,88.0,109.3,13.0,1.0,13.0,247.0,SW,0.0,0.0,9999.0,DRY,,,Partly Cloudy,249.16575448326867,partly_cloudy.gif
2025-04-23 08:08,11.0,13.5,0.0,0.51,1019.4,85.0,154.1,13.5,1.0,13.5,247.0,SW,0.0,0.0,9999.0,DRY,,,Partly Cloudy,262.77332474813966,partly_cloudy.gif
2025-04-23 08:13,11.0,14.0,0.0,0.51,1019.61,82.0,137.2,14.0,1.0,14.0,247.0,SW,0.0,0.0,9999.0,DRY,,,Partly Cloudy,276.3306561536115,partly_cloudy.gif
2025-04-23 08:18,11.5,14.3,0.0,0.51,1019.4,83.0,135.6,14.3,1.0,14.3,247.0,SW,0.0,0.0,9999.0,DRY,,,Partly Cloudy,289.8266260012848,partly_cloudy.gif
2025-04-23 08:23,11.3,14.5,0.0,0.51,1019.51,81.0,112.5,14.5,1.0,14.5,247.0,SW,1.8,0.4,9999.0,DRY,,,Mostly Cloudy,303.2507471940945,mostly_cloudy.gif
2025-04-23 08:28,11.5,14.9,0.0,0.51,1019.61,80.0,103.9,14.9,1.0,14.9,248.0,W,0.0,0.0,9999.0,DRY,,,Cloudy,316.59307762791195,cloudy.gif
2025-04-23 08:33,11.7,14.9,0.0,0.51,1019.4,81.0,124.5,14.9,1.0,14.9,247.0,SW,0.0,0.0,9999.0,DRY,,,Mostly Cloudy,329.8441468497967,mostly_cloudy.gif
2025-04-23 08:38,11.3,14.7,0.0,0.51,1019.3,80.0,161.4,14.7,1.0,14.7,247.0,SW,0.0,0.0,9999.0,DRY,,,Partly Cloudy,342.994896404573,partly_cloudy.gif
2025-04-23 08:43,11.9,15.3,0.0,0.51,1019.3,80.0,253.0,15.3,2.0,15.3,246.0,SW,1.8,1.8,9999.0,DRY,,,Mostly Sunny,356.0366311155961,mostly_sunny.gif
2025-04-23 08:48,11.6,15.8,0.0,0.51,1019.2,76.0,238.7,15.8,2.0,15.8,110.0,E,1.8,1.1,9999.0,DRY,,,Partly Cloudy,368.9609790977829,partly_cloudy.gif
2025-04-23 08:53,12.0,15.8,0.0,0.51,1019.2,78.0,135.3,15.8,1.0,15.8,111.0,E,1.8,1.8,9999.0,DRY,,,Mostly Cloudy,381.75985887648886,mostly_cloudy.gif
2025-04-23 08:58,11.5,15.3,0.0,0.51,1019.4,78.0,126.8,15.3,1.0,15.3,115.0,SE,1.8,1.8,9999.0,DRY,,,Cloudy,394.42545222338254,cloudy.gif
2025-04-23 09:03,11.9,15.3,0.0,0.51,1019.2,80.0,128.6,15.3,1.0,15.3,110.0,E,1.8,1.8,9999.0,DRY,,,Cloudy,406.95018171639845,cloudy.gif
2025-04-23 09:08,10.7,15.3,0.0,0.51,1019.4,74.0,129.4,15.3,1.0,15.3,109.0,E,1.8,0.7,9999.0,DRY,,,Cloudy,419.3266921225656,cloudy.gif
2025-04-23 09:13,11.0,15.4,0.0,0.51,1019.4,75.0,125.3,15.4,1.0,15.4,110.0,E,3.6,2.2,9999.0,DRY,,,Cloudy,431.5478349867704,cloudy.gif
2025-04-23 09:18,10.8,15.6,0.0,0.51,1019.51,73.0,151.8,15.6,1.0,15.6,146.0,SE,3.6,3.6,9999.0,DRY,,,Cloudy,443.6066558340794,cloudy.gif
2025-04-23 09:23,11.1,15.9,0.0,0.51,1019.61,73.0,201.5,15.9,1.0,15.9,147.0,SE,3.6,3.6,9999.0,DRY,,,Mostly Cloudy,455.496383561872,mostly_cloudy.gif
2025-04-23 09:28,11.1,15.9,0.0,0.51,1019.51,73.0,185.5,15.9,1.0,15.9,186.0,S,3.6,3.6,9999.0,DRY,,,Mostly Cloudy,467.210421678243,mostly_cloudy.gif
2025-04-23 09:33,11.1,16.2,0.0,0.51,1019.51,72.0,158.0,16.2,1.0,16.2,143.0,SE,3.6,2.9,9999.0,DRY,,,Cloudy,478.7423410443052,cloudy.gif
2025-04-23 09:38,11.8,16.0,0.0,0.51,1019.51,76.0,128.1,16.0,1.0,16.0,124.0,SE,3.6,3.6,9999.0,DRY,,,Cloudy,490.0858739326,cloudy.gif
2025-04-23 09:43,11.4,16.0,0.0,0.51,1019.4,74.0,127.6,16.0,1.0,16.0,127.0,SE,7.2,6.1,9999.0,DRY,,,Cloudy,501.2349091406997,cloudy.gif
2025-04-23 09:48,11.8,16.0,0.0,0.51,1019.51,76.0,132.8,16.0,1.0,16.0,149.0,SE,5.4,4.7,9999.0,DRY,,,Cloudy,512.1834880497019,cloudy.gif
2025-04-23 09:53,10.8,16.1,0.0,0.51,1019.51,71.0,148.7,16.1,1.0,16.1,147.0,SE,7.2,6.8,9999.0,DRY,,,Cloudy,522.9258014289117,cloudy.gif
2025-04-23 09:58,11.4,16.2,0.0,0.51,1019.4,73.0,152.1,16.2,1.0,16.2,157.0,SE,5.4,5.4,9999.0,DRY,,,Cloudy,533.4561869246164,cloudy.gif
2025-04-23 10:03,11.6,16.2,0.0,0.51,1019.51,74.0,152.0,16.2,1.0,16.2,129.0,SE,9.4,6.8,9999.0,DRY,,,Cloudy,543.7691270883674,cloudy.gif
2025-04-23 10:08,12.4,16.2,0.0,0.51,1019.51,78.0,141.5,16.2,1.0,16.2,123.0,SE,3.6,3.6,9999.0,DRY,,,Cloudy,553.859247879159,cloudy.gif
2025-04-23 10:13,12.2,16.2,0.0,0.51,1019.4,77.0,142.6,16.2,1.0,16.2,123.0,SE,5.4,4.0,9999.0,DRY,,,Cloudy,563.7213175851921,cloudy.gif
2025-04-23 10:18,11.4,16.2,0.0,0.51,1019.51,73.0,159.3,16.2,1.0,16.2,126.0,SE,7.2,6.1,9999.0,DRY,,,Cloudy,573.3502460609117,cloudy.gif
2025-04-23 10:23,11.5,16.3,0.0,0.51,1019.4,73.0,166.6,16.3,1.0,16.3,127.0,SE,5.4,4.7,9999.0,DRY,,,Cloudy,582.7410842815183,cloudy.gif
2025-04-23 10:28,11.4,16.5,0.0,0.51,1019.3,72.0,154.3,16.5,1.0,16.5,150.0,SE,7.2,5.8,9999.0,DRY,,,Cloudy,591.8890241147571,cloudy.gif
2025-04-23 10:33,11.9,16.5,0.0,0.51,1019.61,74.0,142.2,16.5,1.0,16.5,135.0,SE,3.6,2.9,9999.0,DRY,,,Cloudy,600.7893983271754,cloudy.gif
2025-04-23 10:38,11.4,16.5,0.0,0.51,1019.4,72.0,142.6,16.5,1.0,16.5,132.0,SE,5.4,4.0,9999.0,DRY,,,Cloudy,609.4376807365832,cloudy.gif
2025-04-23 10:43,11.8,16.6,0.0,0.51,1019.51,73.0,149.1,16.6,1.0,16.6,120.0,SE,3.6,3.2,9999.0,DRY,,,Cloudy,617.8294865354954,cloudy.gif
2025-04-23 10:48,11.8,16.6,0.0,0.51,1019.2,73.0,146.3,16.6,1.0,16.6,119.0,SE,1.8,1.8,9999.0,DRY,,,Cloudy,625.9605727176838,cloudy.gif
2025-04-23 10:53,10.9,16.8,0.0,0.51,1019.4,68.0,132.2,16.8,1.0,16.8,120.0,SE,0.0,0.0,9999.0,DRY,,,Cloudy,633.8268386038321,cloudy.gif
2025-04-23 10:58,11.8,17.1,0.0,0.51,1019.1,71.0,137.2,17.1,1.0,17.1,120.0,SE,0.0,0.0,9999.0,DRY,,,Cloudy,641.4243264637729,cloudy.gif
2025-04-23 11:03,12.0,16.9,0.0,0.51,1019.4,73.0,145.3,16.9,1.0,16.9,120.0,SE,1.8,1.4,9999.0,DRY,,,Cloudy,648.7492221771421,cloudy.gif
2025-04-23 11:08,11.8,16.7,0.0,0.51,1019.3,73.0,137.0,16.7,1.0,16.7,98.0,E,3.6,3.2,9999.0,DRY,,,Cloudy,655.797855969674,cloudy.gif
2025-04-23 11:13,12.1,16.7,0.0,0.51,1019.51,74.0,116.8,16.7,1.0,16.7,93.0,E,5.4,5.4,9999.0,DRY,,,Cloudy,662.5667031592496,cloudy.gif
2025-04-23 11:18,12.3,16.6,0.0,0.51,1019.4,76.0,124.0,16.6,1.0,16.6,102.0,E,5.4,4.0,9999.0,DRY,,,Cloudy,669.0523849534468,cloudy.gif
2025-04-23 11:23,11.7,16.5,0.0,0.51,1019.4,73.0,162.8,16.5,1.0,16.5,117.0,SE,7.2,6.1,9999.0,DRY,,,Cloudy,675.2516692359699,cloudy.gif
2025-04-23 11:28,11.8,16.6,0.0,0.51,1019.61,73.0,178.6,16.6,1.0,16.6,102.0,E,5.4,4.7,9999.0,DRY,,,Cloudy,681.1614713841202,cloudy.gif
2025-04-23 11:33,12.5,16.6,0.0,0.51,1019.4,77.0,164.5,16.6,1.0,16.6,110.0,E,3.6,3.6,9999.0,DRY,,,Cloudy,686.7788550685051,cloudy.gif
2025-04-23 11:38,12.5,16.6,0.0,0.51,1019.4,77.0,148.1,16.6,1.0,16.6,105.0,E,3.6,2.9,9999.0,DRY,,,Cloudy,692.1010330448104,cloudy.gif
2025-04-23 11:43,12.6,16.7,0.0,0.51,1019.3,77.0,167.1,16.7,1.0,16.7,89.0,E,5.4,4.7,9999.0,DRY,,,Cloudy,697.1253679471351,cloudy.gif
2025-04-23 11:48,12.3,16.7,0.0,0.51,1019.4,75.0,200.0,16.7,1.0,16.7,131.0,SE,5.4,5.4,9999.0,DRY,,,Cloudy,701.8493730377467,cloudy.gif
2025-04-23 11:53,12.7,16.8,0.0,0.51,1019.4,77.0,253.1,16.8,2.0,16.8,128.0,SE,5.4,5.0,9999.0,DRY,,,Mostly Cloudy,706.2707129575939,mostly_cloudy.gif
2025-04-23 11:58,12.4,16.8,0.0,0.51,1019.4,75.0,303.9,16.8,2.0,16.8,91.0,E,5.4,4.7,9999.0,DRY,,,Mostly Cloudy,710.3872044226799,mostly_cloudy.gif
2025-04-23 12:03,11.7,17.0,0.0,0.51,1019.0,71.0,331.3,17.0,3.0,17.0,174.0,S,7.2,5.8,9999.0,DRY,,,Partly Cloudy,714.1968169129481,partly_cloudy.gif
2025-04-23 12:08,11.3,17.0,0.0,0.51,1018.8,69.0,304.1,17.0,2.0,17.0,163.0,S,5.4,4.7,9999.0,DRY,,,Mostly Cloudy,717.6976732999404,mostly_cloudy.gif
2025-04-23 12:13,11.1,17.3,0.0,0.51,1019.1,67.0,327.2,17.3,3.0,17.3,114.0,SE,3.6,3.2,9999.0,DRY,,,Partly Cloudy,720.8880504587468,partly_cloudy.gif
2025-04-23 12:18,11.5,17.7,0.0,0.51,1018.9,67.0,300.6,17.7,2.0,17.7,51.0,NE,1.8,0.7,9999.0,DRY,,,Mostly Cloudy,723.7663798225681,mostly_cloudy.gif
2025-04-23 12:23,10.5,17.9,0.0,0.51,1018.8,62.0,328.7,17.9,3.0,17.9,52.0,NE,1.8,0.4,9999.0,DRY,,,Partly Cloudy,726.3312478932515,partly_cloudy.gif
2025-04-23 12:28,11.5,18.2,0.0,0.51,1018.69,65.0,386.2,18.2,3.0,18.2,52.0,NE,0.0,0.0,9999.0,DRY,,,Partly Cloudy,728.5813967208469,partly_cloudy.gif
2025-04-23 12:33,12.5,18.8,0.0,0.51,1018.59,67.0,367.2,18.8,3.0,18.8,52.0,NE,0.0,0.0,9999.0,DRY,,,Partly Cloudy,730.515724312213,partly_cloudy.gif
2025-04-23 12:38,11.4,18.1,0.0,0.51,1018.59,65.0,336.8,18.1,3.0,18.1,41.0,NE,5.4,3.6,9999.0,DRY,,,Partly Cloudy,732.1332850143929,partly_cloudy.gif
2025-04-23 12:43,12.3,18.1,0.0,0.51,1018.49,69.0,327.7,18.1,3.0,18.1,66.0,NE,1.8,0.4,9999.0,DRY,,,Mostly Cloudy,733.4332898227505,mostly_cloudy.gif
2025-04-23 12:48,11.2,17.9,0.0,0.51,1018.49,65.0,347.0,17.9,3.0,17.9,122.0,SE,3.6,2.9,9999.0,DRY,,,Partly Cloudy,734.4151066612544,partly_cloudy.gif
2025-04-23 12:53,10.1,18.0,0.0,0.51,1018.49,60.0,406.2,18.0,3.0,18.0,76.0,E,1.8,1.8,9999.0,DRY,,,Partly Cloudy,735.0782605856978,partly_cloudy.gif
2025-04-23 12:58,11.1,18.5,0.0,0.51,1018.39,62.0,587.0,18.5,5.0,18.5,109.0,E,1.8,1.4,9999.0,DRY,,,Mostly Sunny,735.4224339556183,mostly_sunny.gif
2025-04-23 13:03,11.3,18.2,0.0,0.51,1018.59,64.0,367.3,18.2,3.0,18.2,160.0,S,7.2,6.1,9999.0,DRY,,,Partly Cloudy,735.4474665370581,partly_cloudy.gif
2025-04-23 13:08,11.2,18.1,0.0,0.51,1018.29,64.0,341.1,18.1,3.0,18.1,149.0,SE,9.4,7.2,9999.0,DRY,,,Partly Cloudy,735.1533555508025,partly_cloudy.gif
2025-04-23 13:13,11.9,17.9,0.0,0.51,1018.39,68.0,341.2,17.9,3.0,17.9,142.0,SE,5.4,4.3,9999.0,DRY,,,Partly Cloudy,734.5402556804486,partly_cloudy.gif
2025-04-23 13:18,11.1,17.8,0.0,0.51,1018.29,65.0,334.0,17.8,3.0,17.8,116.0,SE,9.4,9.4,9999.0,DRY,,,Partly Cloudy,733.608479003612,partly_cloudy.gif
2025-04-23 13:23,11.1,17.7,0.0,0.51,1018.19,65.0,316.5,17.7,3.0,17.7,168.0,S,5.4,4.0,9999.0,DRY,,,Mostly Cloudy,732.3584948919784,mostly_cloudy.gif
2025-04-23 13:28,10.6,17.7,0.0,0.51,1018.29,63.0,280.5,17.7,2.0,17.7,113.0,SE,5.4,4.3,9999.0,DRY,,,Mostly Cloudy,730.7909298335617,mostly_cloudy.gif
2025-04-23 13:33,10.2,18.1,0.0,0.51,1018.08,60.0,285.5,18.1,2.0,18.1,96.0,E,3.6,2.2,9999.0,DRY,,,Mostly Cloudy,728.9065672244639,mostly_cloudy.gif
2025-04-23 13:38,11.2,18.3,0.0,0.51,1018.08,63.0,329.8,18.3,3.0,18.3,93.0,E,5.4,2.5,9999.0,DRY,,,Partly Cloudy,726.7063470843459,partly_cloudy.gif
2025-04-23 13:43,10.3,18.2,0.0,0.51,1018.02,60.0,392.0,18.2,3.0,18.2,102.0,E,3.6,3.6,9999.0,DRY,,,Partly Cloudy,724.1913657412211,partly_cloudy.gif
2025-04-23 13:48,10.6,18.8,0.0,0.51,1017.91,59.0,400.2,18.8,3.0,18.8,130.0,SE,9.4,8.3,9999.0,DRY,,,Partly Cloudy,721.3628754508383,partly_cloudy.gif
2025-04-23 13:53,10.7,18.3,0.0,0.51,1018.02,61.0,384.9,18.3,3.0,18.3,52.0,NE,3.6,3.2,9999.0,DRY,,,Partly Cloudy,718.222283966042,partly_cloudy.gif
2025-04-23 13:58,11.4,18.6,0.0,0.51,1017.61,63.0,484.6,18.6,4.0,18.6,111.0,E,9.4,6.8,9999.0,DRY,,,Mostly Sunny,714.7711540722858,mostly_sunny.gif
2025-04-23 14:03,10.7,18.6,0.0,0.51,1018.02,60.0,512.0,18.6,4.0,18.6,107.0,E,14.8,11.9,9999.0,DRY,,,Mostly Sunny,711.0112030549985,mostly_sunny.gif
2025-04-23 14:08,11.1,18.5,0.0,0.51,1017.61,62.0,564.9,18.5,5.0,18.5,116.0,SE,7.2,6.5,9999.0,DRY,,,Mostly Sunny,706.9443021452594,mostly_sunny.gif
2025-04-23 14:13,11.0,18.7,0.0,0.51,1017.61,61.0,553.4,18.7,5.0,18.7,158.0,S,7.2,6.1,9999.0,DRY,,,Mostly Sunny,702.5724759004611,mostly_sunny.gif
2025-04-23 14:18,11.2,19.1,0.0,0.51,1017.41,60.0,545.0,19.1,5.0,19.1,164.0,S,5.4,5.4,9999.0,DRY,,,Mostly Sunny,697.8979015679852,mostly_sunny.gif
2025-04-23 14:23,10.9,18.8,0.0,0.51,1017.31,60.0,495.6,18.8,4.0,18.8,143.0,SE,11.2,10.1,9999.0,DRY,,,Mostly Sunny,692.9229083895814,mostly_sunny.gif
2025-04-23 14:28,11.7,18.6,0.0,0.51,1017.2,64.0,495.0,18.6,4.0,18.6,123.0,SE,11.2,8.6,9999.0,DRY,,,Mostly Sunny,687.6499768934657,mostly_sunny.gif
2025-04-23 14:33,11.3,19.0,0.0,0.51,1017.2,61.0,577.9,19.0,5.0,19.0,127.0,SE,11.2,8.3,9999.0,DRY,,,Mostly Sunny,682.0817381427433,mostly_sunny.gif
2025-04-23 14:38,11.1,19.0,0.0,0.51,1017.2,60.0,543.2,19.0,5.0,19.0,144.0,SE,3.6,3.6,9999.0,DRY,,,Mostly Sunny,676.2209729582954,mostly_sunny.gif
2025-04-23 14:43,11.3,19.5,0.0,0.51,1017.0,59.0,494.8,19.5,4.0,19.5,157.0,SE,11.2,9.4,9999.0,DRY,,,Mostly Sunny,670.0706111350801,mostly_sunny.gif
2025-04-23 14:48,11.1,18.8,0.0,0.51,1017.1,61.0,441.2,18.8,4.0,18.8,112.0,E,7.2,6.5,9999.0,DRY,,,Mostly Sunny,663.633730621819,mostly_sunny.gif
2025-04-23 14:53,11.1,19.0,0.0,0.51,1017.0,60.0,530.4,19.0,5.0,19.0,154.0,SE,14.8,12.2,9999.0,DRY,,,Mostly Sunny,656.9135567136805,mostly_sunny.gif
2025-04-23 14:58,11.1,19.3,0.0,0.51,1016.8,59.0,582.3,19.3,5.0,19.3,145.0,SE,9.4,8.3,9999.0,DRY,,,Sunny,649.913461219768,sunny.gif
2025-04-23 15:03,10.3,19.6,0.0,0.51,1016.7,55.0,404.4,19.6,3.0,19.6,130.0,SE,7.2,5.4,9999.0,DRY,,,Partly Cloudy,642.6369616577024,partly_cloudy.gif
2025-04-23 15:08,10.5,18.9,0.0,0.51,1016.59,58.0,246.0,18.9,2.0,18.9,76.0,E,5.4,4.0,9999.0,DRY,,,Mostly Cloudy,635.0877204391048,mostly_cloudy.gif
2025-04-23 15:13,9.6,18.8,0.0,0.51,1016.59,55.0,275.7,18.8,2.0,18.8,78.0,E,5.4,4.3,9999.0,DRY,,,Mostly Cloudy,627.2695440989204,mostly_cloudy.gif
2025-04-23 15:18,10.1,19.1,0.0,0.51,1016.49,56.0,424.3,19.1,4.0,19.1,158.0,S,11.2,7.6,9999.0,DRY,,,Mostly Sunny,619.1863825445406,mostly_sunny.gif
2025-04-23 15:23,11.3,19.5,0.0,0.51,1016.39,59.0,592.7,19.5,5.0,19.5,161.0,S,9.4,7.6,9999.0,DRY,,,Sunny,610.8423283509728,sunny.gif
2025-04-23 15:28,10.0,19.6,0.0,0.51,1016.19,54.0,252.8,19.6,2.0,19.6,138.0,SE,11.2,9.7,9999.0,DRY,,,Mostly Cloudy,602.2416161301302,mostly_cloudy.gif
2025-04-23 15:33,10.2,18.9,0.0,0.51,1016.29,57.0,288.9,18.9,2.0,18.9,161.0,S,7.2,6.5,9999.0,DRY,,,Partly Cloudy,593.3886219553082,partly_cloudy.gif
2025-04-23 15:38,10.5,18.9,0.0,0.51,1016.19,58.0,341.5,18.9,3.0,18.9,139.0,SE,11.2,9.7,9999.0,DRY,,,Partly Cloudy,584.2878629022512,partly_cloudy.gif
2025-04-23 15:43,10.8,19.0,0.0,0.51,1015.92,59.0,559.5,19.0,5.0,19.0,126.0,SE,7.2,5.0,9999.0,DRY,,,Sunny,574.9439966832784,sunny.gif
2025-04-23 15:48,11.6,20.1,0.0,0.51,1015.92,58.0,549.2,20.1,5.0,20.1,202.0,S,5.4,3.6,9999.0,DRY,,,Sunny,565.3618214428477,sunny.gif
2025-04-23 15:53,10.8,19.5,0.0,0.51,1015.81,57.0,458.7,19.5,4.0,19.5,135.0,SE,11.2,7.9,9999.0,DRY,,,Mostly Sunny,555.5462756977059,mostly_sunny.gif
2025-04-23 15:58,11.0,19.7,0.0,0.51,1015.51,57.0,301.2,19.7,2.0,19.7,156.0,SE,11.2,9.7,9999.0,DRY,,,Partly Cloudy,545.5024384967035,partly_cloudy.gif
2025-04-23 16:03,11.2,19.4,0.0,0.51,1015.41,59.0,506.3,19.4,4.0,19.4,169.0,S,9.4,6.5,9999.0,DRY,,,Sunny,535.2355298023215,sunny.gif
2025-04-23 16:08,11.6,19.5,0.0,0.51,1015.41,60.0,232.5,19.5,2.0,19.5,139.0,SE,11.2,9.4,9999.0,DRY,,,Mostly Cloudy,524.7509111506565,mostly_cloudy.gif
2025-04-23 16:13,11.4,19.6,0.0,0.51,1015.41,59.0,180.0,19.6,1.0,19.6,144.0,SE,5.4,5.4,9999.0,DRY,,,Mostly Cloudy,514.05408665402,mostly_cloudy.gif
2025-04-23 16:18,12.1,19.0,0.0,0.51,1015.31,64.0,151.5,19.0,1.0,19.0,139.0,SE,5.4,5.4,9999.0,DRY,,,Cloudy,503.15070436941426,cloudy.gif
