timestamp,imedvode1_dewpoint,imedvode1_heat_index,imedvode1_precipitation_rate,imedvode1_precipitation_today,imedvode1_pressure,imedvode1_relative_humidity,imedvode1_solar_radiation,imedvode1_temperature,imedvode1_uv_index,imedvode1_wind_chill,imedvode1_wind_direction_degrees,windCardinals,imedvode1_wind_gust,imedvode1_wind_speed,visibility,condition1,condition2,condition3,sky,max_solar_radiation,image_name
2025-04-15 02:52,11.2,11.3,1.19,4.8,1012.19,99.0,0.1,11.3,1.0,11.3,63.0,NE,1.8,0.7,8000.0,RAIN,LIGHT,,Night,0.0,rain_light.gif
2025-04-15 03:02,11.2,11.3,1.8,5.11,1012.19,99.0,0.1,11.3,1.0,11.3,63.0,NE,1.8,0.7,8000.0,RAIN,LIGHT,,Night,0.0,rain_light.gif
2025-04-15 03:07,11.2,11.3,0.0,5.11,1012.09,99.0,0.1,11.3,1.0,11.3,63.0,NE,1.8,0.7,8000.0,RAIN,LIGHT,,Night,0.0,rain_light.gif
2025-04-15 03:12,11.2,11.3,0.0,5.11,1012.09,99.0,0.1,11.3,1.0,11.3,63.0,NE,1.8,0.7,8000.0,DRY,,,Night,0.0,night.gif
2025-04-15 03:17,11.2,11.3,1.19,5.31,1011.89,99.0,0.1,11.3,1.0,11.3,63.0,NE,0.0,0.0,8000.0,RAIN,LIGHT,,Night,0.0,rain_light.gif
2025-04-15 03:22,11.2,11.3,0.0,5.31,1011.99,99.0,0.1,11.3,1.0,11.3,63.0,NE,0.0,0.0,8000.0,RAIN,LIGHT,,Night,0.0,rain_light.gif
2025-04-15 03:27,11.2,11.3,0.0,5.31,1011.89,99.0,0.1,11.3,1.0,11.3,63.0,NE,0.0,0.0,8000.0,DRY,,,Night,0.0,night.gif
2025-04-15 03:32,11.2,11.3,0.0,5.31,1011.99,99.0,0.1,11.3,1.0,11.3,63.0,NE,0.0,0.0,8000.0,DRY,,,Night,0.0,night.gif
2025-04-15 03:37,11.2,11.3,0.0,5.31,1011.89,99.0,0.1,11.3,1.0,11.3,62.0,NE,0.0,0.0,8000.0,DRY,,,Night,0.0,night.gif
2025-04-15 03:42,11.2,11.3,1.8,5.59,1011.89,99.0,0.1,11.3,1.0,11.3,62.0,NE,0.0,0.0,8000.0,RAIN,LIGHT,,Night,0.0,rain_light.gif
2025-04-15 03:47,11.2,11.3,0.0,5.59,1011.72,99.0,0.1,11.3,1.0,11.3,63.0,NE,0.0,0.0,8000.0,RAIN,LIGHT,,Night,0.0,rain_light.gif
2025-04-15 03:52,11.2,11.3,1.19,5.79,1011.79,99.0,0.1,11.3,1.0,11.3,62.0,NE,0.0,0.0,8000.0,RAIN,LIGHT,,Night,0.0,rain_light.gif
2025-04-15 03:57,11.2,11.3,3.0,6.1,1011.79,99.0,0.1,11.3,1.0,11.3,62.0,NE,0.0,0.0,8000.0,RAIN,MODERATE,,Night,0.0,rain_moderate.gif
2025-04-15 04:02,11.2,11.3,3.61,6.4,1011.62,99.0,0.1,11.3,1.0,11.3,62.0,NE,0.0,0.0,8000.0,RAIN,MODERATE,,Night,0.0,rain_moderate.gif
2025-04-15 04:07,11.2,11.3,1.8,6.4,1011.62,99.0,0.1,11.3,1.0,11.3,62.0,NE,0.0,0.0,8000.0,RAIN,LIGHT,,Night,0.0,rain_light.gif
2025-04-15 04:12,11.2,11.3,3.0,6.6,1011.51,99.0,0.1,11.3,1.0,11.3,62.0,NE,0.0,0.0,8000.0,RAIN,MODERATE,,Night,0.0,rain_moderate.gif
2025-04-15 04:17,11.2,11.3,0.0,6.91,1011.41,99.0,0.1,11.3,1.0,11.3,62.0,NE,0.0,0.0,8000.0,RAIN,LIGHT,,Night,0.0,rain_light.gif
2025-04-15 04:22,11.2,11.3,1.8,6.91,1011.41,99.0,0.1,11.3,1.0,11.3,62.0,NE,0.0,0.0,8000.0,RAIN,LIGHT,,Night,0.0,rain_light.gif
2025-04-15 04:27,11.2,11.3,3.0,7.11,1011.41,99.0,0.1,11.3,1.0,11.3,62.0,NE,0.0,0.0,8000.0,RAIN,MODERATE,,Night,0.0,rain_moderate.gif
2025-04-15 04:32,11.2,11.3,1.19,7.11,1011.21,99.0,0.1,11.3,1.0,11.3,62.0,NE,0.0,0.0,8000.0,RAIN,LIGHT,,Night,0.0,rain_light.gif
2025-04-15 04:37,11.1,11.3,0.0,7.11,1011.21,99.0,0.1,11.3,1.0,11.3,62.0,NE,0.0,0.0,8000.0,DRY,,,Night,0.0,night.gif
2025-04-15 04:42,11.1,11.3,1.8,7.39,1011.21,99.0,0.1,11.3,1.0,11.3,62.0,NE,1.8,0.4,8000.0,RAIN,LIGHT,,Night,0.0,rain_light.gif
2025-04-15 04:47,11.1,11.3,3.0,7.59,1011.31,99.0,0.1,11.3,1.0,11.3,62.0,NE,0.0,0.0,8000.0,RAIN,MODERATE,,Night,0.0,rain_moderate.gif
2025-04-15 04:52,11.1,11.3,1.19,7.59,1011.11,99.0,0.1,11.3,1.0,11.3,62.0,NE,0.0,0.0,8000.0,RAIN,LIGHT,,Night,0.0,rain_light.gif
2025-04-15 04:57,11.1,11.3,1.8,7.9,1011.01,99.0,0.1,11.3,1.0,11.3,62.0,NE,0.0,0.0,8000.0,RAIN,LIGHT,,Night,0.0,rain_light.gif
2025-04-15 05:02,11.1,11.3,3.0,8.1,1011.01,99.0,0.1,11.3,1.0,11.3,62.0,NE,0.0,0.0,8000.0,RAIN,MODERATE,,Night,0.0,rain_moderate.gif
2025-04-15 05:07,11.1,11.3,0.0,8.41,1011.01,99.0,0.1,11.3,1.0,11.3,62.0,NE,0.0,0.0,8000.0,RAIN,LIGHT,,Night,0.0,rain_light.gif
2025-04-15 05:12,11.2,11.4,0.0,8.61,1011.11,99.0,0.1,11.4,1.0,11.4,62.0,NE,0.0,0.0,8000.0,RAIN,LIGHT,,Night,0.0,rain_light.gif
2025-04-15 05:17,11.2,11.4,1.19,8.61,1011.01,99.0,0.1,11.4,1.0,11.4,62.0,NE,0.0,0.0,8000.0,RAIN,LIGHT,,Night,0.0,rain_light.gif
2025-04-15 05:22,11.2,11.4,3.0,8.89,1010.8,99.0,0.1,11.4,1.0,11.4,62.0,NE,0.0,0.0,8000.0,RAIN,MODERATE,,Night,0.0,rain_moderate.gif
2025-04-15 05:27,11.1,11.3,1.8,8.89,1011.01,99.0,0.1,11.3,1.0,11.3,62.0,NE,1.8,1.1,8000.0,RAIN,LIGHT,,Night,0.0,rain_light.gif
2025-04-15 05:32,11.1,11.3,0.0,8.89,1010.8,99.0,0.1,11.3,1.0,11.3,52.0,NE,1.8,1.8,8000.0,DRY,,,Night,0.0,night.gif
2025-04-15 05:37,11.1,11.3,1.19,9.09,1010.9,99.0,0.1,11.3,1.0,11.3,53.0,NE,1.8,1.1,8000.0,RAIN,LIGHT,,Night,0.0,rain_light.gif
2025-04-15 05:42,11.2,11.4,3.0,9.4,1010.7,99.0,0.1,11.4,1.0,11.4,53.0,NE,0.0,0.0,8000.0,RAIN,MODERATE,,Night,0.0,rain_moderate.gif
2025-04-15 05:47,11.1,11.3,3.61,9.7,1010.7,99.0,0.1,11.3,1.0,11.3,53.0,NE,0.0,0.0,8000.0,RAIN,MODERATE,,Twilight,0.0,rain_moderate.gif
2025-04-15 05:52,11.1,11.3,1.8,9.7,1010.9,99.0,0.1,11.3,1.0,11.3,53.0,NE,0.0,0.0,8000.0,RAIN,LIGHT,,Twilight,0.0,rain_light.gif
2025-04-15 05:57,11.1,11.3,0.0,9.7,1010.7,99.0,0.1,11.3,1.0,11.3,53.0,NE,0.0,0.0,8000.0,DRY,,,Twilight,0.0,cloudy.gif
2025-04-15 06:02,11.1,11.3,1.19,9.91,1010.8,99.0,0.1,11.3,1.0,11.3,53.0,NE,0.0,0.0,8000.0,RAIN,LIGHT,,Twilight,0.0,rain_light.gif
2025-04-15 06:06,11.1,11.3,0.0,9.91,1010.8,99.0,0.1,11.3,1.0,11.3,53.0,NE,0.0,0.0,8000.0,RAIN,LIGHT,,Twilight,0.0,rain_light.gif
2025-04-15 06:07,11.1,11.3,0.0,9.91,1010.8,99.0,0.1,11.3,1.0,11.3,53.0,NE,0.0,0.0,8000.0,DRY,,,Twilight,0.0,cloudy.gif
2025-04-15 06:12,11.1,11.3,1.8,10.21,1010.7,99.0,0.2,11.3,1.0,11.3,53.0,NE,0.0,0.0,8000.0,RAIN,LIGHT,,Twilight,0.0,rain_light.gif
2025-04-15 06:17,11.1,11.3,0.0,10.21,1010.7,99.0,0.4,11.3,1.0,11.3,53.0,NE,0.0,0.0,8000.0,RAIN,LIGHT,,Twilight,0.0,rain_light.gif
2025-04-15 06:22,11.1,11.3,1.19,10.39,1010.7,99.0,0.9,11.3,1.0,11.3,53.0,NE,0.0,0.0,8000.0,RAIN,LIGHT,,Cloudy,6.174865814966516,rain_light.gif
2025-04-15 06:27,11.1,11.3,0.0,10.39,1010.5,99.0,1.7,11.3,1.0,11.3,53.0,NE,0.0,0.0,8000.0,RAIN,LIGHT,,Cloudy,13.284492740526609,rain_light.gif
2025-04-15 06:32,11.1,11.3,1.8,10.69,1010.8,99.0,2.5,11.3,1.0,11.3,53.0,NE,0.0,0.0,8000.0,RAIN,LIGHT,,Cloudy,20.676920493765028,rain_light.gif
2025-04-15 06:36,11.1,11.3,0.0,10.69,1010.8,99.0,2.5,11.3,1.0,11.3,53.0,NE,0.0,0.0,9999.0,RAIN,LIGHT,,Cloudy,26.737331061632602,rain_light.gif
2025-04-15 06:37,11.1,11.3,3.0,10.9,1010.7,99.0,2.7,11.3,1.0,11.3,53.0,NE,0.0,0.0,9999.0,RAIN,MODERATE,,Cloudy,28.268169416403996,rain_moderate.gif
2025-04-15 06:42,11.2,11.4,4.19,11.4,1010.8,99.0,4.9,11.4,1.0,11.4,53.0,NE,0.0,0.0,9999.0,RAIN,MODERATE,,Cloudy,35.99574825544545,rain_moderate.gif
2025-04-15 06:47,11.2,11.4,4.8,11.71,1010.7,99.0,5.9,11.4,1.0,11.4,53.0,NE,0.0,0.0,9999.0,RAIN,MODERATE,,Cloudy,43.819599442494344,rain_moderate.gif
2025-04-15 06:52,11.1,11.3,3.0,11.91,1010.5,99.0,5.2,11.3,1.0,11.3,53.0,NE,1.8,0.4,9999.0,RAIN,MODERATE,,Cloudy,51.72615136311292,rain_moderate.gif
2025-04-15 06:57,11.1,11.3,0.0,12.19,1010.6,99.0,4.3,11.3,1.0,11.3,52.0,NE,1.8,1.1,9999.0,RAIN,LIGHT,,Cloudy,59.68154398655842,rain_light.gif
2025-04-15 07:02,11.2,11.4,0.0,12.4,1010.9,99.0,3.9,11.4,1.0,11.4,53.0,NE,0.0,0.0,9999.0,RAIN,LIGHT,,Cloudy,67.67115226910762,rain_light.gif
2025-04-15 07:07,11.2,11.4,0.0,12.7,1010.7,99.0,5.1,11.4,1.0,11.4,53.0,NE,0.0,0.0,9999.0,RAIN,LIGHT,,Cloudy,75.68430938741555,rain_light.gif
2025-04-15 07:12,11.2,11.4,4.8,13.21,1010.7,99.0,4.4,11.4,1.0,11.4,53.0,NE,0.0,0.0,9999.0,RAIN,MODERATE,,Cloudy,83.71208409402728,rain_moderate.gif
2025-04-15 07:17,11.2,11.4,0.0,13.49,1010.7,99.0,6.9,11.4,1.0,11.4,53.0,NE,0.0,0.0,9999.0,RAIN,LIGHT,,Cloudy,91.74678903619476,rain_light.gif
2025-04-15 07:22,11.2,11.4,4.19,13.69,1010.7,99.0,6.9,11.4,1.0,11.4,53.0,NE,0.0,0.0,9999.0,RAIN,MODERATE,,Cloudy,102.93854953463504,rain_moderate.gif
2025-04-15 07:27,11.2,11.4,0.0,14.2,1010.7,99.0,9.4,11.4,1.0,11.4,53.0,NE,0.0,0.0,9999.0,RAIN,LIGHT,,Cloudy,116.09291087630773,rain_light.gif
2025-04-15 07:32,11.2,11.4,5.99,14.71,1010.8,99.0,12.0,11.4,1.0,11.4,53.0,NE,0.0,0.0,9999.0,RAIN,MODERATE,,Cloudy,129.41156788864387,rain_moderate.gif
2025-04-15 07:37,11.2,11.4,4.8,15.01,1010.7,99.0,12.1,11.4,1.0,11.4,52.0,NE,1.8,1.8,9999.0,RAIN,MODERATE,,Cloudy,142.85515152649808,rain_moderate.gif
2025-04-15 07:42,11.3,11.5,3.0,15.19,1010.7,99.0,9.4,11.5,1.0,11.5,52.0,NE,1.8,1.1,9999.0,RAIN,MODERATE,,Cloudy,156.39084808301445,rain_moderate.gif
2025-04-15 07:47,11.3,11.5,4.8,15.8,1010.8,99.0,8.7,11.5,1.0,11.5,52.0,NE,0.0,0.0,9999.0,RAIN,MODERATE,,Cloudy,169.99085805431105,rain_moderate.gif
2025-04-15 07:52,11.3,11.5,0.0,16.0,1010.7,99.0,14.4,11.5,1.0,11.5,52.0,NE,0.0,0.0,9999.0,RAIN,LIGHT,,Cloudy,183.63126539349972,rain_light.gif
2025-04-15 07:57,11.3,11.5,0.0,16.31,1010.8,99.0,12.3,11.5,1.0,11.5,52.0,NE,0.0,0.0,9999.0,RAIN,LIGHT,,Cloudy,197.2911978872642,rain_light.gif
2025-04-15 08:02,11.3,11.5,3.0,16.51,1011.01,99.0,31.5,11.5,1.0,11.5,46.0,NE,0.0,0.0,9999.0,RAIN,MODERATE,,Cloudy,210.95219644831482,rain_moderate.gif
2025-04-15 08:07,11.4,11.6,0.0,16.79,1010.9,99.0,31.1,11.6,1.0,11.6,46.0,NE,0.0,0.0,9999.0,RAIN,LIGHT,,Cloudy,224.5977362083082,rain_light.gif
2025-04-15 08:12,11.4,11.6,0.0,16.99,1010.9,99.0,21.5,11.6,1.0,11.6,46.0,NE,1.8,1.4,9999.0,RAIN,LIGHT,,Cloudy,238.21285908853585,rain_light.gif
2025-04-15 08:17,11.3,11.5,0.0,17.3,1010.8,99.0,32.3,11.5,1.0,11.5,324.0,NW,1.8,1.1,9999.0,RAIN,LIGHT,,Cloudy,251.78388925702737,rain_light.gif
2025-04-15 08:22,11.4,11.6,4.8,17.81,1010.8,99.0,52.2,11.6,1.0,11.6,359.0,N,0.0,0.0,9999.0,RAIN,MODERATE,,Cloudy,265.29821076328216,rain_moderate.gif
2025-04-15 08:27,11.4,11.6,0.0,18.29,1010.8,99.0,51.7,11.6,1.0,11.6,5.0,N,0.0,0.0,9999.0,RAIN,LIGHT,,Cloudy,278.74409239281806,rain_light.gif
2025-04-15 08:32,11.4,11.6,4.19,18.49,1010.7,99.0,56.0,11.6,1.0,11.6,6.0,N,0.0,0.0,9999.0,RAIN,MODERATE,,Cloudy,292.11054863215645,rain_moderate.gif
2025-04-15 08:37,11.5,11.7,3.0,18.49,1010.7,99.0,39.7,11.7,1.0,11.7,6.0,N,0.0,0.0,9999.0,RAIN,MODERATE,,Cloudy,305.3872285504563,rain_moderate.gif
2025-04-15 08:42,11.5,11.7,0.0,18.49,1010.7,99.0,31.6,11.7,1.0,11.7,6.0,N,1.8,0.4,9999.0,DRY,,,Cloudy,318.56432645444426,cloudy.gif
2025-04-15 08:47,11.6,11.8,1.8,18.8,1010.6,99.0,27.4,11.8,1.0,11.8,6.0,N,0.0,0.0,9999.0,RAIN,LIGHT,,Cloudy,331.63250959444946,rain_light.gif
2025-04-15 08:52,11.6,11.8,0.0,18.8,1010.5,99.0,27.3,11.8,1.0,11.8,7.0,N,0.0,0.0,9999.0,RAIN,LIGHT,,Cloudy,344.58285942284164,rain_light.gif
2025-04-15 08:57,11.6,11.8,0.0,19.1,1010.5,99.0,40.5,11.8,1.0,11.8,6.0,N,0.0,0.0,9999.0,RAIN,LIGHT,,Cloudy,357.40682358969264,rain_light.gif
2025-04-15 09:02,11.7,11.9,0.0,19.1,1010.4,99.0,26.1,11.9,1.0,11.9,7.0,N,0.0,0.0,9999.0,RAIN,LIGHT,,Cloudy,370.0961766132557,rain_light.gif
2025-04-15 09:07,11.7,11.9,1.19,19.3,1010.5,99.0,30.8,11.9,1.0,11.9,7.0,N,0.0,0.0,9999.0,RAIN,LIGHT,,Cloudy,382.64298748979354,rain_light.gif
2025-04-15 09:12,11.7,11.9,0.0,19.3,1010.5,99.0,28.7,11.9,1.0,11.9,118.0,SE,3.6,3.2,9999.0,RAIN,LIGHT,,Cloudy,395.03959299678445,rain_light.gif
2025-04-15 09:17,11.8,12.0,1.8,19.61,1010.5,99.0,54.9,12.0,1.0,12.0,160.0,S,1.8,1.1,9999.0,RAIN,LIGHT,,Cloudy,407.2785755957098,rain_light.gif
2025-04-15 09:22,11.7,12.0,3.0,19.81,1010.4,98.0,35.7,12.0,1.0,12.0,160.0,S,1.8,0.4,9999.0,RAIN,MODERATE,,Cloudy,419.35274512592827,rain_moderate.gif
2025-04-15 09:27,11.7,12.0,1.19,19.81,1010.5,98.0,31.1,12.0,1.0,12.0,117.0,SE,3.6,2.2,9999.0,RAIN,LIGHT,,Cloudy,431.25512364419666,rain_light.gif
2025-04-15 09:32,11.7,12.0,1.8,20.09,1010.6,98.0,23.5,12.0,1.0,12.0,129.0,SE,0.0,0.0,9999.0,RAIN,LIGHT,,Cloudy,442.9789328196147,rain_light.gif
2025-04-15 09:37,11.8,12.1,0.0,20.09,1010.5,98.0,37.6,12.1,1.0,12.1,129.0,SE,0.0,0.0,9999.0,RAIN,LIGHT,,Cloudy,454.5175835124979,rain_light.gif
2025-04-15 09:42,11.8,12.1,0.0,20.09,1010.5,98.0,68.4,12.1,1.0,12.1,129.0,SE,1.8,0.4,9999.0,DRY,,,Cloudy,465.86466711386606,cloudy.gif
2025-04-15 09:47,11.9,12.2,0.0,20.09,1010.6,98.0,80.7,12.2,1.0,12.2,131.0,SE,1.8,0.4,9999.0,DRY,,,Cloudy,477.0139484201271,cloudy.gif
2025-04-15 09:52,11.9,12.2,0.0,20.09,1010.5,98.0,72.1,12.2,1.0,12.2,120.0,SE,3.6,2.9,9999.0,DRY,,,Cloudy,487.9593597358895,cloudy.gif
2025-04-15 09:57,11.6,12.2,0.0,20.09,1010.5,96.0,69.7,12.2,1.0,12.2,134.0,SE,5.4,5.4,9999.0,DRY,,,Cloudy,498.6949960693276,cloudy.gif
2025-04-15 10:02,11.7,12.3,0.0,20.09,1010.6,96.0,85.2,12.3,1.0,12.3,152.0,SE,3.6,3.6,9999.0,DRY,,,Cloudy,509.21511120312863,cloudy.gif
2025-04-15 10:07,11.8,12.4,0.0,20.09,1010.5,96.0,65.9,12.4,1.0,12.4,147.0,SE,3.6,3.6,9999.0,DRY,,,Cloudy,519.5141145230007,cloudy.gif
2025-04-15 10:12,11.9,12.5,1.19,20.29,1010.5,96.0,75.2,12.5,1.0,12.5,140.0,SE,5.4,5.0,9999.0,RAIN,LIGHT,,Cloudy,529.5865685080041,rain_light.gif
2025-04-15 10:17,12.1,12.5,3.0,20.6,1010.6,97.0,109.7,12.5,1.0,12.5,120.0,SE,3.6,2.5,9999.0,RAIN,MODERATE,,Cloudy,539.4271867341121,rain_moderate.gif
2025-04-15 10:22,12.0,12.6,0.0,20.8,1010.6,96.0,57.2,12.6,0.0,12.6,125.0,SE,3.6,3.2,9999.0,RAIN,LIGHT,,Cloudy,549.0308323712163,rain_light.gif
2025-04-15 10:27,12.1,12.5,0.0,21.11,1010.4,97.0,89.0,12.5,0.0,12.5,129.0,SE,1.8,1.8,9999.0,RAIN,LIGHT,,Cloudy,558.3925170390135,rain_light.gif
2025-04-15 10:32,11.9,12.5,0.0,21.31,1010.5,96.0,70.4,12.5,0.0,12.5,156.0,SE,1.8,1.8,9999.0,RAIN,LIGHT,,Cloudy,567.5074000261043,rain_light.gif
2025-04-15 10:37,11.9,12.5,0.0,21.59,1010.5,96.0,97.9,12.5,0.0,12.5,137.0,SE,1.8,1.8,9999.0,RAIN,LIGHT,,Cloudy,576.3707877579084,rain_light.gif
2025-04-15 10:42,12.2,12.6,6.6,22.4,1010.6,97.0,103.0,12.6,1.0,12.6,125.0,SE,3.6,2.2,9999.0,RAIN,HEAVY,,Cloudy,584.9781335307697,rain_heavy.gif
2025-04-15 10:47,12.2,12.6,5.99,22.61,1010.6,97.0,91.0,12.6,0.0,12.6,131.0,SE,1.8,1.8,9999.0,RAIN,MODERATE,,Cloudy,593.3250374256758,rain_moderate.gif
2025-04-15 10:52,12.0,12.6,0.0,23.09,1010.7,96.0,128.1,12.6,1.0,12.6,156.0,SE,3.6,3.6,9999.0,RAIN,LIGHT,,Cloudy,601.4072463888149,rain_light.gif
2025-04-15 10:57,12.3,12.7,4.8,23.39,1010.8,97.0,53.8,12.7,0.0,12.7,153.0,SE,1.8,1.8,9999.0,RAIN,MODERATE,,Cloudy,609.2206544704264,rain_moderate.gif
2025-04-15 11:02,12.3,12.7,3.0,23.6,1010.5,97.0,80.9,12.7,0.0,12.7,133.0,SE,1.8,1.8,9999.0,RAIN,MODERATE,,Cloudy,616.7613031491053,rain_moderate.gif
2025-04-15 11:06,12.3,12.7,0.0,23.6,1010.5,97.0,80.9,12.7,0.0,12.7,133.0,SE,1.8,1.8,7000.0,RAIN,LIGHT,,Cloudy,622.5948695884546,rain_light.gif
2025-04-15 11:07,12.1,12.7,4.8,23.9,1010.5,96.0,62.2,12.7,0.0,12.7,166.0,S,1.8,1.4,7000.0,RAIN,MODERATE,,Cloudy,624.0253817802896,rain_moderate.gif
2025-04-15 11:12,12.2,12.8,3.0,24.1,1010.6,96.0,120.0,12.8,1.0,12.8,111.0,E,3.6,3.6,7000.0,RAIN,MODERATE,,Cloudy,631.009228089187,rain_moderate.gif
2025-04-15 11:17,12.3,12.9,0.0,24.41,1010.6,96.0,65.5,12.9,0.0,12.9,141.0,SE,3.6,2.5,7000.0,RAIN,LIGHT,,Cloudy,637.7093287529823,rain_light.gif
2025-04-15 11:22,12.4,13.0,0.0,24.61,1010.5,96.0,84.3,13.0,0.0,13.0,85.0,E,5.4,5.0,7000.0,RAIN,LIGHT,,Cloudy,644.1223199975578,rain_light.gif
2025-04-15 11:27,12.5,13.1,0.0,24.89,1010.7,96.0,48.4,13.1,0.0,13.1,123.0,SE,3.6,3.6,7000.0,RAIN,LIGHT,,Cloudy,650.244988254864,rain_light.gif
2025-04-15 11:32,12.6,13.2,1.8,24.89,1010.5,96.0,60.9,13.2,0.0,13.2,122.0,SE,1.8,1.4,7000.0,RAIN,LIGHT,,Cloudy,656.0742708229724,rain_light.gif
2025-04-15 11:37,12.5,13.1,0.0,24.89,1010.5,96.0,59.1,13.1,0.0,13.1,65.0,NE,1.8,1.8,7000.0,DRY,,,Cloudy,661.6072565381596,cloudy.gif
2025-04-15 11:42,12.6,13.2,1.19,25.1,1010.5,96.0,56.5,13.2,0.0,13.2,89.0,E,5.4,4.0,7000.0,RAIN,LIGHT,,Cloudy,666.8411864687943,rain_light.gif
2025-04-15 11:47,12.6,13.2,3.0,25.4,1010.4,96.0,54.5,13.2,0.0,13.2,117.0,SE,3.6,2.9,7000.0,RAIN,MODERATE,,Cloudy,671.7734545776483,rain_moderate.gif
2025-04-15 11:52,12.6,13.2,3.61,25.7,1010.6,96.0,117.9,13.2,1.0,13.2,106.0,E,3.6,2.2,7000.0,RAIN,MODERATE,,Cloudy,676.4016084027036,rain_moderate.gif
2025-04-15 11:57,12.5,13.3,3.0,25.91,1010.3,95.0,135.0,13.3,1.0,13.3,102.0,E,7.2,6.1,7000.0,RAIN,MODERATE,,Cloudy,680.7233496922845,rain_moderate.gif
2025-04-15 12:02,12.5,13.3,0.0,26.19,1010.5,95.0,53.5,13.3,0.0,13.3,152.0,SE,5.4,4.7,7000.0,RAIN,LIGHT,,Cloudy,684.7365350474615,rain_light.gif
2025-04-15 12:06,12.5,13.3,0.0,26.19,1010.5,95.0,53.5,13.3,0.0,13.3,152.0,SE,5.4,4.7,9999.0,RAIN,LIGHT,,Cloudy,687.7235819122457,rain_light.gif
2025-04-15 12:07,12.5,13.3,0.0,26.39,1010.5,95.0,103.8,13.3,1.0,13.3,103.0,E,5.4,3.6,9999.0,RAIN,LIGHT,,Cloudy,688.4391765091752,rain_light.gif
2025-04-15 12:12,12.5,13.3,0.0,26.7,1010.4,95.0,102.3,13.3,0.0,13.3,100.0,E,3.6,3.6,9999.0,RAIN,LIGHT,,Cloudy,691.8294421419444,rain_light.gif
2025-04-15 12:17,12.8,13.4,0.0,26.9,1010.6,96.0,63.3,13.4,0.0,13.4,99.0,E,0.0,0.0,9999.0,RAIN,LIGHT,,Cloudy,694.9056565655831,rain_light.gif
2025-04-15 12:22,12.4,13.2,0.0,27.2,1010.5,95.0,59.8,13.2,0.0,13.2,82.0,E,3.6,2.9,9999.0,RAIN,LIGHT,,Cloudy,697.6663014498657,rain_light.gif
2025-04-15 12:27,12.7,13.3,0.0,27.41,1010.5,96.0,98.3,13.3,0.0,13.3,88.0,E,5.4,4.0,9999.0,RAIN,LIGHT,,Cloudy,700.1100159868749,rain_light.gif
2025-04-15 12:32,12.7,13.3,1.19,27.41,1010.5,96.0,89.4,13.3,0.0,13.3,107.0,E,5.4,4.7,9999.0,RAIN,LIGHT,,Cloudy,702.2355972945733,rain_light.gif
2025-04-15 12:37,12.7,13.3,4.19,27.89,1010.3,96.0,79.6,13.3,0.0,13.3,83.0,E,3.6,2.9,9999.0,RAIN,MODERATE,,Cloudy,704.0420008039836,rain_moderate.gif
2025-04-15 12:42,12.7,13.3,3.0,27.89,1010.5,96.0,80.7,13.3,0.0,13.3,105.0,E,5.4,4.3,9999.0,RAIN,MODERATE,,Cloudy,705.528340572134,rain_moderate.gif
2025-04-15 12:47,12.8,13.4,1.8,28.19,1010.4,96.0,94.6,13.4,0.0,13.4,81.0,E,7.2,6.1,9999.0,RAIN,LIGHT,,Cloudy,706.6938895750765,rain_light.gif
2025-04-15 12:52,12.6,13.4,0.0,28.19,1010.6,95.0,90.5,13.4,0.0,13.4,90.0,E,7.2,6.1,9999.0,RAIN,LIGHT,,Cloudy,707.5380799241002,rain_light.gif
2025-04-15 12:57,12.8,13.4,0.0,28.5,1010.6,96.0,95.0,13.4,0.0,13.4,94.0,E,5.4,4.7,9999.0,RAIN,LIGHT,,Cloudy,708.0605030577789,rain_light.gif
2025-04-15 13:02,12.6,13.4,0.0,28.5,1010.5,95.0,93.6,13.4,0.0,13.4,97.0,E,7.2,6.1,9999.0,RAIN,LIGHT,,Cloudy,708.2609098658634,rain_light.gif
2025-04-15 13:07,12.6,13.4,0.0,28.5,1010.5,95.0,102.9,13.4,1.0,13.4,96.0,E,5.4,5.0,9999.0,DRY,,,Cloudy,708.1392107619151,cloudy.gif
2025-04-15 13:12,12.7,13.5,0.0,28.5,1010.6,95.0,74.1,13.5,0.0,13.5,113.0,SE,7.2,5.4,9999.0,DRY,,,Cloudy,707.6954757210511,cloudy.gif
2025-04-15 13:17,12.7,13.5,0.0,28.5,1010.5,95.0,105.3,13.5,1.0,13.5,84.0,E,5.4,5.0,9999.0,DRY,,,Cloudy,706.9299342403939,cloudy.gif
2025-04-15 13:22,12.9,13.7,0.0,28.5,1010.6,95.0,122.7,13.7,1.0,13.7,83.0,E,7.2,3.2,9999.0,DRY,,,Cloudy,705.8429752746581,cloudy.gif
2025-04-15 13:27,12.7,13.7,0.0,28.5,1010.8,94.0,88.9,13.7,0.0,13.7,109.0,E,7.2,5.8,9999.0,DRY,,,Cloudy,704.4351470933509,cloudy.gif
2025-04-15 13:32,12.7,13.7,1.19,28.7,1010.7,94.0,94.6,13.7,0.0,13.7,112.0,E,5.4,4.0,9999.0,RAIN,LIGHT,,Cloudy,702.7071571136255,rain_light.gif
2025-04-15 13:37,12.8,13.8,0.0,28.7,1010.6,94.0,106.5,13.8,1.0,13.8,113.0,SE,5.4,5.0,9999.0,RAIN,LIGHT,,Cloudy,700.6598716562241,rain_light.gif
2025-04-15 13:42,12.7,13.7,1.8,29.01,1010.6,94.0,135.3,13.7,1.0,13.7,100.0,E,5.4,4.7,9999.0,RAIN,LIGHT,,Cloudy,698.2943156769747,rain_light.gif
2025-04-15 13:47,13.0,13.8,0.0,29.01,1010.5,95.0,102.2,13.8,0.0,13.8,104.0,E,3.6,3.2,9999.0,RAIN,LIGHT,,Cloudy,695.6116724334669,rain_light.gif
2025-04-15 13:52,13.1,13.9,1.19,29.21,1010.6,95.0,117.3,13.9,1.0,13.9,88.0,E,1.8,1.8,9999.0,RAIN,LIGHT,,Cloudy,692.6132831051955,rain_light.gif
2025-04-15 13:57,13.0,14.0,0.0,29.21,1010.5,94.0,111.6,14.0,1.0,14.0,79.0,E,3.6,3.6,9999.0,RAIN,LIGHT,,Cloudy,689.3006463850171,rain_light.gif
2025-04-15 14:02,13.2,14.0,1.8,29.49,1010.5,95.0,111.8,14.0,1.0,14.0,93.0,E,5.4,4.7,9999.0,RAIN,LIGHT,,Cloudy,685.6754180031636,rain_light.gif
2025-04-15 14:07,13.2,14.0,0.0,29.49,1010.6,95.0,95.8,14.0,0.0,14.0,85.0,E,3.6,3.6,9999.0,RAIN,LIGHT,,Cloudy,681.7394102366155,rain_light.gif
2025-04-15 14:12,13.1,13.9,3.0,30.0,1010.6,95.0,67.8,13.9,0.0,13.9,137.0,SE,3.6,2.2,9999.0,RAIN,MODERATE,,Cloudy,677.4945913545712,rain_moderate.gif
2025-04-15 14:17,13.3,13.9,4.19,30.2,1010.4,96.0,52.3,13.9,0.0,13.9,153.0,SE,5.4,4.0,9999.0,RAIN,MODERATE,,Cloudy,672.9430850548873,rain_moderate.gif
2025-04-15 14:22,13.3,13.9,4.8,30.51,1010.5,96.0,73.7,13.9,0.0,13.9,157.0,SE,5.4,4.0,9999.0,RAIN,MODERATE,,Cloudy,668.087169843125,rain_moderate.gif
2025-04-15 14:27,13.4,14.0,3.0,30.71,1010.7,96.0,74.0,14.0,0.0,14.0,133.0,SE,3.6,3.6,9999.0,RAIN,MODERATE,,Cloudy,662.9292784083491,rain_moderate.gif
2025-04-15 14:32,13.4,14.0,1.19,30.71,1010.7,96.0,88.8,14.0,0.0,14.0,123.0,SE,5.4,5.0,9999.0,RAIN,LIGHT,,Cloudy,657.471996959536,rain_light.gif
2025-04-15 14:37,13.4,14.0,1.8,30.99,1010.6,96.0,86.2,14.0,0.0,14.0,118.0,SE,5.4,4.3,9999.0,RAIN,LIGHT,,Cloudy,651.7180645440501,rain_light.gif
2025-04-15 14:42,13.5,14.1,3.0,31.19,1010.8,96.0,79.2,14.1,0.0,14.1,116.0,SE,5.4,5.0,9999.0,RAIN,MODERATE,,Cloudy,645.6703723694992,rain_moderate.gif
2025-04-15 14:47,13.5,14.1,1.19,31.19,1010.9,96.0,99.3,14.1,0.0,14.1,129.0,SE,5.4,4.7,9999.0,RAIN,LIGHT,,Cloudy,639.3319630956902,rain_light.gif
2025-04-15 14:52,13.5,14.1,0.0,31.19,1010.7,96.0,140.9,14.1,1.0,14.1,139.0,SE,3.6,3.6,9999.0,DRY,,,Cloudy,632.7060301530353,cloudy.gif
2025-04-15 14:57,13.5,14.1,1.8,31.5,1010.9,96.0,131.1,14.1,1.0,14.1,141.0,SE,7.2,6.5,9999.0,RAIN,LIGHT,,Cloudy,625.7959170449917,rain_light.gif
2025-04-15 15:02,13.3,14.1,3.61,31.8,1010.8,95.0,158.3,14.1,1.0,14.1,121.0,SE,5.4,5.0,9999.0,RAIN,MODERATE,,Cloudy,618.6051166942411,rain_moderate.gif
2025-04-15 15:07,13.6,14.2,4.8,32.31,1010.7,96.0,190.8,14.2,1.0,14.2,121.0,SE,7.2,6.1,9999.0,RAIN,MODERATE,,Cloudy,611.1372707925993,rain_moderate.gif
2025-04-15 15:12,13.6,14.2,4.19,32.51,1010.8,96.0,254.4,14.2,2.0,14.2,110.0,E,3.6,2.9,9999.0,RAIN,MODERATE,,Mostly Cloudy,603.3961692155417,rain_moderate.gif
2025-04-15 15:17,13.6,14.4,1.19,32.51,1010.7,95.0,208.3,14.4,2.0,14.4,119.0,SE,5.4,3.6,9999.0,RAIN,LIGHT,,Cloudy,595.3857494752573,rain_light.gif
2025-04-15 15:22,13.6,14.4,0.0,32.51,1010.7,95.0,180.1,14.4,1.0,14.4,99.0,E,5.4,5.0,9999.0,DRY,,,Cloudy,587.1100962437256,cloudy.gif
2025-04-15 15:27,13.7,14.5,1.8,32.79,1010.8,95.0,115.1,14.5,1.0,14.5,102.0,E,7.2,5.4,9999.0,RAIN,LIGHT,,Cloudy,578.5734409788206,rain_light.gif
2025-04-15 15:32,13.4,14.4,0.0,32.79,1010.8,94.0,151.3,14.4,1.0,14.4,108.0,E,5.4,5.0,9999.0,RAIN,LIGHT,,Cloudy,569.780161634744,rain_light.gif
2025-04-15 15:37,13.5,14.5,1.19,32.99,1011.01,94.0,145.7,14.5,1.0,14.5,91.0,E,5.4,5.0,9999.0,RAIN,LIGHT,,Cloudy,560.7347825283703,rain_light.gif
2025-04-15 15:42,13.9,14.5,3.0,33.3,1010.9,96.0,100.2,14.5,0.0,14.5,112.0,E,3.6,2.5,9999.0,RAIN,MODERATE,,Cloudy,551.4419743382264,rain_moderate.gif
2025-04-15 15:47,13.9,14.5,0.0,33.5,1011.01,96.0,122.2,14.5,1.0,14.5,88.0,E,3.6,3.2,9999.0,RAIN,LIGHT,,Cloudy,541.9065543170987,rain_light.gif
2025-04-15 15:52,13.9,14.5,0.0,33.81,1011.01,96.0,86.9,14.5,0.0,14.5,73.0,E,3.6,3.2,9999.0,RAIN,LIGHT,,Cloudy,532.1334867039222,rain_light.gif
2025-04-15 15:57,13.6,14.4,4.19,34.01,1011.21,95.0,69.5,14.4,0.0,14.4,67.0,NE,1.8,0.7,9999.0,RAIN,MODERATE,,Cloudy,522.1278834250213,rain_moderate.gif
2025-04-15 16:02,13.6,14.4,3.0,34.29,1011.11,95.0,46.8,14.4,0.0,14.4,92.0,E,1.8,1.8,9999.0,RAIN,MODERATE,,Cloudy,511.8950050940536,rain_moderate.gif
2025-04-15 16:07,13.6,14.4,0.0,34.49,1011.31,95.0,71.7,14.4,0.0,14.4,82.0,E,1.8,1.1,9999.0,RAIN,LIGHT,,Cloudy,501.44026238304156,rain_light.gif
2025-04-15 16:12,13.9,14.5,1.19,34.49,1011.11,96.0,136.1,14.5,1.0,14.5,107.0,E,1.8,0.4,9999.0,RAIN,LIGHT,,Cloudy,490.76921784634146,rain_light.gif
2025-04-15 16:17,13.6,14.7,3.0,34.8,1011.21,93.0,157.2,14.7,1.0,14.7,151.0,SE,11.2,9.7,9999.0,RAIN,MODERATE,,Cloudy,479.8875882370845,rain_moderate.gif
2025-04-15 16:22,13.8,14.8,1.8,34.8,1011.11,94.0,138.1,14.8,1.0,14.8,135.0,SE,7.2,6.5,9999.0,RAIN,LIGHT,,Cloudy,468.8012474566592,rain_light.gif
2025-04-15 16:27,13.5,14.9,0.0,34.8,1011.21,91.0,191.3,14.9,1.0,14.9,168.0,S,11.2,9.4,9999.0,DRY,,,Mostly Cloudy,457.5162301972223,mostly_cloudy.gif
2025-04-15 16:32,13.4,15.0,0.0,34.8,1011.01,90.0,209.3,15.0,2.0,15.0,145.0,SE,14.8,12.6,9999.0,DRY,,,Partly Cloudy,446.0387364576216,partly_cloudy.gif
2025-04-15 16:37,13.7,15.1,0.0,34.8,1011.21,91.0,133.8,15.1,1.0,15.1,151.0,SE,5.4,4.3,9999.0,DRY,,,Cloudy,434.37513703911753,cloudy.gif
2025-04-15 16:42,13.7,15.1,0.0,34.8,1011.11,91.0,181.9,15.1,1.0,15.1,160.0,S,5.4,4.7,9999.0,DRY,,,Mostly Cloudy,422.5319802566142,mostly_cloudy.gif
2025-04-15 16:47,13.5,15.3,0.0,34.8,1011.11,89.0,191.4,15.3,1.0,15.3,137.0,SE,5.4,5.4,9999.0,DRY,,,Partly Cloudy,410.5160000526749,partly_cloudy.gif
2025-04-15 16:52,13.4,15.4,0.0,34.8,1011.11,88.0,142.6,15.4,1.0,15.4,181.0,S,7.2,5.0,9999.0,DRY,,,Mostly Cloudy,398.334125803758,mostly_cloudy.gif
2025-04-15 16:57,13.4,15.5,0.0,34.8,1011.21,87.0,122.0,15.5,1.0,15.5,136.0,SE,11.2,10.4,9999.0,DRY,,,Cloudy,385.9934941676567,cloudy.gif
2025-04-15 17:02,13.6,15.6,0.0,34.8,1011.31,88.0,165.8,15.6,1.0,15.6,167.0,S,5.4,3.6,9999.0,DRY,,,Mostly Cloudy,373.50146334107063,mostly_cloudy.gif
2025-04-15 17:07,13.7,15.7,0.0,34.8,1011.51,88.0,133.2,15.7,1.0,15.7,126.0,SE,5.4,3.6,9999.0,DRY,,,Mostly Cloudy,360.86563027712407,mostly_cloudy.gif
2025-04-15 17:12,13.6,15.7,0.0,34.8,1011.41,87.0,106.8,15.7,1.0,15.7,146.0,SE,11.2,9.4,9999.0,DRY,,,Cloudy,348.0938514328035,cloudy.gif
2025-04-15 17:17,13.6,15.7,0.0,34.8,1011.51,87.0,93.3,15.7,0.0,15.7,161.0,S,9.4,7.9,9999.0,DRY,,,Cloudy,335.1942678671409,cloudy.gif
2025-04-15 17:22,13.6,15.7,0.0,34.8,1011.21,87.0,140.6,15.7,1.0,15.7,151.0,SE,9.4,8.3,9999.0,DRY,,,Mostly Cloudy,322.1753356042267,mostly_cloudy.gif
2025-04-15 17:27,13.4,15.7,0.0,34.8,1011.51,86.0,131.9,15.7,1.0,15.7,157.0,SE,14.8,12.2,9999.0,DRY,,,Mostly Cloudy,309.04586252267404,mostly_cloudy.gif
2025-04-15 17:32,13.4,15.9,0.0,34.8,1011.51,85.0,127.3,15.9,1.0,15.9,136.0,SE,13.0,9.0,9999.0,DRY,,,Mostly Cloudy,295.8150532697031,mostly_cloudy.gif
2025-04-15 17:37,13.8,15.9,0.0,34.8,1011.41,87.0,82.9,15.9,0.0,15.9,151.0,SE,7.2,6.1,9999.0,DRY,,,Cloudy,282.4925641759458,cloudy.gif
2025-04-15 17:42,13.6,15.9,0.0,34.8,1011.62,86.0,104.2,15.9,1.0,15.9,149.0,SE,9.4,8.3,9999.0,DRY,,,Mostly Cloudy,269.0885707061725,mostly_cloudy.gif
2025-04-15 17:47,13.5,16.0,0.0,34.8,1011.72,85.0,103.2,16.0,1.0,16.0,209.0,SW,5.4,4.0,9999.0,DRY,,,Mostly Cloudy,255.6138506684235,mostly_cloudy.gif
2025-04-15 17:52,13.6,15.9,0.0,34.8,1011.51,86.0,130.2,15.9,1.0,15.9,164.0,S,9.4,7.2,9999.0,DRY,,,Partly Cloudy,242.0798874880487,partly_cloudy.gif
2025-04-15 17:57,13.4,15.9,0.0,34.8,1011.62,85.0,60.7,15.9,0.0,15.9,149.0,SE,11.2,7.9,9999.0,DRY,,,Mostly Cloudy,228.49899910097488,mostly_cloudy.gif
2025-04-15 18:02,13.2,15.9,0.0,34.8,1011.79,84.0,64.5,15.9,0.0,15.9,136.0,SE,11.2,8.6,9999.0,DRY,,,Mostly Cloudy,214.88449996071182,mostly_cloudy.gif
2025-04-15 18:07,13.4,15.9,0.0,34.8,1011.72,85.0,60.4,15.9,0.0,15.9,162.0,S,7.2,6.1,9999.0,DRY,,,Mostly Cloudy,201.25090609013824,mostly_cloudy.gif
2025-04-15 18:12,13.3,15.8,0.0,34.8,1011.79,85.0,63.8,15.8,0.0,15.8,170.0,S,11.2,9.4,9999.0,DRY,,,Mostly Cloudy,187.6141967419082,mostly_cloudy.gif
2025-04-15 18:17,13.2,15.9,0.0,34.8,1011.89,84.0,31.5,15.9,0.0,15.9,158.0,S,13.0,10.1,9999.0,DRY,,,Mostly Cloudy,173.99215112006735,mostly_cloudy.gif
2025-04-15 18:22,13.3,15.8,0.0,34.8,1011.89,85.0,31.0,15.8,0.0,15.8,160.0,S,11.2,9.7,9999.0,DRY,,,Mostly Cloudy,160.40478575219439,mostly_cloudy.gif
2025-04-15 18:27,13.3,15.8,0.0,34.8,1011.99,85.0,36.3,15.8,0.0,15.8,139.0,SE,9.4,7.9,9999.0,DRY,,,Mostly Cloudy,146.87492829146206,mostly_cloudy.gif
2025-04-15 18:32,13.1,15.6,0.0,34.8,1011.89,85.0,44.7,15.6,0.0,15.6,171.0,S,9.4,7.2,9999.0,DRY,,,Mostly Cloudy,133.4289782931331,mostly_cloudy.gif
2025-04-15 18:37,13.3,15.8,0.0,34.8,1012.09,85.0,40.9,15.8,0.0,15.8,146.0,SE,11.2,8.3,9999.0,DRY,,,Mostly Cloudy,120.09792736840511,mostly_cloudy.gif
2025-04-15 18:42,13.2,15.7,0.0,34.8,1012.09,85.0,31.5,15.7,0.0,15.7,152.0,SE,13.0,10.8,9999.0,DRY,,,Mostly Cloudy,106.91874328697094,mostly_cloudy.gif
2025-04-15 18:47,13.5,15.6,0.0,34.8,1012.29,87.0,38.3,15.6,0.0,15.6,159.0,S,5.4,4.7,9999.0,DRY,,,Partly Cloudy,94.2090626232063,partly_cloudy.gif
2025-04-15 18:52,13.1,15.6,0.0,34.8,1012.29,85.0,33.6,15.6,0.0,15.6,135.0,SE,9.4,8.3,9999.0,DRY,,,Partly Cloudy,86.1928124649646,partly_cloudy.gif
2025-04-15 18:57,13.3,15.6,0.0,34.8,1012.19,86.0,17.8,15.6,0.0,15.6,121.0,SE,7.2,5.4,9999.0,DRY,,,Mostly Cloudy,78.18192583371282,mostly_cloudy.gif
2025-04-15 19:02,13.3,15.6,0.0,34.8,1012.29,86.0,18.5,15.6,0.0,15.6,129.0,SE,7.2,6.5,9999.0,DRY,,,Mostly Cloudy,70.1837408669215,mostly_cloudy.gif
2025-04-15 19:07,13.2,15.7,0.0,34.8,1012.39,85.0,16.2,15.7,0.0,15.7,149.0,SE,9.4,8.6,9999.0,DRY,,,Mostly Cloudy,62.20671726683235,mostly_cloudy.gif
2025-04-15 19:12,13.3,15.6,0.0,34.8,1012.09,86.0,13.9,15.6,0.0,15.6,121.0,SE,9.4,6.8,9999.0,DRY,,,Mostly Cloudy,54.26083780160567,mostly_cloudy.gif
2025-04-15 19:17,13.0,15.5,0.0,34.8,1012.29,85.0,13.9,15.5,0.0,15.5,122.0,SE,5.4,4.7,9999.0,DRY,,,Mostly Cloudy,46.35583832690435,mostly_cloudy.gif
2025-04-15 19:22,13.0,15.5,0.0,34.8,1012.29,85.0,11.2,15.5,0.0,15.5,139.0,SE,11.2,9.0,9999.0,DRY,,,Mostly Cloudy,38.52843703827793,mostly_cloudy.gif
2025-04-15 19:27,13.0,15.3,0.0,34.8,1012.5,86.0,7.0,15.3,0.0,15.3,133.0,SE,13.0,9.0,9999.0,DRY,,,Mostly Cloudy,30.78950478406372,mostly_cloudy.gif
2025-04-15 19:32,12.9,15.2,0.0,34.8,1012.39,86.0,4.5,15.2,0.0,15.2,132.0,SE,7.2,7.2,9999.0,DRY,,,Mostly Cloudy,23.171308857295116,mostly_cloudy.gif
2025-04-15 19:37,12.9,15.2,0.0,34.8,1012.6,86.0,2.4,15.2,0.0,15.2,119.0,SE,11.2,8.6,9999.0,DRY,,,Mostly Cloudy,15.728519167874225,mostly_cloudy.gif
2025-04-15 19:42,13.1,15.4,0.0,34.8,1012.8,86.0,2.0,15.4,0.0,15.4,133.0,SE,7.2,5.4,9999.0,DRY,,,Mostly Cloudy,8.537305387532827,mostly_cloudy.gif
2025-04-15 19:47,13.0,15.3,0.0,34.8,1012.6,86.0,1.6,15.3,0.0,15.3,137.0,SE,3.6,3.6,9999.0,DRY,,,Sunny,1.6942761013540062,sunny.gif
2025-04-15 19:52,12.9,15.4,0.0,34.8,1012.7,85.0,0.9,15.4,0.0,15.4,139.0,SE,7.2,7.2,9999.0,DRY,,,Twilight,0.0,cloudy.gif
2025-04-15 19:57,12.9,15.4,0.0,34.8,1012.8,85.0,0.3,15.4,0.0,15.4,149.0,SE,11.2,7.9,9999.0,DRY,,,Twilight,0.0,cloudy.gif
2025-04-15 20:02,12.9,15.4,0.0,34.8,1012.9,85.0,0.2,15.4,0.0,15.4,143.0,SE,11.2,10.4,9999.0,DRY,,,Twilight,0.0,cloudy.gif
2025-04-15 20:07,13.4,15.4,0.0,34.8,1013.0,88.0,0.1,15.4,0.0,15.4,177.0,S,1.8,1.8,9999.0,DRY,,,Twilight,0.0,cloudy.gif
2025-04-15 20:12,13.3,14.7,0.0,34.8,1013.11,91.0,0.0,14.7,0.0,14.7,146.0,SE,5.4,3.2,9999.0,DRY,,,Twilight,0.0,cloudy.gif
2025-04-15 20:17,13.1,15.2,0.0,34.8,1013.31,87.0,0.0,15.2,0.0,15.2,135.0,SE,9.4,7.2,9999.0,DRY,,,Twilight,0.0,cloudy.gif
2025-04-15 20:22,13.1,15.1,0.0,34.8,1013.51,88.0,0.0,15.1,0.0,15.1,131.0,SE,3.6,3.6,9999.0,DRY,,,Night,0.0,night.gif
2025-04-15 20:27,13.1,15.1,0.0,34.8,1013.61,88.0,0.0,15.1,0.0,15.1,149.0,SE,7.2,6.1,9999.0,DRY,,,Night,0.0,night.gif
2025-04-15 20:32,13.0,15.3,0.0,34.8,1013.82,86.0,0.0,15.3,0.0,15.3,154.0,SE,11.2,9.7,9999.0,DRY,,,Night,0.0,night.gif
2025-04-15 20:37,13.1,15.2,0.0,34.8,1013.88,87.0,0.0,15.2,0.0,15.2,158.0,S,5.4,4.0,9999.0,DRY,,,Night,0.0,night.gif
2025-04-15 20:42,13.0,15.1,0.0,34.8,1013.82,87.0,0.0,15.1,0.0,15.1,168.0,S,1.8,1.8,9999.0,DRY,,,Night,0.0,night.gif
2025-04-15 20:47,13.2,15.0,0.0,34.8,1014.09,89.0,0.0,15.0,0.0,15.0,231.0,SW,0.0,0.0,9999.0,DRY,,,Night,0.0,night.gif
2025-04-15 20:52,13.0,15.0,0.0,34.8,1013.99,88.0,0.0,15.0,0.0,15.0,172.0,S,3.6,2.2,9999.0,DRY,,,Night,0.0,night.gif
2025-04-15 20:57,12.9,15.0,0.0,34.8,1014.09,87.0,0.0,15.0,0.0,15.0,139.0,SE,7.2,6.1,9999.0,DRY,,,Night,0.0,night.gif
2025-04-15 21:02,12.9,15.4,0.0,34.8,1014.19,85.0,0.0,15.4,0.0,15.4,138.0,SE,7.2,6.1,9999.0,DRY,,,Night,0.0,night.gif
2025-04-15 21:07,13.1,15.4,0.0,34.8,1014.19,86.0,0.0,15.4,0.0,15.4,171.0,S,5.4,4.7,9999.0,DRY,,,Night,0.0,night.gif
2025-04-15 21:12,12.9,15.4,0.0,34.8,1014.29,85.0,0.0,15.4,0.0,15.4,141.0,SE,14.8,10.8,9999.0,DRY,,,Night,0.0,night.gif
2025-04-15 21:17,12.7,15.4,0.0,34.8,1014.39,84.0,0.0,15.4,0.0,15.4,167.0,S,13.0,11.2,9999.0,DRY,,,Night,0.0,night.gif
2025-04-15 21:22,12.9,15.4,0.0,34.8,1014.49,85.0,0.0,15.4,0.0,15.4,147.0,SE,11.2,9.0,9999.0,DRY,,,Night,0.0,night.gif
2025-04-15 21:27,13.1,15.4,0.0,34.8,1014.29,86.0,0.0,15.4,0.0,15.4,167.0,S,5.4,5.0,9999.0,DRY,,,Night,0.0,night.gif
2025-04-15 21:32,12.9,15.4,0.0,34.8,1014.49,85.0,0.0,15.4,0.0,15.4,158.0,S,11.2,8.6,9999.0,DRY,,,Night,0.0,night.gif
2025-04-15 21:37,13.1,15.4,0.0,34.8,1014.6,86.0,0.0,15.4,0.0,15.4,167.0,S,7.2,5.8,9999.0,DRY,,,Night,0.0,night.gif
2025-04-15 21:42,12.9,15.4,0.0,34.8,1014.8,85.0,0.0,15.4,0.0,15.4,165.0,S,11.2,9.7,9999.0,DRY,,,Night,0.0,night.gif
2025-04-15 21:47,13.1,15.4,0.0,34.8,1014.6,86.0,0.0,15.4,0.0,15.4,203.0,SW,1.8,1.8,9999.0,DRY,,,Night,0.0,night.gif
2025-04-15 21:52,12.9,15.4,0.0,34.8,1014.7,85.0,0.0,15.4,0.0,15.4,157.0,SE,3.6,3.6,9999.0,DRY,,,Night,0.0,night.gif
2025-04-15 21:57,12.9,15.4,0.0,34.8,1014.9,85.0,0.0,15.4,0.0,15.4,213.0,SW,3.6,3.2,9999.0,DRY,,,Night,0.0,night.gif
2025-04-15 22:02,13.0,15.3,0.0,34.8,1014.7,86.0,0.0,15.3,0.0,15.3,218.0,SW,1.8,1.8,9999.0,DRY,,,Night,0.0,night.gif
2025-04-15 22:07,12.9,15.2,0.0,34.8,1014.8,86.0,0.0,15.2,0.0,15.2,177.0,S,1.8,1.4,9999.0,DRY,,,Night,0.0,night.gif
2025-04-15 22:12,12.9,15.4,0.0,34.8,1014.8,85.0,0.0,15.4,0.0,15.4,199.0,S,1.8,1.8,9999.0,DRY,,,Night,0.0,night.gif
2025-04-15 22:17,12.8,15.3,0.0,34.8,1014.9,85.0,0.0,15.3,0.0,15.3,192.0,S,7.2,4.7,9999.0,DRY,,,Night,0.0,night.gif
2025-04-15 22:22,13.0,15.5,0.0,34.8,1015.0,85.0,0.0,15.5,0.0,15.5,169.0,S,1.8,1.4,9999.0,DRY,,,Night,0.0,night.gif
2025-04-15 22:27,12.9,15.4,0.0,34.8,1015.0,85.0,0.0,15.4,0.0,15.4,177.0,S,3.6,2.2,9999.0,DRY,,,Night,0.0,night.gif
2025-04-15 22:32,12.9,15.4,0.0,34.8,1015.21,85.0,0.0,15.4,0.0,15.4,193.0,S,11.2,6.1,9999.0,DRY,,,Night,0.0,night.gif
2025-04-15 22:37,12.8,15.3,0.0,34.8,1015.21,85.0,0.0,15.3,0.0,15.3,182.0,S,7.2,6.1,9999.0,DRY,,,Night,0.0,night.gif
2025-04-15 22:42,12.8,15.3,0.0,34.8,1015.21,85.0,0.0,15.3,0.0,15.3,210.0,SW,7.2,6.1,9999.0,DRY,,,Night,0.0,night.gif
2025-04-15 22:47,13.0,15.3,0.0,34.8,1015.31,86.0,0.0,15.3,0.0,15.3,189.0,S,9.4,7.2,9999.0,DRY,,,Night,0.0,night.gif
2025-04-15 22:52,12.9,15.2,0.0,34.8,1015.41,86.0,0.0,15.2,0.0,15.2,180.0,S,3.6,3.6,9999.0,DRY,,,Night,0.0,night.gif
2025-04-15 22:57,13.0,15.1,0.0,34.8,1015.41,87.0,0.0,15.1,0.0,15.1,197.0,S,5.4,4.7,9999.0,DRY,,,Night,0.0,night.gif
2025-04-15 23:02,13.0,15.1,0.0,34.8,1015.31,87.0,0.0,15.1,0.0,15.1,193.0,S,3.6,2.9,9999.0,DRY,,,Night,0.0,night.gif
2025-04-15 23:07,12.9,15.0,0.0,34.8,1015.21,87.0,0.0,15.0,0.0,15.0,212.0,SW,7.2,5.4,9999.0,DRY,,,Night,0.0,night.gif
2025-04-15 23:12,12.7,15.0,0.0,34.8,1015.21,86.0,0.0,15.0,0.0,15.0,215.0,SW,7.2,4.7,9999.0,DRY,,,Night,0.0,night.gif
2025-04-15 23:17,12.6,15.1,0.0,34.8,1015.31,85.0,0.0,15.1,0.0,15.1,216.0,SW,7.2,4.3,9999.0,DRY,,,Night,0.0,night.gif
2025-04-15 23:22,12.9,15.2,0.0,34.8,1015.51,86.0,0.0,15.2,0.0,15.2,179.0,S,9.4,7.6,9999.0,DRY,,,Night,0.0,night.gif
2025-04-15 23:27,12.7,15.2,0.0,34.8,1015.51,85.0,0.0,15.2,0.0,15.2,233.0,SW,5.4,4.7,9999.0,DRY,,,Night,0.0,night.gif
2025-04-15 23:32,12.8,15.1,0.0,34.8,1015.41,86.0,0.0,15.1,0.0,15.1,239.0,SW,20.2,14.4,9999.0,DRY,,,Night,0.0,night.gif
2025-04-15 23:37,12.7,15.0,0.0,34.8,1015.41,86.0,0.0,15.0,0.0,15.0,182.0,S,3.6,2.9,9999.0,DRY,,,Night,0.0,night.gif
2025-04-15 23:42,12.8,14.9,0.0,34.8,1015.41,87.0,0.0,14.9,0.0,14.9,167.0,S,1.8,1.8,9999.0,DRY,,,Night,0.0,night.gif
2025-04-15 23:47,12.6,14.6,0.0,34.8,1015.31,88.0,0.0,14.6,0.0,14.6,175.0,S,1.8,1.8,9999.0,DRY,,,Night,0.0,night.gif
2025-04-15 23:52,12.6,14.4,0.0,34.8,1015.51,89.0,0.0,14.4,0.0,14.4,146.0,SE,9.4,5.8,9999.0,DRY,,,Night,0.0,night.gif
2025-04-15 23:57,12.6,14.4,0.0,34.8,1015.41,89.0,0.0,14.4,0.0,14.4,172.0,S,3.6,2.9,9999.0,DRY,,,Night,0.0,night.gif
2025-04-16 00:02,12.6,14.4,0.0,0.0,1015.51,89.0,0.0,14.4,0.0,14.4,214.0,SW,5.4,4.0,9999.0,DRY,,,Night,0.0,night.gif
2025-04-16 00:07,12.6,14.4,0.0,0.0,1015.71,89.0,0.0,14.4,0.0,14.4,176.0,S,5.4,4.3,9999.0,DRY,,,Night,0.0,night.gif
2025-04-16 00:12,12.6,14.4,0.0,0.0,1015.71,89.0,0.0,14.4,0.0,14.4,225.0,SW,5.4,4.0,9999.0,DRY,,,Night,0.0,night.gif
2025-04-16 00:17,12.5,14.5,0.0,0.0,1015.71,88.0,0.0,14.5,0.0,14.5,197.0,S,3.6,3.6,9999.0,DRY,,,Night,0.0,night.gif
2025-04-16 00:22,12.6,14.7,0.0,0.0,1015.81,87.0,0.0,14.7,0.0,14.7,164.0,S,3.6,2.9,9999.0,DRY,,,Night,0.0,night.gif
2025-04-16 00:27,12.7,14.8,0.0,0.0,1015.81,87.0,0.0,14.8,0.0,14.8,182.0,S,5.4,4.0,9999.0,DRY,,,Night,0.0,night.gif
2025-04-16 00:32,12.6,14.9,0.0,0.0,1015.51,86.0,0.0,14.9,0.0,14.9,200.0,S,3.6,2.2,9999.0,DRY,,,Night,0.0,night.gif
2025-04-16 00:37,12.5,14.8,0.0,0.0,1015.71,86.0,0.0,14.8,0.0,14.8,232.0,SW,5.4,5.4,9999.0,DRY,,,Night,0.0,night.gif
2025-04-16 00:42,12.6,14.9,0.0,0.0,1015.92,86.0,0.0,14.9,0.0,14.9,204.0,SW,5.4,5.0,9999.0,DRY,,,Night,0.0,night.gif
2025-04-16 00:47,12.7,14.8,0.0,0.0,1015.92,87.0,0.0,14.8,0.0,14.8,218.0,SW,1.8,0.4,9999.0,DRY,,,Night,0.0,night.gif
2025-04-16 00:52,12.6,14.7,0.0,0.0,1015.92,87.0,0.0,14.7,0.0,14.7,191.0,S,3.6,2.9,9999.0,DRY,,,Night,0.0,night.gif
2025-04-16 00:57,12.6,14.7,0.0,0.0,1015.81,87.0,0.0,14.7,0.0,14.7,243.0,SW,3.6,1.4,9999.0,DRY,,,Night,0.0,night.gif
2025-04-16 01:02,12.6,14.9,0.0,0.0,1015.98,86.0,0.0,14.9,0.0,14.9,194.0,S,3.6,2.9,9999.0,DRY,,,Night,0.0,night.gif
2025-04-16 01:07,12.6,14.9,0.0,0.0,1015.92,86.0,0.0,14.9,0.0,14.9,214.0,SW,11.2,8.6,9999.0,DRY,,,Night,0.0,night.gif
2025-04-16 01:12,12.7,14.8,0.0,0.0,1015.98,87.0,0.0,14.8,0.0,14.8,214.0,SW,9.4,6.1,9999.0,DRY,,,Night,0.0,night.gif
2025-04-16 01:17,12.6,14.9,0.0,0.0,1015.98,86.0,0.0,14.9,0.0,14.9,197.0,S,5.4,4.3,9999.0,DRY,,,Night,0.0,night.gif
2025-04-16 01:22,12.4,14.9,0.0,0.0,1015.98,85.0,0.0,14.9,0.0,14.9,239.0,SW,11.2,7.9,9999.0,DRY,,,Night,0.0,night.gif
2025-04-16 01:27,12.6,14.9,0.0,0.0,1015.92,86.0,0.0,14.9,0.0,14.9,199.0,S,11.2,6.1,9999.0,DRY,,,Night,0.0,night.gif
2025-04-16 01:32,12.7,14.8,0.0,0.0,1015.92,87.0,0.0,14.8,0.0,14.8,208.0,SW,9.4,6.1,9999.0,DRY,,,Night,0.0,night.gif
2025-04-16 01:37,12.4,14.7,0.0,0.0,1015.92,86.0,0.0,14.7,0.0,14.7,150.0,SE,7.2,4.7,9999.0,DRY,,,Night,0.0,night.gif
2025-04-16 01:42,12.4,14.7,0.0,0.0,1015.92,86.0,0.0,14.7,0.0,14.7,220.0,SW,5.4,2.9,9999.0,DRY,,,Night,0.0,night.gif
2025-04-16 01:47,12.5,14.8,0.0,0.0,1015.92,86.0,0.0,14.8,0.0,14.8,249.0,W,3.6,2.2,9999.0,DRY,,,Night,0.0,night.gif
2025-04-16 01:52,12.5,14.6,0.0,0.0,1015.98,87.0,0.0,14.6,0.0,14.6,271.0,W,3.6,1.8,9999.0,DRY,,,Night,0.0,night.gif
2025-04-16 01:57,12.4,14.5,0.0,0.0,1016.09,87.0,0.0,14.5,0.0,14.5,231.0,SW,3.6,2.2,9999.0,DRY,,,Night,0.0,night.gif
2025-04-16 02:02,12.4,14.5,0.0,0.0,1016.09,87.0,0.0,14.5,0.0,14.5,211.0,SW,1.8,1.4,9999.0,DRY,,,Night,0.0,night.gif
2025-04-16 02:07,12.4,14.7,0.0,0.0,1015.98,86.0,0.0,14.7,0.0,14.7,159.0,S,3.6,2.5,9999.0,DRY,,,Night,0.0,night.gif
2025-04-16 02:12,12.4,14.7,0.0,0.0,1016.09,86.0,0.0,14.7,0.0,14.7,200.0,S,7.2,4.7,9999.0,DRY,,,Night,0.0,night.gif
2025-04-16 02:17,12.4,14.7,0.0,0.0,1016.19,86.0,0.0,14.7,0.0,14.7,193.0,S,3.6,3.6,9999.0,DRY,,,Night,0.0,night.gif
2025-04-16 02:22,12.2,14.7,0.0,0.0,1016.09,85.0,0.0,14.7,0.0,14.7,211.0,SW,3.6,3.6,9999.0,DRY,,,Night,0.0,night.gif
2025-04-16 02:27,12.3,14.6,0.0,0.0,1016.09,86.0,0.0,14.6,0.0,14.6,155.0,SE,1.8,1.8,9999.0,DRY,,,Night,0.0,night.gif
2025-04-16 02:32,12.3,14.6,0.0,0.0,1016.19,86.0,0.0,14.6,0.0,14.6,240.0,SW,11.2,8.3,9999.0,DRY,,,Night,0.0,night.gif
2025-04-16 02:37,12.3,14.6,0.0,0.0,1016.19,86.0,0.0,14.6,0.0,14.6,73.0,E,0.0,0.0,9999.0,DRY,,,Night,0.0,night.gif
2025-04-16 02:42,12.0,14.5,0.0,0.0,1016.09,85.0,0.0,14.5,0.0,14.5,193.0,S,1.8,1.8,9999.0,DRY,,,Night,0.0,night.gif
