timestamp,imedvode1_dewpoint,imedvode1_heat_index,imedvode1_precipitation_rate,imedvode1_precipitation_today,imedvode1_pressure,imedvode1_relative_humidity,imedvode1_solar_radiation,imedvode1_temperature,imedvode1_uv_index,imedvode1_wind_chill,imedvode1_wind_direction_degrees,windCardinals,imedvode1_wind_gust,imedvode1_wind_speed,condition1,condition2,visibility,condition3,sky,max_solar_radiation,image_name
2025-06-16 15:42,16.8,24.4,0.0,0.0,1019.4,60.0,105.1,24.3,0.0,24.3,88.0,E,9.4,6.8,DRY,,9999.0,,Cloudy,677.0355306949633,cloudy.gif
2025-06-16 15:47,16.3,24.6,0.0,0.0,1019.51,60.0,111.8,24.5,0.0,24.5,84.0,E,9.4,6.1,DRY,,9999.0,,Cloudy,668.1447853639727,cloudy.gif
2025-06-16 15:52,16.6,24.7,0.0,0.0,1019.3,61.0,117.9,24.6,0.0,24.6,108.0,E,9.4,7.9,DRY,,9999.0,,Cloudy,659.0294947691624,cloudy.gif
2025-06-16 15:57,16.4,24.8,0.0,0.0,1019.3,60.0,127.2,24.7,0.0,24.7,90.0,E,13.0,9.0,DRY,,9999.0,,Cloudy,649.6942087568412,cloudy.gif
2025-06-16 16:02,16.2,24.8,0.0,0.0,1019.61,59.0,102.5,24.7,0.0,24.7,102.0,E,11.2,9.4,DRY,,9999.0,,Cloudy,640.1435962014452,cloudy.gif
2025-06-16 16:07,16.1,24.7,0.0,0.0,1019.51,59.0,102.0,24.6,0.0,24.6,138.0,SE,5.4,5.4,DRY,,9999.0,,Cloudy,630.3824438780263,cloudy.gif
2025-06-16 16:12,19.2,25.2,0.0,0.0,1019.51,71.0,122.7,24.8,1.0,24.8,259.0,W,7.2,4.7,DRY,,9999.0,,Cloudy,620.4156553928275,cloudy.gif
2025-06-16 16:17,18.3,23.2,0.0,0.0,1019.4,75.0,133.9,22.9,1.0,22.9,243.0,SW,5.4,4.0,DRY,,9999.0,,Cloudy,610.2482501777416,cloudy.gif
2025-06-16 16:22,17.8,23.1,0.0,0.0,1019.4,73.0,152.5,22.9,1.0,22.9,240.0,SW,5.4,4.0,DRY,,9999.0,,Cloudy,599.8853625738267,cloudy.gif
2025-06-16 16:27,18.1,23.5,0.0,0.0,1019.51,73.0,154.7,23.2,1.0,23.2,220.0,SW,1.8,1.4,DRY,,9999.0,,Cloudy,589.3322410111139,cloudy.gif
2025-06-16 16:32,18.0,23.5,0.0,0.0,1019.61,72.0,172.9,23.3,1.0,23.3,247.0,SW,3.6,3.6,DRY,,9999.0,,Cloudy,578.594247314995,cloudy.gif
2025-06-16 16:37,19.0,23.9,0.0,0.0,1019.4,76.0,177.9,23.5,1.0,23.5,314.0,NW,1.8,1.8,DRY,,9999.0,,Cloudy,567.676856151355,cloudy.gif
2025-06-16 16:42,18.9,24.1,0.0,0.0,1019.3,74.0,138.7,23.8,1.0,23.8,306.0,NW,3.6,2.2,DRY,,9999.0,,Cloudy,556.5856546467123,cloudy.gif
2025-06-16 16:47,19.1,24.2,0.0,0.0,1019.2,75.0,108.9,23.8,1.0,23.8,319.0,NW,1.8,1.8,DRY,,9999.0,,Cloudy,545.3263422048585,cloudy.gif
2025-06-16 16:52,19.5,23.7,0.0,0.0,1019.3,79.0,131.1,23.3,1.0,23.3,241.0,SW,7.2,6.1,DRY,,9999.0,,Cloudy,533.9047305575057,cloudy.gif
2025-06-16 16:57,18.8,23.0,0.0,0.0,1019.61,79.0,149.8,22.6,1.0,22.6,217.0,SW,3.6,3.6,DRY,,9999.0,,Cloudy,522.3267440922666,cloudy.gif
2025-06-16 17:02,18.8,23.0,0.0,0.0,1019.4,79.0,159.5,22.6,1.0,22.6,233.0,SW,3.6,3.6,DRY,,9999.0,,Cloudy,510.5984204949067,cloudy.gif
2025-06-16 17:07,18.7,22.9,0.0,0.0,1019.51,79.0,141.2,22.5,1.0,22.5,270.0,W,3.6,2.9,DRY,,9999.0,,Cloudy,498.7259117703467,cloudy.gif
2025-06-16 17:12,18.4,23.1,0.0,0.0,1019.3,77.0,84.7,22.7,0.0,22.7,234.0,SW,3.6,3.2,DRY,,9999.0,,Cloudy,486.71548569294924,cloudy.gif
2025-06-16 17:17,18.7,23.1,0.0,0.0,1019.3,78.0,90.4,22.7,0.0,22.7,236.0,SW,9.4,7.9,DRY,,9999.0,,Cloudy,474.5735277705979,cloudy.gif
2025-06-16 17:22,18.4,23.3,0.0,0.0,1019.71,75.0,84.4,23.0,0.0,23.0,242.0,SW,5.4,4.7,DRY,,9999.0,,Cloudy,462.3065437960817,cloudy.gif
2025-06-16 17:27,19.2,23.2,0.0,0.0,1019.71,80.0,55.9,22.8,0.0,22.8,245.0,SW,3.6,2.2,DRY,,9999.0,,Cloudy,449.9211630979495,cloudy.gif
2025-06-16 17:32,18.9,23.1,0.0,0.0,1019.61,79.0,40.3,22.7,0.0,22.7,239.0,SW,7.2,6.1,DRY,,9999.0,,Cloudy,437.42414260042636,cloudy.gif
2025-06-16 17:37,18.9,22.9,0.0,0.0,1019.81,80.0,26.7,22.5,0.0,22.5,245.0,SW,3.6,2.9,DRY,,9999.0,,Cloudy,424.8223718372283,cloudy.gif
2025-06-16 17:42,18.6,22.7,0.0,0.0,1019.81,79.0,25.5,22.4,0.0,22.4,306.0,NW,5.4,4.7,DRY,,9999.0,,Cloudy,412.1228790914899,cloudy.gif
2025-06-16 17:47,18.5,22.8,0.0,0.0,1019.91,78.0,16.9,22.5,0.0,22.5,298.0,NW,3.6,2.9,DRY,,9999.0,,Cloudy,399.3328388533004,cloudy.gif
2025-06-16 17:52,17.9,23.0,0.0,0.0,1019.91,74.0,17.1,22.7,0.0,22.7,323.0,NW,3.6,3.2,DRY,,9999.0,,Cloudy,386.4595808487887,cloudy.gif
2025-06-16 17:57,17.1,22.8,0.0,0.0,1019.81,71.0,26.8,22.6,0.0,22.6,5.0,N,5.4,4.3,DRY,,9999.0,,Cloudy,373.51060091994475,cloudy.gif
2025-06-16 18:02,18.4,23.1,0.0,0.0,1019.81,77.0,55.8,22.7,0.0,22.7,349.0,N,3.6,2.2,DRY,,9999.0,,Cloudy,360.49357412151096,cloudy.gif
2025-06-16 18:07,18.2,22.3,7.8,1.8,1019.61,79.0,85.8,22.0,0.0,22.0,47.0,NE,3.6,2.9,RAIN,HEAVY,9999.0,,Cloudy,347.4163704528812,rain_heavy.gif
2025-06-16 18:12,17.8,22.3,8.99,2.01,1019.51,77.0,83.6,22.0,0.0,22.0,49.0,NE,5.4,4.0,RAIN,HEAVY,9999.0,,Cloudy,334.2870737645008,rain_heavy.gif
2025-06-16 18:17,17.4,22.0,1.19,2.01,1019.51,76.0,74.2,21.8,0.0,21.8,55.0,NE,3.6,2.5,RAIN,LIGHT,9999.0,,Cloudy,321.1140044769665,rain_light.gif
2025-06-16 18:22,17.2,22.2,0.0,2.01,1019.51,74.0,69.9,22.0,0.0,22.0,71.0,E,3.6,2.2,DRY,,9999.0,,Cloudy,307.905746918339,cloudy.gif
2025-06-16 18:27,17.0,22.3,0.0,2.01,1019.61,73.0,55.4,22.1,0.0,22.1,66.0,NE,5.4,4.3,DRY,,9999.0,,Cloudy,294.6711822804553,cloudy.gif
2025-06-16 18:32,16.1,22.1,0.0,2.01,1019.61,69.0,65.7,22.0,0.0,22.0,85.0,E,5.4,4.7,DRY,,9999.0,,Cloudy,281.41952843008875,cloudy.gif
2025-06-16 18:37,17.4,22.4,0.0,2.01,1019.3,74.0,51.3,22.2,0.0,22.2,72.0,E,3.6,3.6,DRY,,9999.0,,Cloudy,268.16038815543004,cloudy.gif
2025-06-16 18:42,17.6,22.5,0.0,2.01,1019.51,75.0,41.7,22.2,0.0,22.2,90.0,E,1.8,0.4,DRY,,9999.0,,Cloudy,254.90380781930315,cloudy.gif
2025-06-16 18:47,16.8,22.4,0.0,2.01,1019.4,71.0,66.7,22.3,0.0,22.3,101.0,E,5.4,5.4,DRY,,9999.0,,Mostly Cloudy,241.66034896097457,mostly_cloudy.gif
2025-06-16 18:52,16.9,22.5,0.0,2.01,1019.51,71.0,74.9,22.4,0.0,22.4,99.0,E,3.6,2.5,DRY,,9999.0,,Mostly Cloudy,228.44117607741492,mostly_cloudy.gif
2025-06-16 18:57,19.0,22.8,0.0,2.01,1019.81,81.0,61.6,22.4,0.0,22.4,245.0,SW,1.8,1.4,DRY,,9999.0,,Mostly Cloudy,215.25816478831865,mostly_cloudy.gif
2025-06-16 19:02,17.4,22.0,0.0,2.01,1019.71,76.0,53.0,21.8,0.0,21.8,291.0,W,1.8,0.4,DRY,,9999.0,,Mostly Cloudy,202.1240358298106,mostly_cloudy.gif
2025-06-16 19:07,15.7,22.1,0.0,2.01,1019.71,67.0,72.2,22.1,0.0,22.1,329.0,NW,1.8,0.4,DRY,,9999.0,,Partly Cloudy,189.0525220357051,partly_cloudy.gif
2025-06-16 19:12,17.5,23.0,0.0,2.01,1019.71,72.0,76.0,22.8,0.0,22.8,34.0,NE,0.0,0.0,DRY,,9999.0,,Partly Cloudy,176.0585777675476,partly_cloudy.gif
2025-06-16 19:17,16.7,23.3,0.0,2.01,1019.61,67.0,66.2,23.2,0.0,23.2,107.0,E,5.4,3.6,DRY,,9999.0,,Partly Cloudy,163.1586433834066,partly_cloudy.gif
2025-06-16 19:22,17.2,23.1,0.0,2.01,1019.61,70.0,58.0,22.9,0.0,22.9,123.0,SE,7.2,5.0,DRY,,9999.0,,Partly Cloudy,150.37098168226754,partly_cloudy.gif
2025-06-16 19:27,16.6,22.7,0.0,2.01,1019.71,69.0,46.0,22.6,0.0,22.6,102.0,E,3.6,2.9,DRY,,9999.0,,Mostly Cloudy,137.71610922287095,mostly_cloudy.gif
2025-06-16 19:32,15.7,22.4,0.0,2.01,1019.81,66.0,43.6,22.4,0.0,22.4,111.0,E,7.2,6.1,DRY,,9999.0,,Mostly Cloudy,125.21735378517748,mostly_cloudy.gif
2025-06-16 19:37,16.0,22.4,0.0,2.01,1019.91,67.0,40.4,22.4,0.0,22.4,95.0,E,11.2,8.3,DRY,,9999.0,,Partly Cloudy,112.90158089030976,partly_cloudy.gif
2025-06-16 19:42,15.7,22.1,0.0,2.01,1019.91,67.0,36.9,22.1,0.0,22.1,107.0,E,9.4,8.6,DRY,,9999.0,,Partly Cloudy,100.80014868127581,partly_cloudy.gif
2025-06-16 19:47,15.9,22.2,0.0,2.01,1019.71,68.0,37.7,22.1,0.0,22.1,95.0,E,5.4,5.4,DRY,,9999.0,,Partly Cloudy,91.09018915235171,partly_cloudy.gif
2025-06-16 19:52,16.3,22.1,0.0,2.01,1019.91,70.0,34.6,22.0,0.0,22.0,83.0,E,5.4,4.0,DRY,,9999.0,,Partly Cloudy,83.75680112266964,partly_cloudy.gif
2025-06-16 19:57,16.2,21.8,0.0,2.01,1019.91,71.0,32.7,21.7,0.0,21.7,111.0,E,5.4,5.0,DRY,,9999.0,,Partly Cloudy,76.46964048123638,partly_cloudy.gif
2025-06-16 20:02,16.1,21.8,0.0,2.01,1019.91,70.0,28.8,21.8,0.0,21.8,98.0,E,7.2,6.1,DRY,,9999.0,,Partly Cloudy,69.23479888535611,partly_cloudy.gif
2025-06-16 20:07,16.3,21.7,0.0,2.01,1020.01,72.0,25.3,21.6,0.0,21.6,112.0,E,7.2,5.0,DRY,,9999.0,,Partly Cloudy,62.059043555218906,partly_cloudy.gif
2025-06-16 20:12,16.0,21.8,0.0,2.01,1020.29,70.0,21.1,21.7,0.0,21.7,144.0,SE,9.4,7.9,DRY,,9999.0,,Partly Cloudy,54.95001950750668,partly_cloudy.gif
2025-06-16 20:17,16.2,21.8,0.0,2.01,1020.29,71.0,17.2,21.7,0.0,21.7,131.0,SE,7.2,6.1,DRY,,9999.0,,Partly Cloudy,47.91267258387527,partly_cloudy.gif
2025-06-16 20:22,15.9,21.8,0.0,2.01,1020.49,69.0,13.9,21.8,0.0,21.8,133.0,SE,14.8,13.3,DRY,,9999.0,,Mostly Cloudy,40.97691514004806,mostly_cloudy.gif
2025-06-16 20:27,16.0,21.6,0.0,2.01,1020.39,71.0,10.3,21.5,0.0,21.5,133.0,SE,9.4,7.6,DRY,,9999.0,,Mostly Cloudy,34.14848560249974,mostly_cloudy.gif
2025-06-16 20:32,16.0,21.6,0.0,2.01,1020.59,71.0,7.5,21.5,0.0,21.5,164.0,S,11.2,7.9,DRY,,9999.0,,Mostly Cloudy,27.442980886285767,mostly_cloudy.gif
2025-06-16 20:37,15.6,21.5,0.0,2.01,1020.39,69.0,5.7,21.5,0.0,21.5,139.0,SE,13.0,10.4,DRY,,9999.0,,Mostly Cloudy,20.888528804634127,mostly_cloudy.gif
2025-06-16 20:42,15.7,21.4,0.0,2.01,1020.79,70.0,3.9,21.4,0.0,21.4,143.0,SE,7.2,6.5,DRY,,9999.0,,Mostly Cloudy,14.524494826441238,mostly_cloudy.gif
2025-06-16 20:47,15.7,21.6,0.0,2.01,1020.79,69.0,2.3,21.6,0.0,21.6,142.0,SE,9.4,7.9,DRY,,9999.0,,Mostly Cloudy,8.400141032958029,mostly_cloudy.gif
2025-06-16 20:52,15.6,21.5,0.0,2.01,1020.89,69.0,1.6,21.5,0.0,21.5,149.0,SE,7.2,7.2,DRY,,9999.0,,Mostly Sunny,2.573251398612587,mostly_sunny.gif
2025-06-16 20:57,15.3,21.4,0.0,2.01,1020.69,68.0,1.3,21.4,0.0,21.4,129.0,SE,9.4,7.6,DRY,,9999.0,,Twilight,0.0,cloudy.gif
2025-06-16 21:02,15.4,21.3,0.0,2.01,1020.89,69.0,0.8,21.3,0.0,21.3,136.0,SE,7.2,5.4,DRY,,9999.0,,Twilight,0.0,cloudy.gif
2025-06-16 21:07,15.3,21.2,0.0,2.01,1021.1,69.0,0.5,21.2,0.0,21.2,137.0,SE,9.4,7.2,DRY,,9999.0,,Twilight,0.0,cloudy.gif
2025-06-16 21:12,15.6,21.0,0.0,2.01,1020.89,71.0,0.3,21.0,0.0,21.0,116.0,SE,3.6,3.2,DRY,,9999.0,,Twilight,0.0,cloudy.gif
2025-06-16 21:17,15.5,20.9,0.0,2.01,1021.0,71.0,0.1,20.9,0.0,20.9,23.0,NE,5.4,3.6,DRY,,9999.0,,Twilight,0.0,cloudy.gif
2025-06-16 21:22,15.2,20.9,0.0,2.01,1020.89,70.0,0.1,20.9,0.0,20.9,3.0,N,1.8,1.8,DRY,,9999.0,,Twilight,0.0,cloudy.gif
2025-06-16 21:27,15.0,20.9,0.0,2.01,1021.0,69.0,0.0,20.9,0.0,20.9,116.0,SE,1.8,0.4,DRY,,9999.0,,Twilight,0.0,cloudy.gif
2025-06-16 21:32,16.4,20.6,0.0,2.01,1020.79,77.0,0.0,20.6,0.0,20.6,314.0,NW,3.6,3.6,DRY,,9999.0,,Twilight,0.0,cloudy.gif
2025-06-16 21:37,16.2,19.7,0.0,2.01,1020.89,80.0,0.0,19.7,0.0,19.7,78.0,E,3.6,2.2,DRY,,9999.0,,Night,0.0,night.gif
2025-06-16 21:42,15.3,19.5,0.0,2.01,1021.0,77.0,0.0,19.5,0.0,19.5,70.0,E,3.6,2.2,DRY,,9999.0,,Night,0.0,night.gif
2025-06-16 21:47,15.2,20.2,0.0,2.01,1021.2,73.0,0.0,20.2,0.0,20.2,81.0,E,5.4,4.7,DRY,,9999.0,,Night,0.0,night.gif
2025-06-16 21:52,15.3,20.3,0.0,2.01,1021.2,73.0,0.0,20.3,0.0,20.3,129.0,SE,3.6,2.5,DRY,,9999.0,,Night,0.0,night.gif
2025-06-16 21:57,15.4,20.2,0.0,2.01,1021.3,74.0,0.0,20.2,0.0,20.2,107.0,E,3.6,2.9,DRY,,9999.0,,Night,0.0,night.gif
2025-06-16 22:02,15.1,20.3,0.0,2.01,1021.4,72.0,0.0,20.3,0.0,20.3,110.0,E,7.2,6.5,DRY,,9999.0,,Night,0.0,night.gif
2025-06-16 22:07,15.2,20.6,0.0,2.01,1021.4,71.0,0.0,20.6,0.0,20.6,123.0,SE,11.2,9.4,DRY,,9999.0,,Night,0.0,night.gif
2025-06-16 22:12,15.4,20.6,0.0,2.01,1021.5,72.0,0.0,20.6,0.0,20.6,138.0,SE,9.4,6.8,DRY,,9999.0,,Night,0.0,night.gif
2025-06-16 22:17,15.2,20.6,0.0,2.01,1021.4,71.0,0.0,20.6,0.0,20.6,115.0,SE,11.2,9.7,DRY,,9999.0,,Night,0.0,night.gif
2025-06-16 22:22,15.5,20.5,0.0,2.01,1021.3,73.0,0.0,20.5,0.0,20.5,86.0,E,1.8,1.8,DRY,,9999.0,,Night,0.0,night.gif
2025-06-16 22:27,15.1,20.3,0.0,2.01,1021.5,72.0,0.0,20.3,0.0,20.3,119.0,SE,9.4,7.6,DRY,,9999.0,,Night,0.0,night.gif
2025-06-16 22:32,15.4,20.4,0.0,2.01,1021.4,73.0,0.0,20.4,0.0,20.4,136.0,SE,7.2,5.0,DRY,,9999.0,,Night,0.0,night.gif
2025-06-16 22:37,15.3,20.3,0.0,2.01,1021.4,73.0,0.0,20.3,0.0,20.3,116.0,SE,5.4,5.4,DRY,,9999.0,,Night,0.0,night.gif
2025-06-16 22:42,15.4,20.2,0.0,2.01,1021.3,74.0,0.0,20.2,0.0,20.2,81.0,E,1.8,0.4,DRY,,9999.0,,Night,0.0,night.gif
2025-06-17 01:40,14.8,18.7,0.0,0.0,1022.22,78.0,0.0,18.7,0.0,18.7,139.0,SE,13.0,8.6,DRY,,9999.0,,Night,0.0,night.gif
2025-06-17 02:10,14.5,18.0,0.0,0.0,1022.32,80.0,0.0,18.0,0.0,18.0,127.0,SE,5.4,4.7,DRY,,9999.0,,Night,0.0,night.gif
2025-06-17 02:51,14.0,17.7,0.0,0.0,1022.38,79.0,0.0,17.7,0.0,17.7,133.0,SE,3.6,2.9,DRY,,9999.0,,Night,0.0,night.gif
2025-06-17 06:40,12.1,17.2,0.0,0.0,1023.2,72.0,89.2,17.2,0.0,17.2,163.0,S,5.4,4.0,DRY,,9999.0,,Mostly Sunny,138.73221621705534,mostly_sunny.gif
2025-06-17 06:45,12.3,17.4,0.0,0.0,1023.1,72.0,92.7,17.4,0.0,17.4,118.0,SE,5.4,4.7,DRY,,9999.0,,Mostly Sunny,151.3992309609655,mostly_sunny.gif
2025-06-17 06:50,12.3,17.4,0.0,0.0,1023.3,72.0,99.0,17.4,0.0,17.4,114.0,SE,7.2,5.8,DRY,,9999.0,,Mostly Sunny,164.19732273891003,mostly_sunny.gif
2025-06-17 06:55,12.3,17.4,0.0,0.0,1023.2,72.0,97.1,17.4,0.0,17.4,123.0,SE,7.2,5.8,DRY,,9999.0,,Partly Cloudy,177.10617510372245,partly_cloudy.gif
2025-06-17 07:00,12.4,17.5,0.0,0.0,1023.2,72.0,99.7,17.5,0.0,17.5,116.0,SE,3.6,2.9,DRY,,9999.0,,Partly Cloudy,190.10768661953506,partly_cloudy.gif
2025-06-17 07:05,12.4,17.5,0.0,0.0,1023.5,72.0,96.5,17.5,0.0,17.5,140.0,SE,5.4,4.0,DRY,,9999.0,,Partly Cloudy,203.1855481691055,partly_cloudy.gif
2025-06-17 07:10,12.3,17.4,0.0,0.0,1023.3,72.0,98.6,17.4,0.0,17.4,146.0,SE,3.6,2.5,DRY,,9999.0,,Partly Cloudy,216.32491303312287,partly_cloudy.gif
2025-06-17 07:15,12.3,17.6,0.0,0.0,1023.3,71.0,106.3,17.6,1.0,17.6,120.0,SE,7.2,7.2,DRY,,9999.0,,Partly Cloudy,229.51213738924181,partly_cloudy.gif
2025-06-17 07:20,12.2,17.5,0.0,0.0,1023.4,71.0,110.2,17.5,1.0,17.5,117.0,SE,5.4,5.0,DRY,,9999.0,,Partly Cloudy,242.7345747031361,partly_cloudy.gif
2025-06-17 07:25,12.2,17.5,0.0,0.0,1023.5,71.0,116.8,17.5,1.0,17.5,126.0,SE,5.4,5.0,DRY,,9999.0,,Partly Cloudy,255.98041170449855,partly_cloudy.gif
2025-06-17 07:30,12.4,17.5,0.0,0.0,1023.4,72.0,121.6,17.5,1.0,17.5,137.0,SE,3.6,3.6,DRY,,9999.0,,Partly Cloudy,269.2385367015001,partly_cloudy.gif
2025-06-17 07:35,12.3,17.6,0.0,0.0,1023.2,71.0,131.9,17.6,1.0,17.6,108.0,E,5.4,4.3,DRY,,9999.0,,Partly Cloudy,282.498433233426,partly_cloudy.gif
2025-06-17 07:40,12.2,17.7,0.0,0.0,1023.3,70.0,146.7,17.7,1.0,17.7,104.0,E,5.4,4.0,DRY,,9999.0,,Partly Cloudy,295.7500937250593,partly_cloudy.gif
2025-06-17 07:45,12.0,18.0,0.0,0.0,1023.5,68.0,173.6,18.0,1.0,18.0,107.0,E,9.4,7.9,DRY,,9999.0,,Partly Cloudy,308.9839490334637,partly_cloudy.gif
2025-06-17 07:50,12.1,18.1,0.0,0.0,1023.4,68.0,239.4,18.1,2.0,18.1,105.0,E,7.2,6.1,DRY,,9999.0,,Mostly Sunny,322.19081071242584,mostly_sunny.gif
2025-06-17 07:55,12.1,18.8,0.0,0.0,1023.5,65.0,263.3,18.8,2.0,18.8,147.0,SE,9.4,7.2,DRY,,9999.0,,Mostly Sunny,335.3618235107274,mostly_sunny.gif
2025-06-17 08:00,12.4,18.9,0.0,0.0,1023.6,66.0,236.7,18.9,2.0,18.9,159.0,S,7.2,5.8,DRY,,9999.0,,Mostly Sunny,348.4884261617023,mostly_sunny.gif
2025-06-17 08:05,12.0,18.7,0.0,0.0,1023.4,65.0,209.1,18.7,2.0,18.7,135.0,SE,13.0,9.4,DRY,,9999.0,,Partly Cloudy,361.56231892104654,partly_cloudy.gif
2025-06-17 08:10,12.0,18.5,0.0,0.0,1023.5,66.0,242.4,18.5,2.0,18.5,118.0,SE,13.0,10.1,DRY,,9999.0,,Partly Cloudy,374.57543663253637,partly_cloudy.gif
2025-06-17 08:15,11.9,18.6,0.0,0.0,1023.3,65.0,199.2,18.6,1.0,18.6,144.0,SE,11.2,9.0,DRY,,9999.0,,Partly Cloudy,387.5199263411706,partly_cloudy.gif
2025-06-17 08:20,11.8,18.5,0.0,0.0,1023.4,65.0,207.1,18.5,2.0,18.5,144.0,SE,14.8,12.2,DRY,,9999.0,,Partly Cloudy,400.3881286644506,partly_cloudy.gif
2025-06-17 08:25,12.2,18.7,0.0,0.0,1023.6,66.0,204.7,18.7,1.0,18.7,156.0,SE,11.2,10.4,DRY,,9999.0,,Partly Cloudy,413.1725622878387,partly_cloudy.gif
2025-06-17 08:30,11.8,18.5,0.0,0.0,1023.4,65.0,234.0,18.5,2.0,18.5,145.0,SE,13.0,11.9,DRY,,9999.0,,Partly Cloudy,425.8659110615782,partly_cloudy.gif
2025-06-17 08:35,12.2,18.7,0.0,0.0,1023.1,66.0,274.7,18.7,2.0,18.7,163.0,S,9.4,7.9,DRY,,9999.0,,Partly Cloudy,438.4610132794475,partly_cloudy.gif
2025-06-17 08:40,12.4,19.1,0.0,0.0,1023.3,65.0,317.5,19.1,3.0,19.1,144.0,SE,13.0,9.4,DRY,,9999.0,,Mostly Sunny,450.9508527868429,mostly_sunny.gif
2025-06-17 08:45,12.1,19.1,0.0,0.0,1023.1,64.0,337.7,19.1,3.0,19.1,93.0,E,7.2,5.8,DRY,,9999.0,,Mostly Sunny,463.32855163520526,mostly_sunny.gif
2025-06-17 08:50,12.2,19.2,0.0,0.0,1023.5,64.0,304.4,19.2,2.0,19.2,119.0,SE,14.8,13.0,DRY,,9999.0,,Partly Cloudy,475.58736404034954,partly_cloudy.gif
2025-06-17 08:55,12.6,19.3,0.0,0.0,1023.3,65.0,338.8,19.3,3.0,19.3,150.0,SE,9.4,7.6,DRY,,9999.0,,Mostly Sunny,487.7206714496946,mostly_sunny.gif
2025-06-17 09:00,12.6,19.3,0.0,0.0,1023.5,65.0,348.2,19.3,3.0,19.3,123.0,SE,9.4,9.4,DRY,,9999.0,,Mostly Sunny,499.72197855120953,mostly_sunny.gif
2025-06-17 09:05,12.4,18.9,0.0,0.0,1023.5,66.0,425.4,18.9,4.0,18.9,147.0,SE,9.4,7.9,DRY,,9999.0,,Mostly Sunny,511.5849100835222,mostly_sunny.gif
2025-06-17 09:10,12.6,19.3,0.0,0.0,1023.5,65.0,375.3,19.3,3.0,19.3,181.0,S,11.2,8.6,DRY,,9999.0,,Mostly Sunny,523.3032083331378,mostly_sunny.gif
2025-06-17 09:15,12.4,19.4,0.0,0.0,1023.4,64.0,266.3,19.4,2.0,19.4,111.0,E,14.8,13.3,DRY,,9999.0,,Partly Cloudy,534.8707312154708,partly_cloudy.gif
2025-06-17 09:20,12.5,19.5,0.0,0.0,1023.6,64.0,460.7,19.5,4.0,19.5,133.0,SE,13.0,9.7,DRY,,9999.0,,Mostly Sunny,546.2814508595142,mostly_sunny.gif
2025-06-17 09:25,12.5,19.7,0.0,0.0,1023.4,63.0,479.0,19.7,4.0,19.7,127.0,SE,14.8,11.2,DRY,,9999.0,,Sunny,557.5294526202835,sunny.gif
2025-06-17 09:30,12.2,19.7,0.0,0.0,1023.5,62.0,471.1,19.7,4.0,19.7,102.0,E,13.0,9.7,DRY,,9999.0,,Mostly Sunny,568.6089344616139,mostly_sunny.gif
2025-06-17 09:35,12.6,20.1,0.0,0.0,1023.4,62.0,496.3,20.1,4.0,20.1,115.0,SE,11.2,10.4,DRY,,9999.0,,Sunny,579.5142066528192,sunny.gif
2025-06-17 09:40,12.7,20.2,0.0,0.0,1023.3,62.0,523.5,20.2,5.0,20.2,106.0,E,13.0,11.2,DRY,,9999.0,,Sunny,590.2396917369166,sunny.gif
2025-06-17 09:45,12.5,20.0,0.0,0.0,1023.3,62.0,472.2,20.0,4.0,20.0,137.0,SE,9.4,7.2,DRY,,9999.0,,Mostly Sunny,600.7799247299901,mostly_sunny.gif
2025-06-17 09:50,12.7,20.2,0.0,0.0,1023.4,62.0,381.6,20.2,3.0,20.2,107.0,E,9.4,6.5,DRY,,9999.0,,Partly Cloudy,611.1295535167098,partly_cloudy.gif
2025-06-17 09:55,12.5,20.0,0.0,0.0,1023.2,62.0,361.6,20.0,3.0,20.0,152.0,SE,14.8,13.0,DRY,,9999.0,,Partly Cloudy,621.2833394152924,partly_cloudy.gif
2025-06-17 10:00,12.3,19.8,0.0,0.0,1023.4,62.0,426.0,19.8,4.0,19.8,116.0,SE,14.8,12.6,DRY,,9999.0,,Mostly Sunny,631.2361578828314,mostly_sunny.gif
2025-06-17 10:05,12.4,19.9,0.0,0.0,1023.2,62.0,373.1,19.9,3.0,19.9,162.0,S,11.2,9.7,DRY,,9999.0,,Partly Cloudy,640.98299934197,partly_cloudy.gif
2025-06-17 10:10,12.9,20.4,0.0,0.0,1023.4,62.0,465.8,20.4,4.0,20.4,143.0,SE,13.0,11.5,DRY,,9999.0,,Mostly Sunny,650.5189701058827,mostly_sunny.gif
2025-06-17 10:15,12.5,20.0,0.0,0.0,1023.3,62.0,483.7,20.0,4.0,20.0,144.0,SE,9.4,8.3,DRY,,9999.0,,Mostly Sunny,659.8392933875382,mostly_sunny.gif
2025-06-17 10:20,12.1,20.7,0.0,0.0,1023.6,58.0,640.0,20.7,6.0,20.7,141.0,SE,13.0,9.4,DRY,,9999.0,,Sunny,668.9393103749042,sunny.gif
2025-06-17 10:25,12.6,20.9,0.0,0.0,1023.4,59.0,641.0,20.9,6.0,20.9,154.0,SE,7.2,6.1,DRY,,9999.0,,Sunny,677.8144813610762,sunny.gif
2025-06-17 10:30,12.7,21.0,0.0,0.0,1023.5,58.0,572.3,21.3,5.0,21.3,131.0,SE,18.4,16.2,DRY,,9999.0,,Mostly Sunny,686.460386916341,mostly_sunny.gif
2025-06-17 10:35,12.5,20.9,0.0,0.0,1023.4,57.0,612.9,21.3,5.0,21.3,114.0,SE,16.6,10.4,DRY,,9999.0,,Sunny,694.8727290908067,sunny.gif
2025-06-17 10:40,12.5,21.3,0.0,0.0,1023.4,56.0,580.0,21.6,5.0,21.6,121.0,SE,13.0,11.9,DRY,,9999.0,,Mostly Sunny,703.0473326402073,mostly_sunny.gif
2025-06-17 10:45,12.3,21.0,0.0,0.0,1023.4,56.0,704.7,21.4,6.0,21.4,114.0,SE,14.8,13.0,DRY,,9999.0,,Sunny,710.9801462639502,sunny.gif
2025-06-17 10:50,12.8,21.1,0.0,0.0,1023.2,58.0,461.9,21.4,4.0,21.4,75.0,E,7.2,4.7,DRY,,9999.0,,Partly Cloudy,718.6672438503326,partly_cloudy.gif
2025-06-17 10:55,12.8,21.6,0.0,0.0,1023.2,56.0,466.8,21.9,4.0,21.9,118.0,SE,18.4,13.3,DRY,,9999.0,,Partly Cloudy,726.1048257198194,partly_cloudy.gif
2025-06-17 11:00,12.1,20.9,0.0,0.0,1023.3,56.0,532.6,21.2,5.0,21.2,100.0,E,11.2,9.7,DRY,,9999.0,,Mostly Sunny,733.2892198625125,mostly_sunny.gif
2025-06-17 11:05,13.0,21.6,0.0,0.0,1023.2,57.0,414.3,21.9,4.0,21.9,110.0,E,11.2,9.0,DRY,,9999.0,,Partly Cloudy,740.2168831623138,partly_cloudy.gif
2025-06-17 11:10,12.8,20.8,0.0,0.0,1023.1,59.0,262.0,21.1,2.0,21.1,155.0,SE,11.2,9.0,DRY,,9999.0,,Mostly Cloudy,746.8844026044408,mostly_cloudy.gif
2025-06-17 11:15,13.0,21.0,0.0,0.0,1023.1,59.0,266.5,21.3,2.0,21.3,93.0,E,3.6,2.2,DRY,,9999.0,,Mostly Cloudy,753.2884964611169,mostly_cloudy.gif
2025-06-17 11:20,13.3,21.2,0.0,0.0,1023.3,60.0,565.6,21.4,5.0,21.4,175.0,S,7.2,5.0,DRY,,9999.0,,Mostly Sunny,759.4260154510365,mostly_sunny.gif
2025-06-17 11:25,13.0,21.3,0.0,0.0,1023.2,58.0,360.7,21.6,3.0,21.6,76.0,E,7.2,4.0,DRY,,9999.0,,Partly Cloudy,765.2939438700652,partly_cloudy.gif
2025-06-17 11:30,12.8,21.1,0.0,0.0,1023.3,58.0,357.3,21.4,3.0,21.4,105.0,E,3.6,1.8,DRY,,9999.0,,Partly Cloudy,770.8894006885373,partly_cloudy.gif
2025-06-17 11:35,12.8,21.4,0.0,0.0,1023.5,57.0,488.5,21.7,4.0,21.7,151.0,SE,9.4,8.6,DRY,,9999.0,,Partly Cloudy,776.2096406133684,partly_cloudy.gif
2025-06-17 11:40,13.1,21.5,0.0,0.0,1023.4,58.0,543.9,21.7,5.0,21.7,101.0,E,11.2,9.7,DRY,,9999.0,,Mostly Sunny,781.2520551111841,mostly_sunny.gif
2025-06-17 11:45,12.9,21.5,0.0,0.0,1023.3,57.0,644.4,21.8,6.0,21.8,69.0,E,13.0,10.4,DRY,,9999.0,,Mostly Sunny,786.0141733908802,mostly_sunny.gif
2025-06-17 11:50,12.8,21.7,0.0,0.0,1023.2,56.0,449.6,22.0,4.0,22.0,75.0,E,5.4,5.4,DRY,,9999.0,,Partly Cloudy,790.4936633426265,partly_cloudy.gif
2025-06-17 11:55,13.4,22.0,0.0,0.0,1023.2,57.0,595.2,22.3,5.0,22.3,166.0,S,11.2,9.7,DRY,,9999.0,,Mostly Sunny,794.6883324318012,mostly_sunny.gif
2025-06-17 12:00,12.7,22.1,0.0,0.0,1023.2,54.0,569.4,22.4,5.0,22.4,134.0,SE,5.4,4.7,DRY,,9999.0,,Mostly Sunny,798.5961285456779,mostly_sunny.gif
2025-06-17 12:05,13.0,22.0,0.0,0.0,1023.2,56.0,606.9,22.2,5.0,22.2,131.0,SE,13.0,10.4,DRY,,9999.0,,Mostly Sunny,802.2151407912941,mostly_sunny.gif
2025-06-17 12:10,13.0,22.5,0.0,0.0,1023.1,54.0,579.7,22.8,5.0,22.8,143.0,SE,20.2,17.6,DRY,,9999.0,,Mostly Sunny,805.5436002429309,mostly_sunny.gif
2025-06-17 12:15,12.9,21.8,0.0,0.0,1023.1,56.0,320.6,22.1,3.0,22.1,170.0,S,14.8,11.5,DRY,,9999.0,,Mostly Cloudy,808.5798806379372,mostly_cloudy.gif
2025-06-17 12:20,12.8,21.6,0.0,0.0,1023.3,56.0,323.9,21.9,3.0,21.9,165.0,S,16.6,13.7,DRY,,9999.0,,Mostly Cloudy,811.3224990193917,mostly_cloudy.gif
2025-06-17 12:25,12.7,21.9,0.0,0.0,1023.1,55.0,493.8,22.2,4.0,22.2,141.0,SE,13.0,10.4,DRY,,9999.0,,Partly Cloudy,813.7701163249302,partly_cloudy.gif
2025-06-17 12:30,12.4,22.1,0.0,0.0,1023.1,53.0,523.7,22.4,5.0,22.4,121.0,SE,11.2,9.4,DRY,,9999.0,,Partly Cloudy,815.9215379201281,partly_cloudy.gif
2025-06-17 12:35,13.2,22.5,0.0,0.0,1022.89,55.0,517.0,22.7,5.0,22.7,155.0,SE,11.2,8.3,DRY,,9999.0,,Partly Cloudy,817.7757140763217,partly_cloudy.gif
2025-06-17 12:40,12.7,22.8,0.0,0.0,1022.79,52.0,524.3,23.1,5.0,23.1,121.0,SE,14.8,12.2,DRY,,9999.0,,Partly Cloudy,819.3317403914243,partly_cloudy.gif
2025-06-17 12:45,13.2,22.8,0.0,0.0,1022.79,54.0,533.9,23.0,5.0,23.0,123.0,SE,14.8,11.5,DRY,,9999.0,,Mostly Sunny,820.5888581532527,mostly_sunny.gif
2025-06-17 12:50,13.6,23.2,0.0,0.0,1022.89,54.0,598.6,23.4,5.0,23.4,160.0,S,11.2,7.2,DRY,,9999.0,,Mostly Sunny,821.5464546454085,mostly_sunny.gif
2025-06-17 12:55,13.2,23.4,0.0,0.0,1022.89,52.0,625.7,23.6,6.0,23.6,146.0,SE,13.0,9.7,DRY,,9999.0,,Mostly Sunny,822.2040633939625,mostly_sunny.gif
2025-06-17 13:00,12.9,23.4,0.0,0.0,1022.79,51.0,404.6,23.6,3.0,23.6,130.0,SE,5.4,4.0,DRY,,9999.0,,Partly Cloudy,822.5613643562433,partly_cloudy.gif
2025-06-17 13:05,13.9,23.6,0.0,0.0,1022.89,54.0,288.7,23.7,2.0,23.7,181.0,S,7.2,4.7,DRY,,9999.0,,Mostly Cloudy,822.6181840495482,mostly_cloudy.gif
2025-06-17 13:10,13.5,23.1,0.0,0.0,1022.69,54.0,695.6,23.3,6.0,23.3,163.0,S,7.2,6.1,DRY,,9999.0,,Mostly Sunny,822.3744956216818,mostly_sunny.gif
2025-06-17 13:15,13.9,23.6,0.0,0.0,1022.79,54.0,678.7,23.7,6.0,23.7,246.0,SW,7.2,6.1,DRY,,9999.0,,Mostly Sunny,821.830418860921,mostly_sunny.gif
2025-06-17 13:20,14.2,23.6,0.0,0.0,1022.59,55.0,643.9,23.8,6.0,23.8,187.0,S,13.0,9.0,DRY,,9999.0,,Mostly Sunny,820.9862201477852,mostly_sunny.gif
2025-06-17 13:25,13.4,24.3,0.0,0.0,1022.69,50.0,398.5,24.5,3.0,24.5,152.0,SE,7.2,4.7,DRY,,9999.0,,Partly Cloudy,819.8423123466861,partly_cloudy.gif
2025-06-17 13:30,13.6,23.5,0.0,0.0,1022.49,53.0,295.1,23.7,2.0,23.7,229.0,SW,11.2,7.9,DRY,,9999.0,,Mostly Cloudy,818.3992546383132,mostly_cloudy.gif
2025-06-17 13:35,12.7,23.7,0.0,0.0,1022.59,49.0,755.7,24.0,7.0,24.0,180.0,S,9.4,6.1,DRY,,9999.0,,Sunny,816.6577522941593,sunny.gif
2025-06-17 13:40,12.3,24.5,0.0,0.0,1022.49,46.0,746.1,24.7,7.0,24.7,92.0,E,7.2,4.0,DRY,,9999.0,,Sunny,814.6186563908873,sunny.gif
2025-06-17 13:45,12.2,24.2,0.0,0.0,1022.38,46.0,696.6,24.5,6.0,24.5,132.0,SE,5.4,3.6,DRY,,9999.0,,Sunny,812.2829634683245,sunny.gif
2025-06-17 13:50,12.3,23.6,0.0,0.0,1022.49,48.0,690.5,23.9,6.0,23.9,141.0,SE,16.6,13.7,DRY,,9999.0,,Sunny,809.6518151279685,sunny.gif
2025-06-17 13:55,11.9,23.9,0.0,0.0,1022.38,46.0,584.6,24.2,5.0,24.2,165.0,S,16.6,13.7,DRY,,9999.0,,Mostly Sunny,806.72649757647,mostly_sunny.gif
2025-06-17 14:00,12.4,23.8,0.0,0.0,1022.32,48.0,633.8,24.1,6.0,24.1,181.0,S,13.0,8.6,DRY,,9999.0,,Mostly Sunny,803.5084411107829,mostly_sunny.gif
2025-06-17 14:05,12.2,24.3,0.0,0.0,1022.38,46.0,691.7,24.6,6.0,24.6,107.0,E,9.4,7.2,DRY,,9999.0,,Sunny,799.9992195498903,sunny.gif
2025-06-17 14:10,12.5,24.6,0.0,0.0,1022.49,46.0,692.3,24.9,6.0,24.9,149.0,SE,16.6,14.4,DRY,,9999.0,,Sunny,796.2005496107114,sunny.gif
2025-06-17 14:15,12.0,24.4,0.0,0.0,1022.38,45.0,693.1,24.7,6.0,24.7,171.0,S,16.6,14.0,DRY,,9999.0,,Sunny,792.1142902304694,sunny.gif
2025-06-17 14:20,12.1,25.4,0.0,0.0,1022.22,43.0,681.6,25.6,6.0,25.6,163.0,S,13.0,9.7,DRY,,9999.0,,Sunny,787.7424418384483,sunny.gif
2025-06-17 14:25,11.7,24.8,0.0,0.0,1022.11,43.0,706.4,25.1,6.0,25.1,103.0,E,16.6,11.9,DRY,,9999.0,,Sunny,783.0871455744215,sunny.gif
2025-06-17 14:30,11.0,24.3,0.0,0.0,1022.38,42.0,711.5,24.7,6.0,24.7,115.0,SE,16.6,11.2,DRY,,9999.0,,Sunny,778.1506824603124,sunny.gif
2025-06-17 14:35,11.5,24.6,0.0,0.0,1022.01,43.0,703.8,24.9,6.0,24.9,153.0,SE,14.8,10.4,DRY,,9999.0,,Sunny,772.9354725212878,sunny.gif
2025-06-17 14:40,11.3,24.4,0.0,0.0,1022.22,43.0,677.7,24.7,6.0,24.7,167.0,S,9.4,8.3,DRY,,9999.0,,Sunny,767.4440738636944,sunny.gif
2025-06-17 14:45,11.7,24.8,0.0,0.0,1022.22,43.0,638.0,25.1,6.0,25.1,121.0,SE,16.6,14.0,DRY,,9999.0,,Mostly Sunny,761.67918170601,mostly_sunny.gif
2025-06-17 14:50,11.7,24.8,0.0,0.0,1021.91,43.0,588.7,25.1,5.0,25.1,115.0,SE,9.4,7.6,DRY,,9999.0,,Mostly Sunny,755.643627370768,mostly_sunny.gif
2025-06-17 14:55,11.8,25.3,0.0,0.0,1022.22,42.0,590.0,25.6,5.0,25.6,154.0,SE,22.0,18.7,DRY,,9999.0,,Mostly Sunny,749.3403772351311,mostly_sunny.gif
2025-06-17 15:00,10.5,24.2,0.0,0.0,1022.11,41.0,550.0,24.6,5.0,24.6,150.0,SE,25.6,20.2,DRY,,9999.0,,Mostly Sunny,742.7725316445315,mostly_sunny.gif
2025-06-17 15:05,11.3,24.8,0.0,0.0,1022.32,42.0,613.8,25.1,5.0,25.1,150.0,SE,20.2,17.3,DRY,,9999.0,,Mostly Sunny,735.9433237945279,mostly_sunny.gif
2025-06-17 15:10,11.3,24.8,0.0,0.0,1022.22,42.0,611.2,25.1,5.0,25.1,126.0,SE,16.6,14.4,DRY,,9999.0,,Mostly Sunny,728.8561185787024,mostly_sunny.gif
2025-06-17 15:15,11.4,24.4,0.0,0.0,1022.22,43.0,596.2,24.8,5.0,24.8,106.0,E,16.6,13.0,DRY,,9999.0,,Mostly Sunny,721.5144114128586,mostly_sunny.gif
2025-06-17 15:20,11.5,24.6,0.0,0.0,1022.11,43.0,584.3,24.9,5.0,24.9,175.0,S,14.8,11.9,DRY,,9999.0,,Mostly Sunny,713.92182703228,mostly_sunny.gif
2025-06-17 15:25,11.8,24.6,0.0,0.0,1022.11,44.0,597.5,24.9,5.0,24.9,143.0,SE,11.2,9.4,DRY,,9999.0,,Mostly Sunny,706.0821182736325,mostly_sunny.gif
2025-06-17 15:30,11.8,24.5,0.0,0.0,1022.11,44.0,583.5,24.8,5.0,24.8,184.0,S,16.6,13.0,DRY,,9999.0,,Mostly Sunny,697.9991648387908,mostly_sunny.gif
2025-06-17 15:35,11.6,24.7,0.0,0.0,1022.11,43.0,434.8,25.0,4.0,25.0,145.0,SE,20.2,16.9,DRY,,9999.0,,Partly Cloudy,689.6769720532333,partly_cloudy.gif
